{"type": "FeatureCollection", "features": [{"type": "Feature", "properties": {"name": "Corno Bianco Stadt", "km": 4.4, "dislivello": 325, "difficolta": "Facile", "durata": "Mezza Giornata"}, "geometry": {"type": "LineString", "coordinates": [[11.450862, 46.347389], [11.449994, 46.347146], [11.449533, 46.347725], [11.446776, 46.349048], [11.445323, 46.349573], [11.445014, 46.34995], [11.44507, 46.35033], [11.44536, 46.350591], [11.445387, 46.350816], [11.446531, 46.351519], [11.443801, 46.351499], [11.443008, 46.351821], [11.442942, 46.35212], [11.443286, 46.352229], [11.443701, 46.352635], [11.444111, 46.352474], [11.44433, 46.352646], [11.444104, 46.353753], [11.444271, 46.353696], [11.444377, 46.353939], [11.444147, 46.354138], [11.444293, 46.353988], [11.444256, 46.353672], [11.444136, 46.353747], [11.444333, 46.352644], [11.444128, 46.352467], [11.443703, 46.352647], [11.4433, 46.352176], [11.443063, 46.352266], [11.442906, 46.352074], [11.442437, 46.352], [11.44209, 46.351712], [11.441339, 46.351444], [11.441368, 46.35133], [11.441036, 46.351357], [11.440602, 46.350994], [11.440294, 46.350973], [11.440343, 46.350582], [11.440083, 46.350489], [11.440088, 46.350183], [11.439863, 46.350051], [11.439274, 46.349961], [11.43853, 46.350202], [11.437741, 46.350157], [11.437065, 46.34955], [11.436736, 46.349474], [11.437137, 46.349041], [11.435753, 46.349151], [11.435897, 46.348716], [11.435697, 46.348725], [11.436028, 46.348425], [11.435679, 46.34819], [11.434011, 46.347996], [11.433559, 46.347763], [11.432068, 46.347842], [11.431558, 46.347697], [11.43172, 46.347277], [11.431615, 46.347231]]}}, {"type": "Feature", "properties": {"name": "Saint Marc Jaumegarde", "km": 13.3, "dislivello": 756, "difficolta": "Media", "durata": "Giornata Intera"}, "geometry": {"type": "LineString", "coordinates": [[5.531359, 43.540946], [5.531604, 43.540916], [5.533029, 43.541694], [5.534087, 43.541529], [5.534621, 43.541127], [5.534613, 43.541302], [5.534956, 43.54148], [5.535774, 43.541413], [5.536301, 43.541023], [5.536581, 43.540365], [5.536441, 43.539869], [5.536035, 43.539348], [5.536276, 43.539482], [5.536732, 43.539341], [5.538035, 43.538659], [5.540197, 43.537089], [5.540768, 43.537099], [5.541885, 43.536571], [5.54298, 43.536823], [5.543645, 43.536618], [5.543949, 43.536983], [5.544455, 43.537015], [5.544938, 43.537346], [5.545663, 43.537335], [5.54634, 43.537819], [5.547005, 43.537659], [5.547481, 43.537906], [5.548028, 43.537879], [5.548509, 43.538034], [5.549014, 43.538648], [5.549487, 43.538713], [5.549652, 43.53888], [5.55024, 43.538854], [5.551188, 43.539225], [5.551455, 43.539084], [5.552368, 43.5393], [5.553253, 43.539189], [5.554201, 43.53855], [5.554774, 43.538328], [5.555075, 43.538441], [5.555458, 43.5382], [5.555801, 43.538464], [5.556036, 43.538339], [5.556746, 43.53841], [5.557772, 43.538754], [5.559222, 43.538707], [5.559354, 43.538589], [5.560894, 43.538984], [5.56187, 43.538309], [5.563234, 43.53835], [5.563555, 43.538173], [5.563963, 43.538378], [5.564569, 43.538363], [5.565606, 43.538782], [5.566588, 43.538449], [5.567976, 43.538248], [5.569255, 43.537497], [5.569802, 43.537399], [5.570968, 43.536538], [5.571533, 43.536511], [5.571614, 43.536296], [5.572054, 43.536016], [5.572105, 43.535709], [5.57313, 43.53496], [5.57395, 43.533855], [5.574708, 43.533574], [5.574404, 43.533456], [5.574362, 43.533194], [5.574666, 43.533331], [5.574759, 43.533021], [5.5752, 43.532839], [5.575971, 43.532128], [5.577312, 43.531799], [5.578104, 43.531864], [5.578572, 43.531743], [5.578638, 43.53157], [5.578862, 43.531585], [5.578764, 43.531465], [5.580182, 43.530995], [5.580168, 43.530853], [5.579963, 43.530863], [5.580051, 43.531041], [5.57968, 43.531223], [5.578764, 43.531418], [5.578799, 43.531657], [5.578535, 43.53177], [5.577274, 43.531829], [5.575803, 43.532253], [5.574841, 43.533005], [5.574706, 43.533355], [5.574415, 43.533413], [5.57465, 43.533538], [5.574289, 43.533544], [5.573673, 43.533928], [5.573473, 43.534569], [5.573111, 43.535031], [5.572107, 43.535716], [5.572016, 43.536076], [5.571626, 43.536321], [5.571664, 43.536537], [5.570663, 43.536638], [5.569587, 43.537479], [5.566954, 43.538509], [5.565457, 43.538638], [5.564504, 43.538397], [5.563876, 43.538481], [5.563604, 43.538222], [5.5623, 43.538239], [5.56146, 43.538443], [5.561077, 43.538877], [5.560775, 43.538979], [5.559944, 43.538718], [5.55776, 43.538765], [5.556942, 43.538434], [5.555697, 43.538377], [5.555113, 43.538586], [5.554377, 43.53848], [5.553785, 43.538734], [5.553355, 43.539141], [5.552235, 43.53928], [5.549943, 43.538882], [5.548911, 43.538479], [5.548283, 43.537939], [5.547492, 43.537941], [5.546629, 43.537652], [5.546245, 43.537753], [5.546231, 43.537564], [5.545674, 43.537282], [5.544088, 43.536925], [5.543562, 43.536568], [5.542999, 43.536718], [5.542079, 43.536555], [5.540764, 43.537075], [5.540161, 43.537093], [5.539392, 43.53775], [5.538603, 43.53807], [5.537637, 43.538778], [5.535593, 43.539039], [5.535621, 43.539217], [5.536078, 43.539374], [5.536555, 43.540331], [5.53625, 43.541019], [5.535627, 43.541492], [5.534505, 43.541335], [5.534564, 43.541155], [5.533887, 43.541624], [5.532972, 43.541701], [5.531856, 43.54105], [5.53134, 43.540972]]}}, {"type": "Feature", "properties": {"name": "Cascate Di Salima", "km": 5.5, "dislivello": 127, "difficolta": "Facile", "durata": "Mezza Giornata"}, "geometry": {"type": "LineString", "coordinates": [[11.537747, 46.30065], [11.537639, 46.299995], [11.536111, 46.298771], [11.53587, 46.298468], [11.535777, 46.297898], [11.535269, 46.297228], [11.535476, 46.296489], [11.535335, 46.295762], [11.535514, 46.295032], [11.535028, 46.294445], [11.534812, 46.293536], [11.534012, 46.292724], [11.5329, 46.29215], [11.531415, 46.29207], [11.529251, 46.291152], [11.527225, 46.29067], [11.526434, 46.290723], [11.52553, 46.290321], [11.524892, 46.290253], [11.524655, 46.289904], [11.523821, 46.28992], [11.523214, 46.289695], [11.521663, 46.290269], [11.52102, 46.291221], [11.520309, 46.291814], [11.519539, 46.291928], [11.518947, 46.292478], [11.517377, 46.292866], [11.516939, 46.293257], [11.516093, 46.292795], [11.515433, 46.29345], [11.51443, 46.29347], [11.513621, 46.293674], [11.512696, 46.2943], [11.51253, 46.294862], [11.512072, 46.295314], [11.511741, 46.296325], [11.511976, 46.296757], [11.511097, 46.297252], [11.511276, 46.297237], [11.511014, 46.29771], [11.510632, 46.297996], [11.511185, 46.298447], [11.510648, 46.298748], [11.51049, 46.299939], [11.509939, 46.300677], [11.509707, 46.301856], [11.508926, 46.302365], [11.508583, 46.303064], [11.507444, 46.303092], [11.50731, 46.302745], [11.50741, 46.302685], [11.506958, 46.302317], [11.506955, 46.302121], [11.505989, 46.301491], [11.505802, 46.301584]]}}, {"type": "Feature", "properties": {"name": "Gola Di Rastenbach", "km": 3.5, "dislivello": 227, "difficolta": "Facile", "durata": "Mezza Giornata"}, "geometry": {"type": "LineString", "coordinates": [[11.238127, 46.380065], [11.238521, 46.379279], [11.236691, 46.379227], [11.237471, 46.378881], [11.237632, 46.378988], [11.238292, 46.378841], [11.238415, 46.37896], [11.238662, 46.378816], [11.238687, 46.378968], [11.238863, 46.378961], [11.239094, 46.378776], [11.239196, 46.378983], [11.239429, 46.37884], [11.239583, 46.379494], [11.239454, 46.379601], [11.239672, 46.379689], [11.239379, 46.38034], [11.240336, 46.380698], [11.240257, 46.381054], [11.240468, 46.381023], [11.240381, 46.380882], [11.240488, 46.38102], [11.240391, 46.380911], [11.240947, 46.380886], [11.241553, 46.381046], [11.241517, 46.38126], [11.242079, 46.381116], [11.241575, 46.380902], [11.241915, 46.380858], [11.241918, 46.38098], [11.241682, 46.380899], [11.241975, 46.380983], [11.241952, 46.381162], [11.242508, 46.381136], [11.24253, 46.381361], [11.24215, 46.381439], [11.241942, 46.381852], [11.24149, 46.382021], [11.241436, 46.38223], [11.240169, 46.383012], [11.239979, 46.383361], [11.239703, 46.383328], [11.239759, 46.383528], [11.23896, 46.383746], [11.239045, 46.382815], [11.239232, 46.382678], [11.239333, 46.382263], [11.238715, 46.381969], [11.238507, 46.381534], [11.237873, 46.381152], [11.238161, 46.380997], [11.238393, 46.380394], [11.238283, 46.379949], [11.238149, 46.379986]]}}, {"type": "Feature", "properties": {"name": "Cima Di Col Margherita E Rifugio Laresei Da San Pellegrino S", "km": 13.3, "dislivello": 251, "difficolta": "Facile", "durata": "Giornata Intera"}, "geometry": {"type": "LineString", "coordinates": [[11.793746, 46.367366], [11.793336, 46.367364], [11.793196, 46.367514], [11.792959, 46.367302], [11.791651, 46.367031], [11.791606, 46.367391], [11.791851, 46.367211], [11.791684, 46.366833], [11.79208, 46.366567], [11.791831, 46.366665], [11.791388, 46.366275], [11.791493, 46.366506], [11.791243, 46.366602], [11.791539, 46.366431], [11.791852, 46.366633], [11.792058, 46.366332], [11.792016, 46.366916], [11.791812, 46.36703], [11.793258, 46.367482], [11.793349, 46.36731], [11.793597, 46.367284], [11.794, 46.367605], [11.795767, 46.367506], [11.795383, 46.367018], [11.794731, 46.366816], [11.794107, 46.366313], [11.793978, 46.366065], [11.79409, 46.365733], [11.794046, 46.36588], [11.794219, 46.365644], [11.794844, 46.365818], [11.795456, 46.365725], [11.795208, 46.365658], [11.795182, 46.365305], [11.795619, 46.365036], [11.796832, 46.364837], [11.797589, 46.364304], [11.797553, 46.36414], [11.797934, 46.36393], [11.798571, 46.363127], [11.800159, 46.363227], [11.799799, 46.362747], [11.800015, 46.362415], [11.799971, 46.362229], [11.801628, 46.361628], [11.802225, 46.361084], [11.801866, 46.360666], [11.800945, 46.360115], [11.800835, 46.359828], [11.800927, 46.359568], [11.800661, 46.359268], [11.800561, 46.358431], [11.800785, 46.358097], [11.801476, 46.357846], [11.801414, 46.357439], [11.801761, 46.356902], [11.80178, 46.356458], [11.802138, 46.355757], [11.802316, 46.355727], [11.802598, 46.356072], [11.803069, 46.356121], [11.80419, 46.355493], [11.805487, 46.355123], [11.805922, 46.355187], [11.807857, 46.354406], [11.80866, 46.35338], [11.808872, 46.352725], [11.809133, 46.352778], [11.809639, 46.353234], [11.810375, 46.353471], [11.810687, 46.353349], [11.811117, 46.353705], [11.811073, 46.353581], [11.8113, 46.353439], [11.811793, 46.353485], [11.811752, 46.353622], [11.811937, 46.353541], [11.811481, 46.353663], [11.811449, 46.353484], [11.811429, 46.353626], [11.811954, 46.353608], [11.811715, 46.353481], [11.811071, 46.353635], [11.810011, 46.353405], [11.809864, 46.353512], [11.809796, 46.353319], [11.80889, 46.352764], [11.808454, 46.353758], [11.808134, 46.353984], [11.807963, 46.354389], [11.80662, 46.354841], [11.80618, 46.355199], [11.807119, 46.355339], [11.808547, 46.355199], [11.80902, 46.354904], [11.809607, 46.354889], [11.811128, 46.355437], [11.811297, 46.355673], [11.812134, 46.356104], [11.814034, 46.356377], [11.815199, 46.356938], [11.815883, 46.357008], [11.816383, 46.357658], [11.818949, 46.359161], [11.819235, 46.359581], [11.818621, 46.360007], [11.818523, 46.360652], [11.820074, 46.362519], [11.818887, 46.362663], [11.818839, 46.362966], [11.818257, 46.363332], [11.817685, 46.364146], [11.818364, 46.363254], [11.817958, 46.363888], [11.817592, 46.364131], [11.817018, 46.363876], [11.81713, 46.364036], [11.816742, 46.364826], [11.815528, 46.365836], [11.814063, 46.365882], [11.81361, 46.366119], [11.812565, 46.367391], [11.811446, 46.369377], [11.811643, 46.369727], [11.812093, 46.3699], [11.814127, 46.369887], [11.814151, 46.370134], [11.813288, 46.370683], [11.813131, 46.371031], [11.814165, 46.371343], [11.814393, 46.371583], [11.814297, 46.371633], [11.814701, 46.371867], [11.81453, 46.372202], [11.814049, 46.372383], [11.814511, 46.372538], [11.814437, 46.372668], [11.812889, 46.373113], [11.810837, 46.373086], [11.809552, 46.37349], [11.808059, 46.373721], [11.807041, 46.374136], [11.806804, 46.374471], [11.806561, 46.374449], [11.806038, 46.374857], [11.805496, 46.375084], [11.805166, 46.375097], [11.805107, 46.374977], [11.804252, 46.375372], [11.802691, 46.376565], [11.80226, 46.377233]]}}, {"type": "Feature", "properties": {"name": "Cascate Di Cavalese", "km": 17.8, "dislivello": 266, "difficolta": "Facile", "durata": "Giornata Intera"}, "geometry": {"type": "LineString", "coordinates": [[11.520625, 46.281559], [11.519321, 46.281317], [11.516863, 46.281685], [11.515415, 46.281577], [11.508495, 46.281886], [11.507944, 46.282111], [11.506703, 46.283024], [11.506296, 46.283625], [11.505599, 46.284209], [11.504866, 46.284578], [11.503522, 46.284848], [11.501081, 46.284438], [11.499954, 46.283711], [11.497978, 46.28278], [11.49725, 46.282696], [11.495963, 46.282843], [11.49507, 46.283178], [11.493205, 46.284291], [11.492783, 46.285119], [11.48969, 46.285585], [11.48617, 46.285221], [11.485037, 46.284215], [11.483824, 46.283693], [11.481777, 46.283277], [11.480317, 46.283262], [11.478942, 46.283044], [11.474388, 46.283375], [11.472838, 46.283208], [11.47185, 46.282505], [11.471353, 46.282704], [11.469998, 46.282789], [11.466826, 46.282382], [11.465851, 46.282131], [11.464403, 46.281312], [11.46384, 46.28073], [11.463484, 46.279927], [11.46268, 46.279309], [11.461074, 46.278842], [11.459466, 46.278723], [11.458036, 46.278383], [11.456496, 46.278835], [11.455881, 46.279358], [11.452338, 46.279346], [11.45214, 46.279204], [11.451899, 46.278276], [11.452106, 46.278191], [11.452319, 46.278551], [11.450696, 46.277882], [11.451108, 46.277633], [11.450895, 46.277517], [11.451928, 46.277144], [11.453382, 46.277378], [11.453425, 46.277567], [11.453237, 46.277657], [11.453374, 46.277879], [11.452387, 46.277977], [11.452785, 46.278274], [11.452452, 46.278859], [11.452762, 46.279309], [11.455737, 46.279341], [11.456091, 46.279272], [11.456238, 46.278935], [11.456623, 46.278718], [11.457297, 46.278532], [11.458198, 46.278541], [11.459147, 46.278901], [11.462089, 46.280828], [11.462836, 46.281532], [11.46457, 46.282442], [11.465883, 46.282424], [11.468618, 46.282901], [11.468959, 46.283094], [11.471085, 46.283236], [11.471616, 46.283404], [11.472613, 46.283146], [11.474872, 46.283367], [11.478823, 46.283016], [11.482159, 46.283176], [11.483611, 46.283422], [11.485238, 46.283284], [11.487831, 46.283693], [11.488537, 46.284262], [11.491185, 46.28518], [11.492263, 46.285048], [11.492729, 46.284508], [11.495545, 46.282941], [11.497196, 46.282692], [11.49817, 46.282817], [11.499748, 46.283566], [11.501108, 46.284457], [11.503227, 46.284836], [11.50473, 46.284598], [11.505589, 46.284199], [11.506142, 46.2838], [11.506575, 46.283166], [11.507677, 46.282319], [11.50868, 46.28192], [11.516841, 46.281641], [11.519561, 46.281311], [11.520558, 46.281502], [11.523448, 46.282805], [11.524239, 46.282918], [11.523638, 46.282833]]}}, {"type": "Feature", "properties": {"name": "Carezza Catinaccio Rif Coronelle", "km": 3.9, "dislivello": 314, "difficolta": "Facile", "durata": "Mezza Giornata"}, "geometry": {"type": "LineString", "coordinates": [[11.615031, 46.416608], [11.616251, 46.417061], [11.61601, 46.417318], [11.616112, 46.417545], [11.615977, 46.417877], [11.616793, 46.418477], [11.616057, 46.418807], [11.615751, 46.419221], [11.616392, 46.419669], [11.615945, 46.419778], [11.615972, 46.420046], [11.615786, 46.42028], [11.616073, 46.420296], [11.615329, 46.42055], [11.6142, 46.421787], [11.614301, 46.421846], [11.614169, 46.422413], [11.61441, 46.422589], [11.614026, 46.423156], [11.614108, 46.423881], [11.613912, 46.42462], [11.613479, 46.424825], [11.612857, 46.425726], [11.611532, 46.426724], [11.611886, 46.427271], [11.61171, 46.427678], [11.61214, 46.428907], [11.612092, 46.4293], [11.611691, 46.429639], [11.611607, 46.430211], [11.61193, 46.431447], [11.612268, 46.431705], [11.611999, 46.432236], [11.612177, 46.432486], [11.611824, 46.433065], [11.611771, 46.433734], [11.612154, 46.434158], [11.611979, 46.434777], [11.612071, 46.435487], [11.612835, 46.435958], [11.612517, 46.436323], [11.612847, 46.436801], [11.612572, 46.437552], [11.61283, 46.437936], [11.612387, 46.438668], [11.612582, 46.438928], [11.612375, 46.439623], [11.612544, 46.440479], [11.612158, 46.441314], [11.612187, 46.442267]]}}, {"type": "Feature", "properties": {"name": "Rifugio Paolina Rifugio Coronelle Carezza", "km": 14.4, "dislivello": 462, "difficolta": "Media", "durata": "Giornata Intera"}, "geometry": {"type": "LineString", "coordinates": [[11.614636, 46.415699], [11.614725, 46.415838], [11.614918, 46.415748], [11.615459, 46.415174], [11.617649, 46.413693], [11.617617, 46.41392], [11.618382, 46.41354], [11.619487, 46.41342], [11.622047, 46.413951], [11.62301, 46.413856], [11.622063, 46.41417], [11.620244, 46.414209], [11.619393, 46.414629], [11.618987, 46.415408], [11.618945, 46.416348], [11.618786, 46.416644], [11.618906, 46.417305], [11.618793, 46.417461], [11.619368, 46.418303], [11.619266, 46.418922], [11.618564, 46.419555], [11.618668, 46.41982], [11.618353, 46.420118], [11.618325, 46.420525], [11.618036, 46.420887], [11.6175, 46.421159], [11.617334, 46.422523], [11.617275, 46.422679], [11.617114, 46.422628], [11.617255, 46.422938], [11.617144, 46.423282], [11.616343, 46.424132], [11.616111, 46.424176], [11.615261, 46.425605], [11.614827, 46.426031], [11.612982, 46.426408], [11.612336, 46.426747], [11.612133, 46.427243], [11.612276, 46.428057], [11.612176, 46.429186], [11.611696, 46.429799], [11.611661, 46.430466], [11.612002, 46.431344], [11.611892, 46.431402], [11.612332, 46.431723], [11.612004, 46.432089], [11.612157, 46.432475], [11.611826, 46.433669], [11.612075, 46.43408], [11.612109, 46.435611], [11.61273, 46.435814], [11.612861, 46.436034], [11.612532, 46.436356], [11.61291, 46.436804], [11.612633, 46.437515], [11.612885, 46.438012], [11.612559, 46.438315], [11.612484, 46.438681], [11.612614, 46.438934], [11.612379, 46.439284], [11.612374, 46.440005], [11.612622, 46.440516], [11.612136, 46.441667], [11.612248, 46.442251], [11.612375, 46.442265], [11.611868, 46.442791], [11.611804, 46.442645], [11.612253, 46.442346], [11.612053, 46.441654], [11.612521, 46.440606], [11.612289, 46.439938], [11.612418, 46.439423], [11.612207, 46.439338], [11.611675, 46.439469], [11.611005, 46.440103], [11.610259, 46.440461], [11.610055, 46.440422], [11.610292, 46.43982], [11.60959, 46.440099], [11.609291, 46.440559], [11.6088, 46.440578], [11.608248, 46.440848], [11.607302, 46.440816], [11.603718, 46.441193], [11.60125, 46.440903], [11.599099, 46.441168], [11.598256, 46.440581], [11.598102, 46.440149], [11.597682, 46.43985], [11.597183, 46.438609], [11.596925, 46.43841], [11.597126, 46.4383], [11.59613, 46.437148], [11.594919, 46.436184], [11.593344, 46.435447], [11.59235, 46.434528], [11.59163, 46.434389], [11.590916, 46.434015], [11.591235, 46.433792], [11.591088, 46.433553], [11.591175, 46.433441], [11.5927, 46.433405], [11.595932, 46.434243], [11.59667, 46.434262], [11.596916, 46.433874], [11.596843, 46.43418], [11.596967, 46.434196], [11.597039, 46.433963], [11.597196, 46.43409], [11.597022, 46.434119], [11.597237, 46.434082], [11.597143, 46.434203], [11.596809, 46.434189], [11.596923, 46.433851], [11.597403, 46.433686], [11.597327, 46.433362], [11.597886, 46.433386], [11.598323, 46.432922], [11.598441, 46.432449], [11.598741, 46.432191], [11.598629, 46.431756], [11.598775, 46.431454], [11.599845, 46.430539], [11.599658, 46.42989], [11.59966, 46.429088], [11.599079, 46.428309], [11.599251, 46.427778], [11.598609, 46.427651], [11.59809, 46.427332], [11.598001, 46.426358], [11.597094, 46.424457], [11.597438, 46.424103], [11.598414, 46.423889], [11.598594, 46.423551], [11.598989, 46.423282], [11.59952, 46.422241], [11.600266, 46.421674], [11.600851, 46.421585], [11.601416, 46.42127], [11.601527, 46.421121], [11.601414, 46.420847], [11.602777, 46.419703], [11.601177, 46.420037], [11.601354, 46.419768], [11.600626, 46.419318], [11.600886, 46.418227], [11.600518, 46.417356], [11.60078, 46.416651], [11.599925, 46.416484], [11.599352, 46.416017], [11.599249, 46.415655], [11.599694, 46.415407], [11.599714, 46.415223], [11.597607, 46.413411], [11.597713, 46.412737], [11.598008, 46.412276], [11.599475, 46.411196], [11.599745, 46.410798]]}}, {"type": "Feature", "properties": {"name": "Rifugio Fuciade Da Passo San Pellegrino", "km": 9.7, "dislivello": 283, "difficolta": "Facile", "durata": "Mezza Giornata"}, "geometry": {"type": "LineString", "coordinates": [[11.801288, 46.379639], [11.801852, 46.37974], [11.802453, 46.380109], [11.804236, 46.380485], [11.805932, 46.380743], [11.80669, 46.380712], [11.806808, 46.380846], [11.806632, 46.381547], [11.807041, 46.38184], [11.807633, 46.381833], [11.808284, 46.381392], [11.808838, 46.381461], [11.8092, 46.381301], [11.81019, 46.38147], [11.810415, 46.381967], [11.809784, 46.382576], [11.810799, 46.38312], [11.811911, 46.382768], [11.812859, 46.382708], [11.813609, 46.38304], [11.81416, 46.383675], [11.815187, 46.383417], [11.816697, 46.383833], [11.816802, 46.384128], [11.817395, 46.384351], [11.817852, 46.385025], [11.818299, 46.385308], [11.818668, 46.386257], [11.8201, 46.38668], [11.820198, 46.386784], [11.820036, 46.387122], [11.820178, 46.387298], [11.821424, 46.387602], [11.822857, 46.388861], [11.824453, 46.389372], [11.825199, 46.389965], [11.825593, 46.390724], [11.825663, 46.391232], [11.82603, 46.391238], [11.826016, 46.391079], [11.827156, 46.392044], [11.826895, 46.39188], [11.826346, 46.391904], [11.826, 46.391456], [11.826085, 46.391173], [11.825947, 46.391443], [11.826308, 46.391846], [11.827142, 46.392055], [11.826843, 46.391887], [11.826449, 46.391976], [11.82601, 46.391507], [11.826059, 46.391246], [11.825663, 46.391287], [11.825737, 46.391071], [11.825555, 46.391109], [11.825627, 46.390812], [11.825184, 46.389984], [11.82452, 46.389398], [11.822933, 46.388867], [11.82164, 46.387694], [11.820346, 46.387446], [11.820068, 46.387193], [11.820094, 46.386754], [11.818663, 46.386249], [11.818263, 46.385367], [11.817827, 46.38509], [11.817343, 46.384364], [11.816817, 46.384184], [11.816573, 46.383879], [11.81552, 46.383469], [11.814912, 46.383481], [11.814084, 46.383781], [11.813645, 46.383051], [11.813763, 46.383026], [11.812893, 46.382743], [11.811915, 46.38276], [11.811226, 46.383125], [11.810703, 46.383167], [11.809814, 46.382678], [11.810362, 46.381932], [11.81025, 46.381602], [11.809987, 46.381422], [11.809312, 46.381313], [11.808839, 46.38149], [11.808289, 46.381449], [11.807644, 46.381879], [11.806991, 46.381888], [11.806669, 46.381697], [11.806577, 46.381412], [11.806694, 46.380734], [11.804798, 46.380652], [11.803898, 46.380343], [11.802087, 46.380047], [11.801826, 46.379787], [11.800618, 46.379662], [11.80015, 46.379274], [11.798741, 46.378945], [11.798569, 46.378731], [11.797999, 46.378546], [11.796674, 46.378692], [11.796826, 46.378234], [11.799234, 46.378187], [11.802022, 46.378743], [11.802101, 46.378424], [11.802355, 46.378245]]}}, {"type": "Feature", "properties": {"name": "Val Venegia", "km": 17.8, "dislivello": 587, "difficolta": "Media", "durata": "Giornata Intera"}, "geometry": {"type": "LineString", "coordinates": [[11.780856, 46.321315], [11.781949, 46.321622], [11.784228, 46.321568], [11.784808, 46.321493], [11.785596, 46.321067], [11.78691, 46.320987], [11.78796, 46.321728], [11.79036, 46.32275], [11.790782, 46.322781], [11.793657, 46.321244], [11.797733, 46.319903], [11.799359, 46.319906], [11.800474, 46.319216], [11.802248, 46.318502], [11.803343, 46.317793], [11.805296, 46.317132], [11.808, 46.315655], [11.810621, 46.315224], [11.811736, 46.31445], [11.814578, 46.314096], [11.815339, 46.313509], [11.816781, 46.313025], [11.817648, 46.312583], [11.818065, 46.312178], [11.818855, 46.311864], [11.819343, 46.309275], [11.819234, 46.308429], [11.818732, 46.307224], [11.81806, 46.306977], [11.81742, 46.306273], [11.815209, 46.302138], [11.814281, 46.301858], [11.814166, 46.301368], [11.814584, 46.30095], [11.814275, 46.300957], [11.813686, 46.301474], [11.813198, 46.301406], [11.813293, 46.300865], [11.813998, 46.300521], [11.813771, 46.300337], [11.812892, 46.300292], [11.81266, 46.300126], [11.813411, 46.299846], [11.813428, 46.299626], [11.812725, 46.299446], [11.812014, 46.300213], [11.811821, 46.300733], [11.811568, 46.300782], [11.811453, 46.300606], [11.811344, 46.299816], [11.812186, 46.299068], [11.811707, 46.298936], [11.811108, 46.299023], [11.810861, 46.298831], [11.811259, 46.298649], [11.812015, 46.297784], [11.812021, 46.297179], [11.811781, 46.297119], [11.811677, 46.297572], [11.809427, 46.297792], [11.808793, 46.29754], [11.809029, 46.297115], [11.808911, 46.296941], [11.808026, 46.296564], [11.807817, 46.297034], [11.806883, 46.297268], [11.807068, 46.297557], [11.806904, 46.29783], [11.805165, 46.298423], [11.804391, 46.298516], [11.804826, 46.298638], [11.80505, 46.298395], [11.80686, 46.297829], [11.807012, 46.297505], [11.806852, 46.297241], [11.807824, 46.296936], [11.807936, 46.296519], [11.808284, 46.29656], [11.809064, 46.297006], [11.808769, 46.297526], [11.809104, 46.297747], [11.81166, 46.297539], [11.811702, 46.297164], [11.811956, 46.297217], [11.812045, 46.297827], [11.811482, 46.29826], [11.811253, 46.298639], [11.810852, 46.298848], [11.811044, 46.299042], [11.811662, 46.29894], [11.812105, 46.299066], [11.812106, 46.29926], [11.811617, 46.299444], [11.81129, 46.299886], [11.811519, 46.300752], [11.811768, 46.300728], [11.811878, 46.300204], [11.812655, 46.299504], [11.812997, 46.299453], [11.813458, 46.299681], [11.813284, 46.299936], [11.812651, 46.300038], [11.812798, 46.300195], [11.813741, 46.300308], [11.813913, 46.300462], [11.813885, 46.300656], [11.813443, 46.300786], [11.813197, 46.301127], [11.813649, 46.301484], [11.814073, 46.301025], [11.814574, 46.300898], [11.81461, 46.301039], [11.814189, 46.301399], [11.814262, 46.301779], [11.815205, 46.302091], [11.815482, 46.302488], [11.816333, 46.304385], [11.815917, 46.304696], [11.815953, 46.30448], [11.815934, 46.304614], [11.816356, 46.304474], [11.817119, 46.305905], [11.818027, 46.306953], [11.818729, 46.307267], [11.818922, 46.307938], [11.819362, 46.308448], [11.819345, 46.31023], [11.819169, 46.310561], [11.819136, 46.311203], [11.818867, 46.311557], [11.818915, 46.3118], [11.816007, 46.313351], [11.815246, 46.313511], [11.814902, 46.313892], [11.814889, 46.31362], [11.81458, 46.313384], [11.814814, 46.313571], [11.814833, 46.31391], [11.814208, 46.314196], [11.812705, 46.314249], [11.811821, 46.31452], [11.810569, 46.315295], [11.807962, 46.315681], [11.805306, 46.317164], [11.803551, 46.317769], [11.79941, 46.319923], [11.797634, 46.319988], [11.793734, 46.321271], [11.790837, 46.322909], [11.790498, 46.322971], [11.790009, 46.322786], [11.788385, 46.321862], [11.787225, 46.321442], [11.786919, 46.321081], [11.785471, 46.321194], [11.78437, 46.321678], [11.781959, 46.321727], [11.781332, 46.321427], [11.781217, 46.321123], [11.780877, 46.32112]]}}, {"type": "Feature", "properties": {"name": "Vigo Di Fassa", "km": 14.8, "dislivello": 1058, "difficolta": "Difficile", "durata": "Giornata Intera"}, "geometry": {"type": "LineString", "coordinates": [[11.665368, 46.433464], [11.665052, 46.433499], [11.664752, 46.433778], [11.663872, 46.433646], [11.662746, 46.433841], [11.661157, 46.433505], [11.660098, 46.433692], [11.659374, 46.433473], [11.658766, 46.433676], [11.658621, 46.433867], [11.658099, 46.433173], [11.657851, 46.433156], [11.657981, 46.432997], [11.657532, 46.432807], [11.656021, 46.432931], [11.654119, 46.432663], [11.65363, 46.432344], [11.652875, 46.432506], [11.652127, 46.431903], [11.652342, 46.431906], [11.652055, 46.432103], [11.651807, 46.432061], [11.651375, 46.431891], [11.651029, 46.43159], [11.651059, 46.431454], [11.650141, 46.431373], [11.649533, 46.431078], [11.64841, 46.430991], [11.648414, 46.430677], [11.647616, 46.430357], [11.646284, 46.43053], [11.643996, 46.430179], [11.644032, 46.430568], [11.643818, 46.430683], [11.642642, 46.430755], [11.642743, 46.430817], [11.64239, 46.430912], [11.64254, 46.431111], [11.642156, 46.431294], [11.64189, 46.43183], [11.64125, 46.432182], [11.641273, 46.432406], [11.640192, 46.433213], [11.639967, 46.43329], [11.63984, 46.43313], [11.639239, 46.433547], [11.637622, 46.434104], [11.636055, 46.433925], [11.635209, 46.43409], [11.635272, 46.434181], [11.634643, 46.43432], [11.63443, 46.434677], [11.633899, 46.43484], [11.633906, 46.435269], [11.633851, 46.435079], [11.633518, 46.435188], [11.633763, 46.435554], [11.633521, 46.435574], [11.633387, 46.435852], [11.633503, 46.436127], [11.633305, 46.436415], [11.633563, 46.436443], [11.633427, 46.436885], [11.632978, 46.437362], [11.633181, 46.437752], [11.633147, 46.438083], [11.632982, 46.438208], [11.6317, 46.437523], [11.630915, 46.437677], [11.630218, 46.438061], [11.629418, 46.437837], [11.628588, 46.438834], [11.62844, 46.438769], [11.627802, 46.439409], [11.626485, 46.439661], [11.626426, 46.439903], [11.625935, 46.44013], [11.625652, 46.44059], [11.624921, 46.440966], [11.624719, 46.441664], [11.624009, 46.442057], [11.62361, 46.44261], [11.623386, 46.442611], [11.623377, 46.443233], [11.622501, 46.444252], [11.622399, 46.444602], [11.622849, 46.445335], [11.622833, 46.446183], [11.623185, 46.447643], [11.623369, 46.447782], [11.623461, 46.448554], [11.623982, 46.449429], [11.625119, 46.449646], [11.626073, 46.450574], [11.626854, 46.451032], [11.627455, 46.451811], [11.627108, 46.452162], [11.627334, 46.452342], [11.627277, 46.452445], [11.626871, 46.452546], [11.626667, 46.452849], [11.626911, 46.452892], [11.62681, 46.453302], [11.62698, 46.453288], [11.626974, 46.453555], [11.62724, 46.453816], [11.627121, 46.454207], [11.627741, 46.45444], [11.62771, 46.454598], [11.628126, 46.454857], [11.628149, 46.455129], [11.628311, 46.455187], [11.628007, 46.455454], [11.62829, 46.455328], [11.628557, 46.455446], [11.628504, 46.45588], [11.628253, 46.456114], [11.62834, 46.456291], [11.628593, 46.456284], [11.62923, 46.45677], [11.629304, 46.457037], [11.629148, 46.457229], [11.62939, 46.457302], [11.62966, 46.457157], [11.629916, 46.45739], [11.629811, 46.458297], [11.630415, 46.458707], [11.63064, 46.459154], [11.630852, 46.459045], [11.631091, 46.459178], [11.630884, 46.45916], [11.630991, 46.459014], [11.632114, 46.459171], [11.632275, 46.458576], [11.632607, 46.458533], [11.633618, 46.455264], [11.633723, 46.454396], [11.633608, 46.454245], [11.63383, 46.453664], [11.634421, 46.452724], [11.635915, 46.451763], [11.636622, 46.450817], [11.637234, 46.44953], [11.637512, 46.449308], [11.637008, 46.44927], [11.63702, 46.448897], [11.637469, 46.449066], [11.637887, 46.44892], [11.638674, 46.448032], [11.639481, 46.447639], [11.639261, 46.447505], [11.639611, 46.447591], [11.639794, 46.44745], [11.639945, 46.446888], [11.640735, 46.446042], [11.640382, 46.445089], [11.640782, 46.444695], [11.640775, 46.444407], [11.640956, 46.444265], [11.640821, 46.443803], [11.641246, 46.443667], [11.641356, 46.44335], [11.641821, 46.443299], [11.643073, 46.442616], [11.643352, 46.442605], [11.643636, 46.44204], [11.645899, 46.440937], [11.646136, 46.440535], [11.645992, 46.440113], [11.646319, 46.439386], [11.647284, 46.439239], [11.648187, 46.438672], [11.649081, 46.438383], [11.649521, 46.438038], [11.649641, 46.437557], [11.650296, 46.436881], [11.651358, 46.436785], [11.65122, 46.436574], [11.652234, 46.436259], [11.652333, 46.436001], [11.652747, 46.435929], [11.653696, 46.43537], [11.656356, 46.435863], [11.658913, 46.434497], [11.659517, 46.4338], [11.66036, 46.433512], [11.661673, 46.433502], [11.662763, 46.433778], [11.664037, 46.433562], [11.664695, 46.433689], [11.665115, 46.433487], [11.665018, 46.433444], [11.665198, 46.433278], [11.665419, 46.433273], [11.665293, 46.433147]]}}, {"type": "Feature", "properties": {"name": "Calcata", "km": 7.3, "dislivello": 311, "difficolta": "Facile", "durata": "Mezza Giornata"}, "geometry": {"type": "LineString", "coordinates": [[12.419973, 42.216714], [12.419694, 42.216644], [12.419912, 42.216623], [12.419961, 42.216345], [12.420983, 42.216251], [12.421092, 42.216069], [12.422063, 42.215868], [12.421412, 42.215767], [12.421319, 42.215332], [12.421428, 42.21515], [12.421284, 42.215053], [12.421628, 42.213976], [12.42233, 42.213183], [12.42221, 42.212351], [12.4218, 42.21179], [12.421345, 42.211495], [12.419503, 42.210983], [12.419291, 42.211116], [12.418837, 42.210756], [12.418022, 42.21144], [12.417663, 42.21215], [12.419849, 42.212711], [12.419962, 42.212667], [12.419563, 42.21224], [12.419082, 42.212129], [12.418888, 42.211925], [12.419053, 42.212111], [12.419605, 42.212235], [12.419951, 42.21272], [12.417687, 42.212241], [12.417599, 42.212114], [12.417959, 42.211428], [12.418726, 42.210771], [12.419381, 42.21113], [12.419554, 42.210894], [12.418745, 42.210288], [12.418751, 42.210078], [12.416404, 42.210115], [12.415812, 42.209865], [12.415298, 42.20906], [12.414418, 42.208338], [12.413811, 42.20717], [12.413413, 42.206764], [12.412971, 42.20653], [12.412033, 42.206393], [12.412314, 42.206428], [12.412535, 42.206072], [12.412942, 42.206147], [12.412764, 42.20607], [12.413305, 42.204923], [12.41308, 42.20428], [12.412758, 42.203938], [12.412984, 42.203569], [12.41362, 42.203852], [12.413918, 42.203629], [12.41485, 42.203442], [12.415204, 42.203576], [12.418115, 42.203372], [12.418662, 42.203834], [12.418775, 42.204889], [12.419951, 42.207072], [12.419504, 42.208917], [12.418702, 42.210062], [12.419544, 42.211007], [12.421549, 42.211592], [12.422053, 42.212064], [12.42243, 42.212932], [12.421567, 42.21403], [12.42148, 42.214815], [12.421259, 42.215119], [12.421439, 42.215241], [12.42145, 42.215802], [12.422032, 42.215898], [12.421099, 42.216111], [12.421, 42.216267], [12.419976, 42.216347], [12.419922, 42.216653], [12.419606, 42.21667], [12.419276, 42.216644], [12.419267, 42.216415], [12.418556, 42.216]]}}, {"type": "Feature", "properties": {"name": "Sentiero Di Federico Augusto Di Sassonia", "km": 13.3, "dislivello": 473, "difficolta": "Media", "durata": "Giornata Intera"}, "geometry": {"type": "LineString", "coordinates": [[11.751278, 46.496598], [11.751414, 46.497524], [11.750417, 46.497441], [11.750044, 46.498084], [11.748224, 46.499725], [11.746859, 46.500181], [11.745493, 46.500414], [11.745322, 46.50029], [11.745502, 46.500436], [11.745018, 46.50101], [11.744548, 46.501193], [11.743657, 46.50122], [11.742848, 46.502016], [11.742728, 46.501973], [11.742799, 46.501589], [11.742098, 46.50108], [11.741325, 46.500924], [11.740463, 46.500488], [11.738782, 46.500323], [11.738131, 46.499918], [11.737582, 46.4998], [11.73629, 46.500316], [11.735977, 46.500696], [11.735963, 46.500978], [11.734145, 46.500386], [11.733326, 46.501456], [11.731662, 46.50209], [11.730597, 46.502041], [11.729001, 46.501335], [11.727644, 46.501332], [11.726541, 46.50173], [11.726223, 46.501635], [11.726059, 46.501801], [11.725702, 46.501665], [11.724507, 46.502488], [11.722758, 46.503079], [11.722519, 46.503096], [11.722269, 46.502864], [11.721674, 46.502954], [11.721364, 46.503418], [11.720156, 46.504226], [11.719835, 46.504227], [11.719433, 46.503893], [11.718913, 46.503959], [11.718873, 46.503785], [11.71853, 46.503693], [11.71736, 46.503907], [11.716982, 46.503822], [11.716749, 46.50402], [11.716634, 46.503912], [11.716066, 46.503985], [11.713848, 46.504571], [11.712549, 46.504479], [11.712417, 46.504576], [11.712678, 46.504846], [11.712522, 46.50507], [11.711156, 46.505775], [11.709011, 46.506448], [11.708526, 46.506318], [11.707407, 46.506512], [11.706733, 46.506444], [11.705799, 46.505924], [11.704966, 46.505857], [11.704704, 46.505585], [11.703902, 46.50526], [11.701818, 46.5053], [11.701178, 46.50509], [11.700904, 46.504816], [11.703939, 46.505282], [11.705027, 46.505928], [11.70586, 46.505977], [11.707035, 46.506495], [11.708117, 46.506546], [11.708675, 46.506379], [11.709147, 46.506499], [11.711159, 46.505842], [11.712488, 46.505124], [11.712615, 46.504834], [11.712414, 46.504594], [11.712754, 46.504198], [11.713918, 46.504628], [11.71609, 46.504012], [11.716644, 46.503944], [11.716747, 46.504052], [11.716964, 46.503839], [11.71724, 46.503873], [11.717234, 46.503645], [11.717727, 46.503909], [11.718725, 46.503731], [11.719083, 46.504011], [11.719475, 46.503943], [11.71991, 46.50425], [11.720194, 46.504239], [11.720548, 46.50386], [11.720878, 46.503803], [11.721435, 46.503373], [11.721706, 46.502933], [11.722358, 46.502901], [11.722554, 46.503094], [11.722851, 46.503058], [11.724502, 46.502517], [11.724798, 46.502193], [11.726213, 46.501649], [11.726528, 46.50174], [11.727684, 46.501331], [11.729037, 46.501346], [11.730475, 46.502029], [11.731447, 46.502126], [11.733353, 46.501448], [11.734104, 46.500412], [11.734652, 46.50047], [11.736, 46.500985], [11.736006, 46.500456], [11.737594, 46.499792], [11.738712, 46.500269], [11.739922, 46.500366], [11.742098, 46.501081], [11.74284, 46.501628], [11.742739, 46.502057], [11.743642, 46.50122], [11.744654, 46.501193], [11.745435, 46.500409], [11.747086, 46.50014], [11.74816, 46.499758], [11.749417, 46.498115], [11.751223, 46.496585], [11.751377, 46.496269], [11.751295, 46.495131]]}}, {"type": "Feature", "properties": {"name": "Sasso Cappello", "km": 8.8, "dislivello": 291, "difficolta": "Facile", "durata": "Mezza Giornata"}, "geometry": {"type": "LineString", "coordinates": [[11.802235, 46.474453], [11.804648, 46.475115], [11.804921, 46.475378], [11.805102, 46.475315], [11.807348, 46.475995], [11.810471, 46.477387], [11.814914, 46.477546], [11.8159, 46.476892], [11.816361, 46.476787], [11.816764, 46.476441], [11.818216, 46.475772], [11.818371, 46.476031], [11.818839, 46.476007], [11.819006, 46.476151], [11.819662, 46.476154], [11.820193, 46.47593], [11.820438, 46.475421], [11.820838, 46.475209], [11.821554, 46.474254], [11.822581, 46.473523], [11.823631, 46.473518], [11.824745, 46.473184], [11.82607, 46.473102], [11.826626, 46.47328], [11.826851, 46.473644], [11.827627, 46.473839], [11.827768, 46.474152], [11.828788, 46.474445], [11.829333, 46.47433], [11.830636, 46.474601], [11.831289, 46.474332], [11.831949, 46.474612], [11.833161, 46.474632], [11.834323, 46.474113], [11.83419, 46.474074], [11.834237, 46.474194], [11.834317, 46.474113], [11.834526, 46.475055], [11.835151, 46.47577], [11.836511, 46.476287], [11.837817, 46.476335], [11.838024, 46.476495], [11.83808, 46.476831], [11.839047, 46.476798], [11.834999, 46.47565], [11.834476, 46.475033], [11.834257, 46.474111], [11.833864, 46.474414], [11.833104, 46.474636], [11.831869, 46.474604], [11.831246, 46.474326], [11.830571, 46.474585], [11.829425, 46.474184], [11.828891, 46.474259], [11.827975, 46.473982], [11.827741, 46.473637], [11.827838, 46.473504], [11.82754, 46.473782], [11.826917, 46.473665], [11.826553, 46.473231], [11.826028, 46.47309], [11.824724, 46.473152], [11.824155, 46.473467], [11.822408, 46.473587], [11.820438, 46.475399], [11.820151, 46.475936], [11.819604, 46.476164], [11.819027, 46.476177], [11.818031, 46.475932], [11.814789, 46.47757], [11.810417, 46.477411], [11.808633, 46.476555], [11.807342, 46.476173]]}}]}