<?xml version="1.0" encoding="UTF-8"?>
<gpx creator="Wikiloc - https://www.wikiloc.com" version="1.1" xmlns="http://www.topografix.com/GPX/1/1" xmlns:xsi="http://www.w3.org/2001/XMLSchema-instance" xsi:schemaLocation="http://www.topografix.com/GPX/1/1 http://www.topografix.com/GPX/1/1/gpx.xsd">
  <metadata>
    <name>Wikiloc - Calcata</name>
    <link href="https://www.wikiloc.com/hiking-trails/calcata-165534716">
      <text>Calcata - Wikiloc on Wikiloc</text>
    </link>
    <time>2024-03-30T12:01:57.925Z</time>
  </metadata>
  <wpt lat="42.212129" lon="12.419088">
    <ele>201.1</ele>
    <time>2024-03-30T10:46:27.949Z</time>
    <name>Narce</name>
    <cmt></cmt>
    <desc></desc>
  </wpt>
  <trk>
    <name>Calcata - Wikiloc</name>
    <cmt>Calcata</cmt>
    <desc>Calcata</desc>
    <trkseg>
      <trkpt lat="42.216714" lon="12.419973">
        <ele>168.524</ele>
        <time>2024-03-30T10:16:32.960Z</time>
      </trkpt>
      <trkpt lat="42.216644" lon="12.419694">
        <ele>167.304</ele>
        <time>2024-03-30T10:16:47.960Z</time>
      </trkpt>
      <trkpt lat="42.216596" lon="12.419719">
        <ele>167.614</ele>
        <time>2024-03-30T10:16:53.960Z</time>
      </trkpt>
      <trkpt lat="42.216623" lon="12.419912">
        <ele>166.809</ele>
        <time>2024-03-30T10:17:02.959Z</time>
      </trkpt>
      <trkpt lat="42.216345" lon="12.419961">
        <ele>160.763</ele>
        <time>2024-03-30T10:17:32.959Z</time>
      </trkpt>
      <trkpt lat="42.216254" lon="12.420439">
        <ele>150.358</ele>
        <time>2024-03-30T10:18:04.960Z</time>
      </trkpt>
      <trkpt lat="42.216251" lon="12.420983">
        <ele>147.697</ele>
        <time>2024-03-30T10:18:39.960Z</time>
      </trkpt>
      <trkpt lat="42.216188" lon="12.421103">
        <ele>147.447</ele>
        <time>2024-03-30T10:18:48.960Z</time>
      </trkpt>
      <trkpt lat="42.216069" lon="12.421092">
        <ele>145.445</ele>
        <time>2024-03-30T10:19:02.960Z</time>
      </trkpt>
      <trkpt lat="42.216038" lon="12.421495">
        <ele>140.156</ele>
        <time>2024-03-30T10:19:34.959Z</time>
      </trkpt>
      <trkpt lat="42.215868" lon="12.422063">
        <ele>134.629</ele>
        <time>2024-03-30T10:20:50.959Z</time>
      </trkpt>
      <trkpt lat="42.215799" lon="12.421992">
        <ele>134.563</ele>
        <time>2024-03-30T10:21:03.959Z</time>
      </trkpt>
      <trkpt lat="42.215767" lon="12.421412">
        <ele>117.718</ele>
        <time>2024-03-30T10:22:01.958Z</time>
      </trkpt>
      <trkpt lat="42.215690" lon="12.421485">
        <ele>116.922</ele>
        <time>2024-03-30T10:22:16.959Z</time>
      </trkpt>
      <trkpt lat="42.215332" lon="12.421319">
        <ele>109.262</ele>
        <time>2024-03-30T10:23:06.958Z</time>
      </trkpt>
      <trkpt lat="42.215150" lon="12.421428">
        <ele>102.108</ele>
        <time>2024-03-30T10:23:27.958Z</time>
      </trkpt>
      <trkpt lat="42.215053" lon="12.421284">
        <ele>100.709</ele>
        <time>2024-03-30T10:23:43.958Z</time>
      </trkpt>
      <trkpt lat="42.214879" lon="12.421432">
        <ele>100.213</ele>
        <time>2024-03-30T10:24:04.958Z</time>
      </trkpt>
      <trkpt lat="42.214414" lon="12.421458">
        <ele>105.338</ele>
        <time>2024-03-30T10:24:39.958Z</time>
      </trkpt>
      <trkpt lat="42.214324" lon="12.421572">
        <ele>109.647</ele>
        <time>2024-03-30T10:24:54.957Z</time>
      </trkpt>
      <trkpt lat="42.213976" lon="12.421628">
        <ele>112.277</ele>
        <time>2024-03-30T10:25:32.956Z</time>
      </trkpt>
      <trkpt lat="42.213183" lon="12.422330">
        <ele>107.615</ele>
        <time>2024-03-30T10:27:04.957Z</time>
      </trkpt>
      <trkpt lat="42.212831" lon="12.422360">
        <ele>105.016</ele>
        <time>2024-03-30T10:27:35.957Z</time>
      </trkpt>
      <trkpt lat="42.212351" lon="12.422210">
        <ele>107.649</ele>
        <time>2024-03-30T10:28:24.957Z</time>
      </trkpt>
      <trkpt lat="42.211790" lon="12.421800">
        <ele>109.673</ele>
        <time>2024-03-30T10:29:25.955Z</time>
      </trkpt>
      <trkpt lat="42.211495" lon="12.421345">
        <ele>111.038</ele>
        <time>2024-03-30T10:30:05.955Z</time>
      </trkpt>
      <trkpt lat="42.211411" lon="12.420689">
        <ele>111.583</ele>
        <time>2024-03-30T10:30:46.956Z</time>
      </trkpt>
      <trkpt lat="42.210977" lon="12.419440">
        <ele>104.725</ele>
        <time>2024-03-30T10:32:23.954Z</time>
      </trkpt>
      <trkpt lat="42.210983" lon="12.419503">
        <ele>109.017</ele>
        <time>2024-03-30T10:34:11.955Z</time>
      </trkpt>
      <trkpt lat="42.211118" lon="12.419416">
        <ele>109.309</ele>
        <time>2024-03-30T10:34:34.954Z</time>
      </trkpt>
      <trkpt lat="42.211116" lon="12.419291">
        <ele>114.899</ele>
        <time>2024-03-30T10:34:55.953Z</time>
      </trkpt>
      <trkpt lat="42.211007" lon="12.419101">
        <ele>122.094</ele>
        <time>2024-03-30T10:35:17.954Z</time>
      </trkpt>
      <trkpt lat="42.210783" lon="12.418965">
        <ele>128.253</ele>
        <time>2024-03-30T10:35:44.954Z</time>
      </trkpt>
      <trkpt lat="42.210756" lon="12.418837">
        <ele>131.833</ele>
        <time>2024-03-30T10:35:56.954Z</time>
      </trkpt>
      <trkpt lat="42.210974" lon="12.418568">
        <ele>130.211</ele>
        <time>2024-03-30T10:36:27.954Z</time>
      </trkpt>
      <trkpt lat="42.211108" lon="12.418556">
        <ele>132.092</ele>
        <time>2024-03-30T10:36:43.953Z</time>
      </trkpt>
      <trkpt lat="42.211440" lon="12.418022">
        <ele>143.945</ele>
        <time>2024-03-30T10:37:49.953Z</time>
      </trkpt>
      <trkpt lat="42.211783" lon="12.417780">
        <ele>145.289</ele>
        <time>2024-03-30T10:38:39.952Z</time>
      </trkpt>
      <trkpt lat="42.212150" lon="12.417663">
        <ele>152.734</ele>
        <time>2024-03-30T10:39:20.952Z</time>
      </trkpt>
      <trkpt lat="42.212247" lon="12.417818">
        <ele>152.869</ele>
        <time>2024-03-30T10:39:35.952Z</time>
      </trkpt>
      <trkpt lat="42.212232" lon="12.418258">
        <ele>157.504</ele>
        <time>2024-03-30T10:40:20.952Z</time>
      </trkpt>
      <trkpt lat="42.212451" lon="12.419144">
        <ele>163.124</ele>
        <time>2024-03-30T10:41:30.952Z</time>
      </trkpt>
      <trkpt lat="42.212640" lon="12.419439">
        <ele>165.609</ele>
        <time>2024-03-30T10:42:02.952Z</time>
      </trkpt>
      <trkpt lat="42.212634" lon="12.419687">
        <ele>172.177</ele>
        <time>2024-03-30T10:42:30.951Z</time>
      </trkpt>
      <trkpt lat="42.212711" lon="12.419849">
        <ele>172.492</ele>
        <time>2024-03-30T10:43:03.952Z</time>
      </trkpt>
      <trkpt lat="42.212667" lon="12.419962">
        <ele>172.511</ele>
        <time>2024-03-30T10:43:16.951Z</time>
      </trkpt>
      <trkpt lat="42.212586" lon="12.419757">
        <ele>175.811</ele>
        <time>2024-03-30T10:43:45.950Z</time>
      </trkpt>
      <trkpt lat="42.212389" lon="12.419720">
        <ele>179.519</ele>
        <time>2024-03-30T10:44:03.951Z</time>
      </trkpt>
      <trkpt lat="42.212240" lon="12.419563">
        <ele>186.150</ele>
        <time>2024-03-30T10:44:42.951Z</time>
      </trkpt>
      <trkpt lat="42.212129" lon="12.419082">
        <ele>200.583</ele>
        <time>2024-03-30T10:46:27.949Z</time>
      </trkpt>
      <trkpt lat="42.211967" lon="12.418817">
        <ele>201.217</ele>
        <time>2024-03-30T10:46:58.949Z</time>
      </trkpt>
      <trkpt lat="42.211925" lon="12.418888">
        <ele>201.042</ele>
        <time>2024-03-30T10:47:57.950Z</time>
      </trkpt>
      <trkpt lat="42.212111" lon="12.419053">
        <ele>199.617</ele>
        <time>2024-03-30T10:48:25.949Z</time>
      </trkpt>
      <trkpt lat="42.212235" lon="12.419605">
        <ele>202.187</ele>
        <time>2024-03-30T10:49:51.949Z</time>
      </trkpt>
      <trkpt lat="42.212408" lon="12.419804">
        <ele>192.715</ele>
        <time>2024-03-30T10:50:35.949Z</time>
      </trkpt>
      <trkpt lat="42.212585" lon="12.419760">
        <ele>189.809</ele>
        <time>2024-03-30T10:50:52.948Z</time>
      </trkpt>
      <trkpt lat="42.212636" lon="12.419944">
        <ele>184.392</ele>
        <time>2024-03-30T10:51:09.948Z</time>
      </trkpt>
      <trkpt lat="42.212720" lon="12.419951">
        <ele>183.917</ele>
        <time>2024-03-30T10:51:20.948Z</time>
      </trkpt>
      <trkpt lat="42.212750" lon="12.419758">
        <ele>176.266</ele>
        <time>2024-03-30T10:51:37.949Z</time>
      </trkpt>
      <trkpt lat="42.212662" lon="12.419597">
        <ele>173.756</ele>
        <time>2024-03-30T10:51:50.949Z</time>
      </trkpt>
      <trkpt lat="42.212676" lon="12.419396">
        <ele>170.384</ele>
        <time>2024-03-30T10:52:35.948Z</time>
      </trkpt>
      <trkpt lat="42.212638" lon="12.419262">
        <ele>170.225</ele>
        <time>2024-03-30T10:52:45.947Z</time>
      </trkpt>
      <trkpt lat="42.212541" lon="12.419227">
        <ele>171.868</ele>
        <time>2024-03-30T10:53:09.948Z</time>
      </trkpt>
      <trkpt lat="42.212473" lon="12.418768">
        <ele>168.232</ele>
        <time>2024-03-30T10:53:35.948Z</time>
      </trkpt>
      <trkpt lat="42.212327" lon="12.418516">
        <ele>163.877</ele>
        <time>2024-03-30T10:53:58.948Z</time>
      </trkpt>
      <trkpt lat="42.212280" lon="12.418144">
        <ele>164.939</ele>
        <time>2024-03-30T10:54:30.947Z</time>
      </trkpt>
      <trkpt lat="42.212328" lon="12.418034">
        <ele>164.401</ele>
        <time>2024-03-30T10:54:41.948Z</time>
      </trkpt>
      <trkpt lat="42.212241" lon="12.417687">
        <ele>161.521</ele>
        <time>2024-03-30T10:55:15.947Z</time>
      </trkpt>
      <trkpt lat="42.212114" lon="12.417599">
        <ele>158.609</ele>
        <time>2024-03-30T10:55:30.947Z</time>
      </trkpt>
      <trkpt lat="42.211428" lon="12.417959">
        <ele>146.854</ele>
        <time>2024-03-30T10:56:45.947Z</time>
      </trkpt>
      <trkpt lat="42.211110" lon="12.418355">
        <ele>146.289</ele>
        <time>2024-03-30T10:57:28.947Z</time>
      </trkpt>
      <trkpt lat="42.211048" lon="12.418529">
        <ele>144.948</ele>
        <time>2024-03-30T10:57:47.947Z</time>
      </trkpt>
      <trkpt lat="42.210915" lon="12.418547">
        <ele>142.558</ele>
        <time>2024-03-30T10:58:05.945Z</time>
      </trkpt>
      <trkpt lat="42.210771" lon="12.418726">
        <ele>134.946</ele>
        <time>2024-03-30T10:58:25.946Z</time>
      </trkpt>
      <trkpt lat="42.210780" lon="12.418904">
        <ele>132.357</ele>
        <time>2024-03-30T10:58:40.946Z</time>
      </trkpt>
      <trkpt lat="42.211130" lon="12.419381">
        <ele>124.530</ele>
        <time>2024-03-30T10:59:29.945Z</time>
      </trkpt>
      <trkpt lat="42.211043" lon="12.419546">
        <ele>125.874</ele>
        <time>2024-03-30T10:59:50.946Z</time>
      </trkpt>
      <trkpt lat="42.210894" lon="12.419554">
        <ele>122.339</ele>
        <time>2024-03-30T11:00:12.945Z</time>
      </trkpt>
      <trkpt lat="42.210793" lon="12.419257">
        <ele>113.388</ele>
        <time>2024-03-30T11:01:03.944Z</time>
      </trkpt>
      <trkpt lat="42.210487" lon="12.419048">
        <ele>113.224</ele>
        <time>2024-03-30T11:01:36.945Z</time>
      </trkpt>
      <trkpt lat="42.210288" lon="12.418745">
        <ele>108.826</ele>
        <time>2024-03-30T11:02:00.945Z</time>
      </trkpt>
      <trkpt lat="42.210078" lon="12.418751">
        <ele>109.409</ele>
        <time>2024-03-30T11:02:20.944Z</time>
      </trkpt>
      <trkpt lat="42.210115" lon="12.416404">
        <ele>100.079</ele>
        <time>2024-03-30T11:04:51.944Z</time>
      </trkpt>
      <trkpt lat="42.209865" lon="12.415812">
        <ele>98.684</ele>
        <time>2024-03-30T11:05:37.944Z</time>
      </trkpt>
      <trkpt lat="42.209448" lon="12.415452">
        <ele>102.063</ele>
        <time>2024-03-30T11:06:21.943Z</time>
      </trkpt>
      <trkpt lat="42.209060" lon="12.415298">
        <ele>97.753</ele>
        <time>2024-03-30T11:06:55.942Z</time>
      </trkpt>
      <trkpt lat="42.208853" lon="12.414921">
        <ele>99.061</ele>
        <time>2024-03-30T11:07:24.943Z</time>
      </trkpt>
      <trkpt lat="42.208458" lon="12.414612">
        <ele>100.772</ele>
        <time>2024-03-30T11:08:03.942Z</time>
      </trkpt>
      <trkpt lat="42.208338" lon="12.414418">
        <ele>99.185</ele>
        <time>2024-03-30T11:08:20.942Z</time>
      </trkpt>
      <trkpt lat="42.207170" lon="12.413811">
        <ele>100.819</ele>
        <time>2024-03-30T11:10:10.941Z</time>
      </trkpt>
      <trkpt lat="42.206764" lon="12.413413">
        <ele>100.344</ele>
        <time>2024-03-30T11:10:54.941Z</time>
      </trkpt>
      <trkpt lat="42.206530" lon="12.412971">
        <ele>102.713</ele>
        <time>2024-03-30T11:11:30.942Z</time>
      </trkpt>
      <trkpt lat="42.206519" lon="12.412576">
        <ele>102.243</ele>
        <time>2024-03-30T11:11:56.941Z</time>
      </trkpt>
      <trkpt lat="42.206421" lon="12.412427">
        <ele>102.507</ele>
        <time>2024-03-30T11:12:06.941Z</time>
      </trkpt>
      <trkpt lat="42.206393" lon="12.412033">
        <ele>104.609</ele>
        <time>2024-03-30T11:12:48.941Z</time>
      </trkpt>
      <trkpt lat="42.206428" lon="12.412314">
        <ele>105.442</ele>
        <time>2024-03-30T11:13:56.941Z</time>
      </trkpt>
      <trkpt lat="42.206327" lon="12.412462">
        <ele>105.487</ele>
        <time>2024-03-30T11:14:31.940Z</time>
      </trkpt>
      <trkpt lat="42.206134" lon="12.412443">
        <ele>104.446</ele>
        <time>2024-03-30T11:14:54.941Z</time>
      </trkpt>
      <trkpt lat="42.206072" lon="12.412535">
        <ele>104.016</ele>
        <time>2024-03-30T11:15:03.940Z</time>
      </trkpt>
      <trkpt lat="42.206058" lon="12.412803">
        <ele>103.144</ele>
        <time>2024-03-30T11:15:21.940Z</time>
      </trkpt>
      <trkpt lat="42.206147" lon="12.412942">
        <ele>104.035</ele>
        <time>2024-03-30T11:15:38.939Z</time>
      </trkpt>
      <trkpt lat="42.206070" lon="12.412764">
        <ele>104.748</ele>
        <time>2024-03-30T11:16:08.940Z</time>
      </trkpt>
      <trkpt lat="42.204923" lon="12.413305">
        <ele>117.972</ele>
        <time>2024-03-30T11:17:55.939Z</time>
      </trkpt>
      <trkpt lat="42.204280" lon="12.413080">
        <ele>125.767</ele>
        <time>2024-03-30T11:19:11.939Z</time>
      </trkpt>
      <trkpt lat="42.204184" lon="12.412917">
        <ele>125.351</ele>
        <time>2024-03-30T11:19:28.938Z</time>
      </trkpt>
      <trkpt lat="42.204087" lon="12.412933">
        <ele>126.501</ele>
        <time>2024-03-30T11:19:41.939Z</time>
      </trkpt>
      <trkpt lat="42.203938" lon="12.412758">
        <ele>134.111</ele>
        <time>2024-03-30T11:20:00.939Z</time>
      </trkpt>
      <trkpt lat="42.203569" lon="12.412984">
        <ele>138.809</ele>
        <time>2024-03-30T11:20:55.938Z</time>
      </trkpt>
      <trkpt lat="42.203547" lon="12.413104">
        <ele>139.236</ele>
        <time>2024-03-30T11:21:05.938Z</time>
      </trkpt>
      <trkpt lat="42.203852" lon="12.413620">
        <ele>144.641</ele>
        <time>2024-03-30T11:21:53.938Z</time>
      </trkpt>
      <trkpt lat="42.203794" lon="12.413794">
        <ele>148.830</ele>
        <time>2024-03-30T11:22:08.938Z</time>
      </trkpt>
      <trkpt lat="42.203629" lon="12.413918">
        <ele>155.040</ele>
        <time>2024-03-30T11:22:50.938Z</time>
      </trkpt>
      <trkpt lat="42.203699" lon="12.414074">
        <ele>156.998</ele>
        <time>2024-03-30T11:23:09.937Z</time>
      </trkpt>
      <trkpt lat="42.203556" lon="12.414353">
        <ele>157.139</ele>
        <time>2024-03-30T11:23:33.937Z</time>
      </trkpt>
      <trkpt lat="42.203442" lon="12.414850">
        <ele>152.792</ele>
        <time>2024-03-30T11:24:13.936Z</time>
      </trkpt>
      <trkpt lat="42.203576" lon="12.415204">
        <ele>150.096</ele>
        <time>2024-03-30T11:24:43.937Z</time>
      </trkpt>
      <trkpt lat="42.203527" lon="12.416251">
        <ele>137.771</ele>
        <time>2024-03-30T11:25:56.937Z</time>
      </trkpt>
      <trkpt lat="42.203366" lon="12.416961">
        <ele>125.683</ele>
        <time>2024-03-30T11:26:53.936Z</time>
      </trkpt>
      <trkpt lat="42.203372" lon="12.418115">
        <ele>125.825</ele>
        <time>2024-03-30T11:28:23.936Z</time>
      </trkpt>
      <trkpt lat="42.203543" lon="12.418426">
        <ele>117.117</ele>
        <time>2024-03-30T11:28:54.936Z</time>
      </trkpt>
      <trkpt lat="42.203834" lon="12.418662">
        <ele>116.709</ele>
        <time>2024-03-30T11:29:27.934Z</time>
      </trkpt>
      <trkpt lat="42.204076" lon="12.418733">
        <ele>116.769</ele>
        <time>2024-03-30T11:29:52.934Z</time>
      </trkpt>
      <trkpt lat="42.204299" lon="12.418639">
        <ele>120.814</ele>
        <time>2024-03-30T11:30:14.934Z</time>
      </trkpt>
      <trkpt lat="42.204889" lon="12.418775">
        <ele>115.953</ele>
        <time>2024-03-30T11:31:13.934Z</time>
      </trkpt>
      <trkpt lat="42.205137" lon="12.418875">
        <ele>115.113</ele>
        <time>2024-03-30T11:31:39.934Z</time>
      </trkpt>
      <trkpt lat="42.205451" lon="12.419186">
        <ele>107.471</ele>
        <time>2024-03-30T11:32:15.934Z</time>
      </trkpt>
      <trkpt lat="42.205919" lon="12.419351">
        <ele>104.212</ele>
        <time>2024-03-30T11:33:06.934Z</time>
      </trkpt>
      <trkpt lat="42.207072" lon="12.419951">
        <ele>103.595</ele>
        <time>2024-03-30T11:35:07.934Z</time>
      </trkpt>
      <trkpt lat="42.207476" lon="12.419904">
        <ele>102.379</ele>
        <time>2024-03-30T11:35:44.933Z</time>
      </trkpt>
      <trkpt lat="42.207842" lon="12.419735">
        <ele>98.224</ele>
        <time>2024-03-30T11:36:26.933Z</time>
      </trkpt>
      <trkpt lat="42.208511" lon="12.419640">
        <ele>99.893</ele>
        <time>2024-03-30T11:37:26.932Z</time>
      </trkpt>
      <trkpt lat="42.208917" lon="12.419504">
        <ele>94.165</ele>
        <time>2024-03-30T11:38:04.932Z</time>
      </trkpt>
      <trkpt lat="42.209203" lon="12.419182">
        <ele>97.221</ele>
        <time>2024-03-30T11:38:39.933Z</time>
      </trkpt>
      <trkpt lat="42.209355" lon="12.419110">
        <ele>101.509</ele>
        <time>2024-03-30T11:38:53.932Z</time>
      </trkpt>
      <trkpt lat="42.209604" lon="12.419112">
        <ele>104.930</ele>
        <time>2024-03-30T11:39:18.932Z</time>
      </trkpt>
      <trkpt lat="42.209824" lon="12.418771">
        <ele>107.355</ele>
        <time>2024-03-30T11:39:51.931Z</time>
      </trkpt>
      <trkpt lat="42.210062" lon="12.418702">
        <ele>108.754</ele>
        <time>2024-03-30T11:40:12.932Z</time>
      </trkpt>
      <trkpt lat="42.211007" lon="12.419544">
        <ele>103.924</ele>
        <time>2024-03-30T11:41:55.931Z</time>
      </trkpt>
      <trkpt lat="42.211187" lon="12.420023">
        <ele>103.842</ele>
        <time>2024-03-30T11:42:33.931Z</time>
      </trkpt>
      <trkpt lat="42.211502" lon="12.421401">
        <ele>108.413</ele>
        <time>2024-03-30T11:44:08.930Z</time>
      </trkpt>
      <trkpt lat="42.211592" lon="12.421549">
        <ele>108.716</ele>
        <time>2024-03-30T11:44:21.930Z</time>
      </trkpt>
      <trkpt lat="42.212064" lon="12.422053">
        <ele>106.980</ele>
        <time>2024-03-30T11:45:15.930Z</time>
      </trkpt>
      <trkpt lat="42.212468" lon="12.422283">
        <ele>108.365</ele>
        <time>2024-03-30T11:45:55.930Z</time>
      </trkpt>
      <trkpt lat="42.212657" lon="12.422283">
        <ele>107.342</ele>
        <time>2024-03-30T11:46:11.929Z</time>
      </trkpt>
      <trkpt lat="42.212932" lon="12.422430">
        <ele>104.822</ele>
        <time>2024-03-30T11:46:38.929Z</time>
      </trkpt>
      <trkpt lat="42.213521" lon="12.422072">
        <ele>98.514</ele>
        <time>2024-03-30T11:47:33.930Z</time>
      </trkpt>
      <trkpt lat="42.214030" lon="12.421567">
        <ele>101.509</ele>
        <time>2024-03-30T11:48:38.928Z</time>
      </trkpt>
      <trkpt lat="42.214815" lon="12.421480">
        <ele>97.355</ele>
        <time>2024-03-30T11:49:46.928Z</time>
      </trkpt>
      <trkpt lat="42.214971" lon="12.421435">
        <ele>105.140</ele>
        <time>2024-03-30T11:50:01.929Z</time>
      </trkpt>
      <trkpt lat="42.215119" lon="12.421259">
        <ele>103.339</ele>
        <time>2024-03-30T11:50:21.929Z</time>
      </trkpt>
      <trkpt lat="42.215241" lon="12.421439">
        <ele>98.389</ele>
        <time>2024-03-30T11:50:41.929Z</time>
      </trkpt>
      <trkpt lat="42.215482" lon="12.421374">
        <ele>97.727</ele>
        <time>2024-03-30T11:51:07.929Z</time>
      </trkpt>
      <trkpt lat="42.215716" lon="12.421476">
        <ele>105.498</ele>
        <time>2024-03-30T11:51:46.928Z</time>
      </trkpt>
      <trkpt lat="42.215802" lon="12.421450">
        <ele>103.831</ele>
        <time>2024-03-30T11:52:05.928Z</time>
      </trkpt>
      <trkpt lat="42.215859" lon="12.422073">
        <ele>122.625</ele>
        <time>2024-03-30T11:53:14.928Z</time>
      </trkpt>
      <trkpt lat="42.215898" lon="12.422032">
        <ele>123.360</ele>
        <time>2024-03-30T11:53:21.928Z</time>
      </trkpt>
      <trkpt lat="42.216111" lon="12.421099">
        <ele>139.426</ele>
        <time>2024-03-30T11:55:24.927Z</time>
      </trkpt>
      <trkpt lat="42.216267" lon="12.421000">
        <ele>142.747</ele>
        <time>2024-03-30T11:55:56.926Z</time>
      </trkpt>
      <trkpt lat="42.216256" lon="12.420406">
        <ele>150.511</ele>
        <time>2024-03-30T11:56:47.926Z</time>
      </trkpt>
      <trkpt lat="42.216347" lon="12.419976">
        <ele>156.509</ele>
        <time>2024-03-30T11:57:24.926Z</time>
      </trkpt>
      <trkpt lat="42.216422" lon="12.419894">
        <ele>157.243</ele>
        <time>2024-03-30T11:57:35.926Z</time>
      </trkpt>
      <trkpt lat="42.216548" lon="12.419977">
        <ele>157.418</ele>
        <time>2024-03-30T11:57:59.926Z</time>
      </trkpt>
      <trkpt lat="42.216653" lon="12.419922">
        <ele>157.697</ele>
        <time>2024-03-30T11:58:15.925Z</time>
      </trkpt>
      <trkpt lat="42.216670" lon="12.419606">
        <ele>161.377</ele>
        <time>2024-03-30T11:59:09.926Z</time>
      </trkpt>
      <trkpt lat="42.216644" lon="12.419276">
        <ele>162.415</ele>
        <time>2024-03-30T11:59:38.926Z</time>
      </trkpt>
      <trkpt lat="42.216511" lon="12.419328">
        <ele>158.546</ele>
        <time>2024-03-30T11:59:59.925Z</time>
      </trkpt>
      <trkpt lat="42.216415" lon="12.419267">
        <ele>158.539</ele>
        <time>2024-03-30T12:00:11.926Z</time>
      </trkpt>
      <trkpt lat="42.216170" lon="12.418667">
        <ele>172.963</ele>
        <time>2024-03-30T12:01:31.925Z</time>
      </trkpt>
      <trkpt lat="42.216000" lon="12.418556">
        <ele>172.918</ele>
        <time>2024-03-30T12:01:57.925Z</time>
      </trkpt>
    </trkseg>
  </trk></gpx>