<?xml version="1.0" encoding="UTF-8"?>
<gpx creator="Wikiloc - https://www.wikiloc.com" version="1.1" xmlns="http://www.topografix.com/GPX/1/1" xmlns:xsi="http://www.w3.org/2001/XMLSchema-instance" xsi:schemaLocation="http://www.topografix.com/GPX/1/1 http://www.topografix.com/GPX/1/1/gpx.xsd">
  <metadata>
    <name>Wikiloc - Gola di Rastenbach</name>
    <link href="https://www.wikiloc.com/hiking-trails/gola-di-rastenbach-279104627">
      <text>Gola di Rastenbach - Wikiloc on Wikiloc</text>
    </link>
    <time>2026-08-11T11:06:32Z</time>
  </metadata>
  <wpt lat="46.380793" lon="11.240364">
    <ele>501.4</ele>
    <time>2026-08-11T09:44:47Z</time>
    <name>Foto</name>
    <cmt></cmt>
    <desc></desc>
  </wpt>
  <wpt lat="46.381050" lon="11.241538">
    <ele>487.6</ele>
    <time>2026-08-11T09:51:44Z</time>
    <name>Panorama</name>
    <cmt></cmt>
    <desc></desc>
  </wpt>
  <wpt lat="46.380902" lon="11.241628">
    <ele>447.3</ele>
    <time>2026-08-11T10:02:12Z</time>
    <name>Cascata</name>
    <cmt></cmt>
    <desc></desc>
  </wpt>
  <wpt lat="46.381371" lon="11.242343">
    <ele>478.3</ele>
    <time>2026-08-11T10:24:49Z</time>
    <name>Panorama</name>
    <cmt></cmt>
    <desc></desc>
  </wpt>
  <trk>
    <name>Gola di Rastenbach - Wikiloc</name>
    <cmt>Castelvecchio</cmt>
    <desc>Castelvecchio</desc>
    <trkseg>
      <trkpt lat="46.380065" lon="11.238127">
        <ele>602.173</ele>
        <time>2026-08-11T09:23:14Z</time>
      </trkpt>
      <trkpt lat="46.379967" lon="11.238100">
        <ele>603.085</ele>
        <time>2026-08-11T09:23:26Z</time>
      </trkpt>
      <trkpt lat="46.379927" lon="11.238170">
        <ele>603.013</ele>
        <time>2026-08-11T09:23:53Z</time>
      </trkpt>
      <trkpt lat="46.379899" lon="11.238170">
        <ele>603.009</ele>
        <time>2026-08-11T09:23:58Z</time>
      </trkpt>
      <trkpt lat="46.379859" lon="11.238224">
        <ele>602.979</ele>
        <time>2026-08-11T09:24:16Z</time>
      </trkpt>
      <trkpt lat="46.379828" lon="11.238221">
        <ele>602.934</ele>
        <time>2026-08-11T09:24:31Z</time>
      </trkpt>
      <trkpt lat="46.379813" lon="11.238261">
        <ele>602.996</ele>
        <time>2026-08-11T09:24:34Z</time>
      </trkpt>
      <trkpt lat="46.379732" lon="11.238255">
        <ele>602.848</ele>
        <time>2026-08-11T09:24:42Z</time>
      </trkpt>
      <trkpt lat="46.379515" lon="11.238507">
        <ele>596.997</ele>
        <time>2026-08-11T09:25:12Z</time>
      </trkpt>
      <trkpt lat="46.379331" lon="11.238557">
        <ele>593.171</ele>
        <time>2026-08-11T09:25:31Z</time>
      </trkpt>
      <trkpt lat="46.379279" lon="11.238521">
        <ele>591.393</ele>
        <time>2026-08-11T09:25:37Z</time>
      </trkpt>
      <trkpt lat="46.379260" lon="11.238378">
        <ele>587.869</ele>
        <time>2026-08-11T09:25:47Z</time>
      </trkpt>
      <trkpt lat="46.379309" lon="11.238259">
        <ele>586.454</ele>
        <time>2026-08-11T09:25:56Z</time>
      </trkpt>
      <trkpt lat="46.379328" lon="11.237948">
        <ele>587.192</ele>
        <time>2026-08-11T09:26:16Z</time>
      </trkpt>
      <trkpt lat="46.379268" lon="11.237806">
        <ele>589.573</ele>
        <time>2026-08-11T09:26:29Z</time>
      </trkpt>
      <trkpt lat="46.379217" lon="11.237798">
        <ele>589.620</ele>
        <time>2026-08-11T09:26:37Z</time>
      </trkpt>
      <trkpt lat="46.379192" lon="11.237750">
        <ele>589.609</ele>
        <time>2026-08-11T09:26:42Z</time>
      </trkpt>
      <trkpt lat="46.379278" lon="11.237597">
        <ele>588.981</ele>
        <time>2026-08-11T09:27:00Z</time>
      </trkpt>
      <trkpt lat="46.379289" lon="11.237502">
        <ele>588.966</ele>
        <time>2026-08-11T09:27:08Z</time>
      </trkpt>
      <trkpt lat="46.379247" lon="11.237244">
        <ele>587.188</ele>
        <time>2026-08-11T09:27:27Z</time>
      </trkpt>
      <trkpt lat="46.379251" lon="11.237262">
        <ele>587.040</ele>
        <time>2026-08-11T09:27:28Z</time>
      </trkpt>
      <trkpt lat="46.379287" lon="11.236940">
        <ele>581.969</ele>
        <time>2026-08-11T09:28:11Z</time>
      </trkpt>
      <trkpt lat="46.379247" lon="11.236700">
        <ele>580.153</ele>
        <time>2026-08-11T09:28:34Z</time>
      </trkpt>
      <trkpt lat="46.379227" lon="11.236691">
        <ele>579.945</ele>
        <time>2026-08-11T09:28:36Z</time>
      </trkpt>
      <trkpt lat="46.379226" lon="11.236838">
        <ele>578.971</ele>
        <time>2026-08-11T09:28:48Z</time>
      </trkpt>
      <trkpt lat="46.379099" lon="11.237084">
        <ele>573.066</ele>
        <time>2026-08-11T09:29:14Z</time>
      </trkpt>
      <trkpt lat="46.379107" lon="11.237151">
        <ele>572.949</ele>
        <time>2026-08-11T09:29:18Z</time>
      </trkpt>
      <trkpt lat="46.379033" lon="11.237237">
        <ele>572.902</ele>
        <time>2026-08-11T09:29:29Z</time>
      </trkpt>
      <trkpt lat="46.379035" lon="11.237322">
        <ele>573.422</ele>
        <time>2026-08-11T09:29:36Z</time>
      </trkpt>
      <trkpt lat="46.378972" lon="11.237420">
        <ele>575.809</ele>
        <time>2026-08-11T09:29:50Z</time>
      </trkpt>
      <trkpt lat="46.378908" lon="11.237402">
        <ele>576.746</ele>
        <time>2026-08-11T09:29:58Z</time>
      </trkpt>
      <trkpt lat="46.378881" lon="11.237471">
        <ele>579.391</ele>
        <time>2026-08-11T09:30:07Z</time>
      </trkpt>
      <trkpt lat="46.378921" lon="11.237621">
        <ele>581.423</ele>
        <time>2026-08-11T09:30:38Z</time>
      </trkpt>
      <trkpt lat="46.378961" lon="11.237671">
        <ele>581.575</ele>
        <time>2026-08-11T09:30:46Z</time>
      </trkpt>
      <trkpt lat="46.378988" lon="11.237632">
        <ele>581.554</ele>
        <time>2026-08-11T09:30:56Z</time>
      </trkpt>
      <trkpt lat="46.378978" lon="11.237745">
        <ele>580.948</ele>
        <time>2026-08-11T09:31:11Z</time>
      </trkpt>
      <trkpt lat="46.378928" lon="11.237806">
        <ele>576.690</ele>
        <time>2026-08-11T09:31:18Z</time>
      </trkpt>
      <trkpt lat="46.378941" lon="11.237856">
        <ele>575.736</ele>
        <time>2026-08-11T09:31:23Z</time>
      </trkpt>
      <trkpt lat="46.378913" lon="11.237900">
        <ele>574.011</ele>
        <time>2026-08-11T09:31:28Z</time>
      </trkpt>
      <trkpt lat="46.378947" lon="11.238065">
        <ele>572.857</ele>
        <time>2026-08-11T09:31:40Z</time>
      </trkpt>
      <trkpt lat="46.378876" lon="11.238151">
        <ele>571.000</ele>
        <time>2026-08-11T09:31:50Z</time>
      </trkpt>
      <trkpt lat="46.378843" lon="11.238135">
        <ele>570.220</ele>
        <time>2026-08-11T09:31:55Z</time>
      </trkpt>
      <trkpt lat="46.378874" lon="11.238238">
        <ele>569.409</ele>
        <time>2026-08-11T09:32:03Z</time>
      </trkpt>
      <trkpt lat="46.378841" lon="11.238292">
        <ele>569.157</ele>
        <time>2026-08-11T09:32:09Z</time>
      </trkpt>
      <trkpt lat="46.378960" lon="11.238415">
        <ele>566.412</ele>
        <time>2026-08-11T09:32:25Z</time>
      </trkpt>
      <trkpt lat="46.378925" lon="11.238525">
        <ele>566.474</ele>
        <time>2026-08-11T09:32:32Z</time>
      </trkpt>
      <trkpt lat="46.378901" lon="11.238501">
        <ele>566.526</ele>
        <time>2026-08-11T09:32:37Z</time>
      </trkpt>
      <trkpt lat="46.378877" lon="11.238626">
        <ele>568.455</ele>
        <time>2026-08-11T09:32:52Z</time>
      </trkpt>
      <trkpt lat="46.378816" lon="11.238662">
        <ele>569.929</ele>
        <time>2026-08-11T09:33:03Z</time>
      </trkpt>
      <trkpt lat="46.378850" lon="11.238634">
        <ele>569.921</ele>
        <time>2026-08-11T09:33:16Z</time>
      </trkpt>
      <trkpt lat="46.378934" lon="11.238726">
        <ele>569.927</ele>
        <time>2026-08-11T09:33:27Z</time>
      </trkpt>
      <trkpt lat="46.378968" lon="11.238687">
        <ele>569.522</ele>
        <time>2026-08-11T09:33:34Z</time>
      </trkpt>
      <trkpt lat="46.378927" lon="11.238786">
        <ele>569.226</ele>
        <time>2026-08-11T09:33:50Z</time>
      </trkpt>
      <trkpt lat="46.378961" lon="11.238863">
        <ele>569.047</ele>
        <time>2026-08-11T09:34:03Z</time>
      </trkpt>
      <trkpt lat="46.378931" lon="11.238851">
        <ele>568.611</ele>
        <time>2026-08-11T09:34:13Z</time>
      </trkpt>
      <trkpt lat="46.378923" lon="11.238934">
        <ele>569.009</ele>
        <time>2026-08-11T09:34:18Z</time>
      </trkpt>
      <trkpt lat="46.378911" lon="11.238866">
        <ele>569.374</ele>
        <time>2026-08-11T09:34:26Z</time>
      </trkpt>
      <trkpt lat="46.378874" lon="11.238874">
        <ele>569.679</ele>
        <time>2026-08-11T09:34:33Z</time>
      </trkpt>
      <trkpt lat="46.378888" lon="11.238900">
        <ele>569.971</ele>
        <time>2026-08-11T09:34:37Z</time>
      </trkpt>
      <trkpt lat="46.378818" lon="11.238975">
        <ele>571.363</ele>
        <time>2026-08-11T09:34:45Z</time>
      </trkpt>
      <trkpt lat="46.378776" lon="11.239094">
        <ele>576.122</ele>
        <time>2026-08-11T09:34:56Z</time>
      </trkpt>
      <trkpt lat="46.378952" lon="11.239223">
        <ele>576.366</ele>
        <time>2026-08-11T09:35:12Z</time>
      </trkpt>
      <trkpt lat="46.378983" lon="11.239196">
        <ele>576.598</ele>
        <time>2026-08-11T09:35:20Z</time>
      </trkpt>
      <trkpt lat="46.378894" lon="11.239288">
        <ele>576.374</ele>
        <time>2026-08-11T09:35:25Z</time>
      </trkpt>
      <trkpt lat="46.378863" lon="11.239429">
        <ele>574.959</ele>
        <time>2026-08-11T09:35:42Z</time>
      </trkpt>
      <trkpt lat="46.378840" lon="11.239429">
        <ele>574.666</ele>
        <time>2026-08-11T09:35:51Z</time>
      </trkpt>
      <trkpt lat="46.378870" lon="11.239433">
        <ele>573.429</ele>
        <time>2026-08-11T09:35:55Z</time>
      </trkpt>
      <trkpt lat="46.378898" lon="11.239372">
        <ele>570.221</ele>
        <time>2026-08-11T09:36:04Z</time>
      </trkpt>
      <trkpt lat="46.378919" lon="11.239493">
        <ele>564.209</ele>
        <time>2026-08-11T09:36:13Z</time>
      </trkpt>
      <trkpt lat="46.378984" lon="11.239499">
        <ele>562.618</ele>
        <time>2026-08-11T09:36:21Z</time>
      </trkpt>
      <trkpt lat="46.379014" lon="11.239549">
        <ele>560.223</ele>
        <time>2026-08-11T09:36:32Z</time>
      </trkpt>
      <trkpt lat="46.379177" lon="11.239440">
        <ele>556.925</ele>
        <time>2026-08-11T09:36:44Z</time>
      </trkpt>
      <trkpt lat="46.379263" lon="11.239436">
        <ele>555.837</ele>
        <time>2026-08-11T09:36:54Z</time>
      </trkpt>
      <trkpt lat="46.379301" lon="11.239472">
        <ele>554.986</ele>
        <time>2026-08-11T09:36:59Z</time>
      </trkpt>
      <trkpt lat="46.379422" lon="11.239499">
        <ele>552.030</ele>
        <time>2026-08-11T09:37:22Z</time>
      </trkpt>
      <trkpt lat="46.379458" lon="11.239573">
        <ele>550.912</ele>
        <time>2026-08-11T09:37:29Z</time>
      </trkpt>
      <trkpt lat="46.379494" lon="11.239583">
        <ele>550.778</ele>
        <time>2026-08-11T09:37:32Z</time>
      </trkpt>
      <trkpt lat="46.379562" lon="11.239547">
        <ele>550.663</ele>
        <time>2026-08-11T09:37:38Z</time>
      </trkpt>
      <trkpt lat="46.379587" lon="11.239572">
        <ele>550.735</ele>
        <time>2026-08-11T09:37:49Z</time>
      </trkpt>
      <trkpt lat="46.379663" lon="11.239513">
        <ele>551.386</ele>
        <time>2026-08-11T09:37:56Z</time>
      </trkpt>
      <trkpt lat="46.379642" lon="11.239531">
        <ele>551.414</ele>
        <time>2026-08-11T09:37:57Z</time>
      </trkpt>
      <trkpt lat="46.379632" lon="11.239489">
        <ele>555.809</ele>
        <time>2026-08-11T09:39:32Z</time>
      </trkpt>
      <trkpt lat="46.379637" lon="11.239534">
        <ele>555.685</ele>
        <time>2026-08-11T09:39:48Z</time>
      </trkpt>
      <trkpt lat="46.379656" lon="11.239476">
        <ele>555.980</ele>
        <time>2026-08-11T09:39:50Z</time>
      </trkpt>
      <trkpt lat="46.379622" lon="11.239512">
        <ele>556.562</ele>
        <time>2026-08-11T09:39:56Z</time>
      </trkpt>
      <trkpt lat="46.379601" lon="11.239454">
        <ele>556.914</ele>
        <time>2026-08-11T09:40:03Z</time>
      </trkpt>
      <trkpt lat="46.379612" lon="11.239559">
        <ele>557.913</ele>
        <time>2026-08-11T09:40:13Z</time>
      </trkpt>
      <trkpt lat="46.379689" lon="11.239672">
        <ele>559.577</ele>
        <time>2026-08-11T09:40:23Z</time>
      </trkpt>
      <trkpt lat="46.379781" lon="11.239636">
        <ele>562.149</ele>
        <time>2026-08-11T09:40:27Z</time>
      </trkpt>
      <trkpt lat="46.379857" lon="11.239567">
        <ele>563.725</ele>
        <time>2026-08-11T09:40:33Z</time>
      </trkpt>
      <trkpt lat="46.380016" lon="11.239564">
        <ele>564.390</ele>
        <time>2026-08-11T09:40:51Z</time>
      </trkpt>
      <trkpt lat="46.380077" lon="11.239508">
        <ele>563.682</ele>
        <time>2026-08-11T09:40:57Z</time>
      </trkpt>
      <trkpt lat="46.380114" lon="11.239515">
        <ele>559.043</ele>
        <time>2026-08-11T09:41:01Z</time>
      </trkpt>
      <trkpt lat="46.380141" lon="11.239402">
        <ele>543.517</ele>
        <time>2026-08-11T09:41:11Z</time>
      </trkpt>
      <trkpt lat="46.380258" lon="11.239501">
        <ele>532.309</ele>
        <time>2026-08-11T09:41:26Z</time>
      </trkpt>
      <trkpt lat="46.380241" lon="11.239503">
        <ele>531.360</ele>
        <time>2026-08-11T09:41:27Z</time>
      </trkpt>
      <trkpt lat="46.380284" lon="11.239459">
        <ele>530.485</ele>
        <time>2026-08-11T09:41:30Z</time>
      </trkpt>
      <trkpt lat="46.380258" lon="11.239461">
        <ele>530.087</ele>
        <time>2026-08-11T09:41:31Z</time>
      </trkpt>
      <trkpt lat="46.380340" lon="11.239379">
        <ele>524.829</ele>
        <time>2026-08-11T09:41:39Z</time>
      </trkpt>
      <trkpt lat="46.380293" lon="11.239427">
        <ele>524.728</ele>
        <time>2026-08-11T09:41:41Z</time>
      </trkpt>
      <trkpt lat="46.380288" lon="11.239513">
        <ele>522.072</ele>
        <time>2026-08-11T09:41:47Z</time>
      </trkpt>
      <trkpt lat="46.380380" lon="11.239625">
        <ele>520.534</ele>
        <time>2026-08-11T09:42:06Z</time>
      </trkpt>
      <trkpt lat="46.380425" lon="11.239798">
        <ele>518.680</ele>
        <time>2026-08-11T09:42:21Z</time>
      </trkpt>
      <trkpt lat="46.380518" lon="11.239924">
        <ele>516.915</ele>
        <time>2026-08-11T09:42:36Z</time>
      </trkpt>
      <trkpt lat="46.380524" lon="11.239987">
        <ele>516.941</ele>
        <time>2026-08-11T09:42:40Z</time>
      </trkpt>
      <trkpt lat="46.380585" lon="11.240084">
        <ele>516.781</ele>
        <time>2026-08-11T09:42:49Z</time>
      </trkpt>
      <trkpt lat="46.380561" lon="11.240052">
        <ele>516.709</ele>
        <time>2026-08-11T09:42:50Z</time>
      </trkpt>
      <trkpt lat="46.380720" lon="11.240234">
        <ele>513.409</ele>
        <time>2026-08-11T09:43:18Z</time>
      </trkpt>
      <trkpt lat="46.380725" lon="11.240278">
        <ele>512.976</ele>
        <time>2026-08-11T09:43:36Z</time>
      </trkpt>
      <trkpt lat="46.380681" lon="11.240296">
        <ele>512.211</ele>
        <time>2026-08-11T09:43:41Z</time>
      </trkpt>
      <trkpt lat="46.380698" lon="11.240336">
        <ele>511.813</ele>
        <time>2026-08-11T09:43:45Z</time>
      </trkpt>
      <trkpt lat="46.380718" lon="11.240275">
        <ele>511.555</ele>
        <time>2026-08-11T09:43:47Z</time>
      </trkpt>
      <trkpt lat="46.380721" lon="11.240302">
        <ele>511.414</ele>
        <time>2026-08-11T09:43:54Z</time>
      </trkpt>
      <trkpt lat="46.380693" lon="11.240271">
        <ele>511.168</ele>
        <time>2026-08-11T09:44:01Z</time>
      </trkpt>
      <trkpt lat="46.380810" lon="11.240388">
        <ele>508.050</ele>
        <time>2026-08-11T09:44:34Z</time>
      </trkpt>
      <trkpt lat="46.380806" lon="11.240295">
        <ele>505.156</ele>
        <time>2026-08-11T09:45:18Z</time>
      </trkpt>
      <trkpt lat="46.380830" lon="11.240282">
        <ele>504.971</ele>
        <time>2026-08-11T09:45:20Z</time>
      </trkpt>
      <trkpt lat="46.380786" lon="11.240341">
        <ele>502.462</ele>
        <time>2026-08-11T09:45:47Z</time>
      </trkpt>
      <trkpt lat="46.380838" lon="11.240319">
        <ele>501.583</ele>
        <time>2026-08-11T09:45:55Z</time>
      </trkpt>
      <trkpt lat="46.380885" lon="11.240234">
        <ele>501.211</ele>
        <time>2026-08-11T09:46:05Z</time>
      </trkpt>
      <trkpt lat="46.380933" lon="11.240241">
        <ele>501.009</ele>
        <time>2026-08-11T09:46:10Z</time>
      </trkpt>
      <trkpt lat="46.380960" lon="11.240297">
        <ele>501.298</ele>
        <time>2026-08-11T09:46:17Z</time>
      </trkpt>
      <trkpt lat="46.381054" lon="11.240257">
        <ele>502.233</ele>
        <time>2026-08-11T09:46:31Z</time>
      </trkpt>
      <trkpt lat="46.381023" lon="11.240468">
        <ele>505.725</ele>
        <time>2026-08-11T09:46:46Z</time>
      </trkpt>
      <trkpt lat="46.381010" lon="11.240448">
        <ele>506.097</ele>
        <time>2026-08-11T09:46:49Z</time>
      </trkpt>
      <trkpt lat="46.380909" lon="11.240469">
        <ele>506.536</ele>
        <time>2026-08-11T09:46:53Z</time>
      </trkpt>
      <trkpt lat="46.380882" lon="11.240381">
        <ele>506.650</ele>
        <time>2026-08-11T09:46:58Z</time>
      </trkpt>
      <trkpt lat="46.380907" lon="11.240352">
        <ele>506.662</ele>
        <time>2026-08-11T09:47:04Z</time>
      </trkpt>
      <trkpt lat="46.380919" lon="11.240405">
        <ele>506.628</ele>
        <time>2026-08-11T09:47:11Z</time>
      </trkpt>
      <trkpt lat="46.380959" lon="11.240422">
        <ele>506.423</ele>
        <time>2026-08-11T09:47:15Z</time>
      </trkpt>
      <trkpt lat="46.380994" lon="11.240495">
        <ele>506.188</ele>
        <time>2026-08-11T09:47:21Z</time>
      </trkpt>
      <trkpt lat="46.381008" lon="11.240471">
        <ele>505.824</ele>
        <time>2026-08-11T09:47:22Z</time>
      </trkpt>
      <trkpt lat="46.381020" lon="11.240488">
        <ele>505.826</ele>
        <time>2026-08-11T09:47:23Z</time>
      </trkpt>
      <trkpt lat="46.380963" lon="11.240531">
        <ele>505.809</ele>
        <time>2026-08-11T09:47:28Z</time>
      </trkpt>
      <trkpt lat="46.380904" lon="11.240466">
        <ele>504.180</ele>
        <time>2026-08-11T09:47:37Z</time>
      </trkpt>
      <trkpt lat="46.380945" lon="11.240339">
        <ele>503.765</ele>
        <time>2026-08-11T09:48:06Z</time>
      </trkpt>
      <trkpt lat="46.380911" lon="11.240391">
        <ele>503.787</ele>
        <time>2026-08-11T09:48:16Z</time>
      </trkpt>
      <trkpt lat="46.380928" lon="11.240444">
        <ele>503.779</ele>
        <time>2026-08-11T09:48:27Z</time>
      </trkpt>
      <trkpt lat="46.380989" lon="11.240496">
        <ele>500.148</ele>
        <time>2026-08-11T09:48:35Z</time>
      </trkpt>
      <trkpt lat="46.380997" lon="11.240545">
        <ele>496.152</ele>
        <time>2026-08-11T09:48:38Z</time>
      </trkpt>
      <trkpt lat="46.380895" lon="11.240653">
        <ele>495.514</ele>
        <time>2026-08-11T09:48:52Z</time>
      </trkpt>
      <trkpt lat="46.380904" lon="11.240714">
        <ele>495.560</ele>
        <time>2026-08-11T09:48:56Z</time>
      </trkpt>
      <trkpt lat="46.380935" lon="11.240731">
        <ele>495.675</ele>
        <time>2026-08-11T09:48:59Z</time>
      </trkpt>
      <trkpt lat="46.380912" lon="11.240754">
        <ele>495.853</ele>
        <time>2026-08-11T09:49:06Z</time>
      </trkpt>
      <trkpt lat="46.380943" lon="11.240698">
        <ele>496.704</ele>
        <time>2026-08-11T09:49:13Z</time>
      </trkpt>
      <trkpt lat="46.380908" lon="11.240787">
        <ele>498.714</ele>
        <time>2026-08-11T09:49:25Z</time>
      </trkpt>
      <trkpt lat="46.380934" lon="11.240853">
        <ele>500.909</ele>
        <time>2026-08-11T09:49:35Z</time>
      </trkpt>
      <trkpt lat="46.380886" lon="11.240947">
        <ele>502.027</ele>
        <time>2026-08-11T09:49:53Z</time>
      </trkpt>
      <trkpt lat="46.380922" lon="11.240929">
        <ele>502.012</ele>
        <time>2026-08-11T09:49:59Z</time>
      </trkpt>
      <trkpt lat="46.380945" lon="11.241152">
        <ele>499.784</ele>
        <time>2026-08-11T09:50:20Z</time>
      </trkpt>
      <trkpt lat="46.380984" lon="11.241241">
        <ele>495.056</ele>
        <time>2026-08-11T09:50:35Z</time>
      </trkpt>
      <trkpt lat="46.380973" lon="11.241299">
        <ele>493.225</ele>
        <time>2026-08-11T09:50:54Z</time>
      </trkpt>
      <trkpt lat="46.381028" lon="11.241406">
        <ele>488.859</ele>
        <time>2026-08-11T09:51:16Z</time>
      </trkpt>
      <trkpt lat="46.381046" lon="11.241553">
        <ele>487.981</ele>
        <time>2026-08-11T09:51:38Z</time>
      </trkpt>
      <trkpt lat="46.381076" lon="11.241455">
        <ele>487.687</ele>
        <time>2026-08-11T09:52:35Z</time>
      </trkpt>
      <trkpt lat="46.381065" lon="11.241481">
        <ele>487.692</ele>
        <time>2026-08-11T09:52:44Z</time>
      </trkpt>
      <trkpt lat="46.381101" lon="11.241482">
        <ele>478.592</ele>
        <time>2026-08-11T09:55:08Z</time>
      </trkpt>
      <trkpt lat="46.381207" lon="11.241573">
        <ele>476.973</ele>
        <time>2026-08-11T09:55:36Z</time>
      </trkpt>
      <trkpt lat="46.381105" lon="11.241554">
        <ele>475.920</ele>
        <time>2026-08-11T09:55:52Z</time>
      </trkpt>
      <trkpt lat="46.381120" lon="11.241601">
        <ele>475.809</ele>
        <time>2026-08-11T09:56:04Z</time>
      </trkpt>
      <trkpt lat="46.381107" lon="11.241508">
        <ele>475.341</ele>
        <time>2026-08-11T09:56:22Z</time>
      </trkpt>
      <trkpt lat="46.381128" lon="11.241620">
        <ele>473.746</ele>
        <time>2026-08-11T09:56:38Z</time>
      </trkpt>
      <trkpt lat="46.381185" lon="11.241585">
        <ele>470.428</ele>
        <time>2026-08-11T09:56:45Z</time>
      </trkpt>
      <trkpt lat="46.381213" lon="11.241519">
        <ele>465.760</ele>
        <time>2026-08-11T09:56:52Z</time>
      </trkpt>
      <trkpt lat="46.381232" lon="11.241544">
        <ele>463.899</ele>
        <time>2026-08-11T09:56:58Z</time>
      </trkpt>
      <trkpt lat="46.381260" lon="11.241517">
        <ele>463.243</ele>
        <time>2026-08-11T09:57:03Z</time>
      </trkpt>
      <trkpt lat="46.381250" lon="11.241578">
        <ele>462.885</ele>
        <time>2026-08-11T09:57:09Z</time>
      </trkpt>
      <trkpt lat="46.381202" lon="11.241583">
        <ele>461.861</ele>
        <time>2026-08-11T09:57:16Z</time>
      </trkpt>
      <trkpt lat="46.381178" lon="11.241631">
        <ele>461.086</ele>
        <time>2026-08-11T09:57:30Z</time>
      </trkpt>
      <trkpt lat="46.381132" lon="11.241890">
        <ele>459.114</ele>
        <time>2026-08-11T09:57:58Z</time>
      </trkpt>
      <trkpt lat="46.381172" lon="11.241918">
        <ele>459.354</ele>
        <time>2026-08-11T09:58:06Z</time>
      </trkpt>
      <trkpt lat="46.381123" lon="11.241997">
        <ele>459.809</ele>
        <time>2026-08-11T09:58:24Z</time>
      </trkpt>
      <trkpt lat="46.381116" lon="11.242079">
        <ele>460.309</ele>
        <time>2026-08-11T09:58:32Z</time>
      </trkpt>
      <trkpt lat="46.381057" lon="11.242116">
        <ele>461.253</ele>
        <time>2026-08-11T09:58:48Z</time>
      </trkpt>
      <trkpt lat="46.381034" lon="11.242080">
        <ele>461.238</ele>
        <time>2026-08-11T09:58:52Z</time>
      </trkpt>
      <trkpt lat="46.381036" lon="11.241879">
        <ele>460.450</ele>
        <time>2026-08-11T09:59:02Z</time>
      </trkpt>
      <trkpt lat="46.381082" lon="11.241840">
        <ele>460.412</ele>
        <time>2026-08-11T09:59:08Z</time>
      </trkpt>
      <trkpt lat="46.381043" lon="11.241785">
        <ele>460.231</ele>
        <time>2026-08-11T09:59:16Z</time>
      </trkpt>
      <trkpt lat="46.380993" lon="11.241819">
        <ele>460.275</ele>
        <time>2026-08-11T09:59:45Z</time>
      </trkpt>
      <trkpt lat="46.380988" lon="11.241983">
        <ele>460.277</ele>
        <time>2026-08-11T09:59:52Z</time>
      </trkpt>
      <trkpt lat="46.381002" lon="11.241897">
        <ele>460.193</ele>
        <time>2026-08-11T09:59:54Z</time>
      </trkpt>
      <trkpt lat="46.380975" lon="11.241928">
        <ele>459.228</ele>
        <time>2026-08-11T10:00:22Z</time>
      </trkpt>
      <trkpt lat="46.380941" lon="11.241868">
        <ele>460.043</ele>
        <time>2026-08-11T10:00:47Z</time>
      </trkpt>
      <trkpt lat="46.380950" lon="11.241808">
        <ele>460.064</ele>
        <time>2026-08-11T10:00:55Z</time>
      </trkpt>
      <trkpt lat="46.380902" lon="11.241575">
        <ele>458.310</ele>
        <time>2026-08-11T10:01:35Z</time>
      </trkpt>
      <trkpt lat="46.380914" lon="11.241822">
        <ele>448.309</ele>
        <time>2026-08-11T10:02:52Z</time>
      </trkpt>
      <trkpt lat="46.380932" lon="11.241768">
        <ele>448.356</ele>
        <time>2026-08-11T10:03:05Z</time>
      </trkpt>
      <trkpt lat="46.380944" lon="11.241820">
        <ele>447.931</ele>
        <time>2026-08-11T10:03:21Z</time>
      </trkpt>
      <trkpt lat="46.380920" lon="11.241793">
        <ele>447.793</ele>
        <time>2026-08-11T10:03:31Z</time>
      </trkpt>
      <trkpt lat="46.380913" lon="11.241840">
        <ele>447.765</ele>
        <time>2026-08-11T10:03:44Z</time>
      </trkpt>
      <trkpt lat="46.380879" lon="11.241846">
        <ele>447.934</ele>
        <time>2026-08-11T10:04:03Z</time>
      </trkpt>
      <trkpt lat="46.380888" lon="11.241876">
        <ele>448.098</ele>
        <time>2026-08-11T10:04:08Z</time>
      </trkpt>
      <trkpt lat="46.380868" lon="11.241856">
        <ele>448.270</ele>
        <time>2026-08-11T10:04:30Z</time>
      </trkpt>
      <trkpt lat="46.380899" lon="11.242016">
        <ele>448.846</ele>
        <time>2026-08-11T10:05:00Z</time>
      </trkpt>
      <trkpt lat="46.380895" lon="11.241954">
        <ele>448.961</ele>
        <time>2026-08-11T10:05:12Z</time>
      </trkpt>
      <trkpt lat="46.380858" lon="11.241915">
        <ele>449.653</ele>
        <time>2026-08-11T10:05:56Z</time>
      </trkpt>
      <trkpt lat="46.380891" lon="11.241892">
        <ele>454.404</ele>
        <time>2026-08-11T10:07:42Z</time>
      </trkpt>
      <trkpt lat="46.380937" lon="11.241950">
        <ele>456.114</ele>
        <time>2026-08-11T10:14:03Z</time>
      </trkpt>
      <trkpt lat="46.380980" lon="11.241918">
        <ele>456.109</ele>
        <time>2026-08-11T10:14:15Z</time>
      </trkpt>
      <trkpt lat="46.380843" lon="11.241795">
        <ele>449.597</ele>
        <time>2026-08-11T10:14:30Z</time>
      </trkpt>
      <trkpt lat="46.380853" lon="11.241846">
        <ele>449.322</ele>
        <time>2026-08-11T10:14:47Z</time>
      </trkpt>
      <trkpt lat="46.380884" lon="11.241865">
        <ele>449.164</ele>
        <time>2026-08-11T10:14:49Z</time>
      </trkpt>
      <trkpt lat="46.380938" lon="11.241847">
        <ele>448.986</ele>
        <time>2026-08-11T10:14:54Z</time>
      </trkpt>
      <trkpt lat="46.380943" lon="11.241783">
        <ele>448.655</ele>
        <time>2026-08-11T10:14:57Z</time>
      </trkpt>
      <trkpt lat="46.380899" lon="11.241682">
        <ele>448.139</ele>
        <time>2026-08-11T10:15:14Z</time>
      </trkpt>
      <trkpt lat="46.380944" lon="11.241701">
        <ele>447.661</ele>
        <time>2026-08-11T10:15:18Z</time>
      </trkpt>
      <trkpt lat="46.381010" lon="11.241851">
        <ele>448.667</ele>
        <time>2026-08-11T10:15:35Z</time>
      </trkpt>
      <trkpt lat="46.380983" lon="11.241975">
        <ele>449.272</ele>
        <time>2026-08-11T10:15:50Z</time>
      </trkpt>
      <trkpt lat="46.381029" lon="11.241968">
        <ele>450.848</ele>
        <time>2026-08-11T10:16:08Z</time>
      </trkpt>
      <trkpt lat="46.381066" lon="11.241874">
        <ele>457.461</ele>
        <time>2026-08-11T10:16:16Z</time>
      </trkpt>
      <trkpt lat="46.381101" lon="11.241955">
        <ele>457.817</ele>
        <time>2026-08-11T10:16:28Z</time>
      </trkpt>
      <trkpt lat="46.381162" lon="11.241952">
        <ele>457.809</ele>
        <time>2026-08-11T10:16:37Z</time>
      </trkpt>
      <trkpt lat="46.381155" lon="11.242157">
        <ele>455.196</ele>
        <time>2026-08-11T10:16:59Z</time>
      </trkpt>
      <trkpt lat="46.381193" lon="11.242198">
        <ele>452.131</ele>
        <time>2026-08-11T10:17:18Z</time>
      </trkpt>
      <trkpt lat="46.381164" lon="11.242214">
        <ele>452.133</ele>
        <time>2026-08-11T10:17:23Z</time>
      </trkpt>
      <trkpt lat="46.381159" lon="11.242281">
        <ele>452.195</ele>
        <time>2026-08-11T10:17:32Z</time>
      </trkpt>
      <trkpt lat="46.381117" lon="11.242326">
        <ele>453.284</ele>
        <time>2026-08-11T10:17:50Z</time>
      </trkpt>
      <trkpt lat="46.381149" lon="11.242406">
        <ele>454.058</ele>
        <time>2026-08-11T10:18:16Z</time>
      </trkpt>
      <trkpt lat="46.381140" lon="11.242490">
        <ele>454.140</ele>
        <time>2026-08-11T10:18:39Z</time>
      </trkpt>
      <trkpt lat="46.381187" lon="11.242487">
        <ele>454.486</ele>
        <time>2026-08-11T10:18:50Z</time>
      </trkpt>
      <trkpt lat="46.381198" lon="11.242414">
        <ele>454.491</ele>
        <time>2026-08-11T10:19:16Z</time>
      </trkpt>
      <trkpt lat="46.381213" lon="11.242430">
        <ele>454.468</ele>
        <time>2026-08-11T10:19:21Z</time>
      </trkpt>
      <trkpt lat="46.381136" lon="11.242508">
        <ele>454.542</ele>
        <time>2026-08-11T10:19:38Z</time>
      </trkpt>
      <trkpt lat="46.381186" lon="11.242527">
        <ele>455.226</ele>
        <time>2026-08-11T10:20:08Z</time>
      </trkpt>
      <trkpt lat="46.381192" lon="11.242558">
        <ele>457.109</ele>
        <time>2026-08-11T10:20:12Z</time>
      </trkpt>
      <trkpt lat="46.381270" lon="11.242495">
        <ele>461.038</ele>
        <time>2026-08-11T10:20:23Z</time>
      </trkpt>
      <trkpt lat="46.381296" lon="11.242527">
        <ele>461.033</ele>
        <time>2026-08-11T10:20:33Z</time>
      </trkpt>
      <trkpt lat="46.381361" lon="11.242530">
        <ele>461.695</ele>
        <time>2026-08-11T10:21:28Z</time>
      </trkpt>
      <trkpt lat="46.381435" lon="11.242465">
        <ele>465.267</ele>
        <time>2026-08-11T10:23:50Z</time>
      </trkpt>
      <trkpt lat="46.381343" lon="11.242314">
        <ele>471.356</ele>
        <time>2026-08-11T10:24:24Z</time>
      </trkpt>
      <trkpt lat="46.381358" lon="11.242351">
        <ele>472.050</ele>
        <time>2026-08-11T10:24:46Z</time>
      </trkpt>
      <trkpt lat="46.381408" lon="11.242324">
        <ele>472.362</ele>
        <time>2026-08-11T10:24:59Z</time>
      </trkpt>
      <trkpt lat="46.381442" lon="11.242269">
        <ele>473.698</ele>
        <time>2026-08-11T10:25:16Z</time>
      </trkpt>
      <trkpt lat="46.381430" lon="11.242242">
        <ele>475.683</ele>
        <time>2026-08-11T10:25:32Z</time>
      </trkpt>
      <trkpt lat="46.381517" lon="11.242210">
        <ele>479.632</ele>
        <time>2026-08-11T10:26:07Z</time>
      </trkpt>
      <trkpt lat="46.381503" lon="11.242175">
        <ele>480.292</ele>
        <time>2026-08-11T10:26:10Z</time>
      </trkpt>
      <trkpt lat="46.381439" lon="11.242150">
        <ele>482.511</ele>
        <time>2026-08-11T10:26:16Z</time>
      </trkpt>
      <trkpt lat="46.381716" lon="11.242049">
        <ele>488.509</ele>
        <time>2026-08-11T10:27:34Z</time>
      </trkpt>
      <trkpt lat="46.381852" lon="11.241942">
        <ele>493.125</ele>
        <time>2026-08-11T10:27:57Z</time>
      </trkpt>
      <trkpt lat="46.381950" lon="11.241753">
        <ele>495.580</ele>
        <time>2026-08-11T10:28:19Z</time>
      </trkpt>
      <trkpt lat="46.382021" lon="11.241490">
        <ele>497.052</ele>
        <time>2026-08-11T10:28:51Z</time>
      </trkpt>
      <trkpt lat="46.382085" lon="11.241469">
        <ele>496.934</ele>
        <time>2026-08-11T10:28:57Z</time>
      </trkpt>
      <trkpt lat="46.382139" lon="11.241486">
        <ele>497.083</ele>
        <time>2026-08-11T10:29:05Z</time>
      </trkpt>
      <trkpt lat="46.382175" lon="11.241446">
        <ele>497.967</ele>
        <time>2026-08-11T10:29:13Z</time>
      </trkpt>
      <trkpt lat="46.382230" lon="11.241436">
        <ele>498.259</ele>
        <time>2026-08-11T10:29:20Z</time>
      </trkpt>
      <trkpt lat="46.382294" lon="11.241290">
        <ele>498.635</ele>
        <time>2026-08-11T10:29:39Z</time>
      </trkpt>
      <trkpt lat="46.382423" lon="11.241162">
        <ele>499.350</ele>
        <time>2026-08-11T10:30:20Z</time>
      </trkpt>
      <trkpt lat="46.382449" lon="11.241055">
        <ele>500.872</ele>
        <time>2026-08-11T10:30:33Z</time>
      </trkpt>
      <trkpt lat="46.382427" lon="11.241062">
        <ele>501.613</ele>
        <time>2026-08-11T10:30:36Z</time>
      </trkpt>
      <trkpt lat="46.382495" lon="11.241031">
        <ele>502.514</ele>
        <time>2026-08-11T10:30:47Z</time>
      </trkpt>
      <trkpt lat="46.382484" lon="11.240936">
        <ele>503.409</ele>
        <time>2026-08-11T10:31:00Z</time>
      </trkpt>
      <trkpt lat="46.382582" lon="11.240803">
        <ele>506.329</ele>
        <time>2026-08-11T10:31:32Z</time>
      </trkpt>
      <trkpt lat="46.382631" lon="11.240764">
        <ele>506.514</ele>
        <time>2026-08-11T10:31:44Z</time>
      </trkpt>
      <trkpt lat="46.382639" lon="11.240787">
        <ele>509.896</ele>
        <time>2026-08-11T10:32:59Z</time>
      </trkpt>
      <trkpt lat="46.382659" lon="11.240762">
        <ele>508.948</ele>
        <time>2026-08-11T10:33:05Z</time>
      </trkpt>
      <trkpt lat="46.382700" lon="11.240769">
        <ele>509.267</ele>
        <time>2026-08-11T10:33:10Z</time>
      </trkpt>
      <trkpt lat="46.382717" lon="11.240716">
        <ele>509.431</ele>
        <time>2026-08-11T10:33:50Z</time>
      </trkpt>
      <trkpt lat="46.382768" lon="11.240688">
        <ele>509.013</ele>
        <time>2026-08-11T10:33:56Z</time>
      </trkpt>
      <trkpt lat="46.382804" lon="11.240602">
        <ele>508.869</ele>
        <time>2026-08-11T10:34:07Z</time>
      </trkpt>
      <trkpt lat="46.382768" lon="11.240533">
        <ele>508.514</ele>
        <time>2026-08-11T10:34:16Z</time>
      </trkpt>
      <trkpt lat="46.382858" lon="11.240432">
        <ele>508.979</ele>
        <time>2026-08-11T10:34:49Z</time>
      </trkpt>
      <trkpt lat="46.382887" lon="11.240353">
        <ele>509.605</ele>
        <time>2026-08-11T10:35:06Z</time>
      </trkpt>
      <trkpt lat="46.383029" lon="11.240249">
        <ele>515.925</ele>
        <time>2026-08-11T10:35:28Z</time>
      </trkpt>
      <trkpt lat="46.383012" lon="11.240169">
        <ele>516.509</ele>
        <time>2026-08-11T10:35:35Z</time>
      </trkpt>
      <trkpt lat="46.383205" lon="11.240032">
        <ele>519.949</ele>
        <time>2026-08-11T10:36:29Z</time>
      </trkpt>
      <trkpt lat="46.383292" lon="11.240054">
        <ele>524.384</ele>
        <time>2026-08-11T10:36:52Z</time>
      </trkpt>
      <trkpt lat="46.383262" lon="11.239972">
        <ele>524.646</ele>
        <time>2026-08-11T10:37:04Z</time>
      </trkpt>
      <trkpt lat="46.383283" lon="11.239911">
        <ele>525.958</ele>
        <time>2026-08-11T10:37:09Z</time>
      </trkpt>
      <trkpt lat="46.383312" lon="11.239959">
        <ele>526.517</ele>
        <time>2026-08-11T10:37:24Z</time>
      </trkpt>
      <trkpt lat="46.383361" lon="11.239979">
        <ele>526.691</ele>
        <time>2026-08-11T10:37:30Z</time>
      </trkpt>
      <trkpt lat="46.383304" lon="11.239863">
        <ele>527.973</ele>
        <time>2026-08-11T10:37:49Z</time>
      </trkpt>
      <trkpt lat="46.383320" lon="11.239833">
        <ele>528.129</ele>
        <time>2026-08-11T10:38:00Z</time>
      </trkpt>
      <trkpt lat="46.383367" lon="11.239889">
        <ele>528.574</ele>
        <time>2026-08-11T10:38:08Z</time>
      </trkpt>
      <trkpt lat="46.383378" lon="11.239839">
        <ele>529.188</ele>
        <time>2026-08-11T10:38:12Z</time>
      </trkpt>
      <trkpt lat="46.383360" lon="11.239847">
        <ele>529.324</ele>
        <time>2026-08-11T10:38:25Z</time>
      </trkpt>
      <trkpt lat="46.383353" lon="11.239726">
        <ele>535.226</ele>
        <time>2026-08-11T10:39:28Z</time>
      </trkpt>
      <trkpt lat="46.383328" lon="11.239703">
        <ele>536.409</ele>
        <time>2026-08-11T10:39:56Z</time>
      </trkpt>
      <trkpt lat="46.383446" lon="11.239760">
        <ele>537.670</ele>
        <time>2026-08-11T10:40:36Z</time>
      </trkpt>
      <trkpt lat="46.383436" lon="11.239737">
        <ele>537.925</ele>
        <time>2026-08-11T10:40:38Z</time>
      </trkpt>
      <trkpt lat="46.383450" lon="11.239773">
        <ele>538.327</ele>
        <time>2026-08-11T10:40:42Z</time>
      </trkpt>
      <trkpt lat="46.383473" lon="11.239716">
        <ele>539.249</ele>
        <time>2026-08-11T10:40:53Z</time>
      </trkpt>
      <trkpt lat="46.383522" lon="11.239705">
        <ele>539.718</ele>
        <time>2026-08-11T10:41:01Z</time>
      </trkpt>
      <trkpt lat="46.383504" lon="11.239708">
        <ele>540.012</ele>
        <time>2026-08-11T10:41:02Z</time>
      </trkpt>
      <trkpt lat="46.383526" lon="11.239737">
        <ele>541.124</ele>
        <time>2026-08-11T10:41:06Z</time>
      </trkpt>
      <trkpt lat="46.383528" lon="11.239706">
        <ele>541.580</ele>
        <time>2026-08-11T10:41:09Z</time>
      </trkpt>
      <trkpt lat="46.383528" lon="11.239759">
        <ele>546.335</ele>
        <time>2026-08-11T10:43:06Z</time>
      </trkpt>
      <trkpt lat="46.383746" lon="11.238960">
        <ele>569.586</ele>
        <time>2026-08-11T10:53:19Z</time>
      </trkpt>
      <trkpt lat="46.383687" lon="11.238915">
        <ele>571.660</ele>
        <time>2026-08-11T10:53:30Z</time>
      </trkpt>
      <trkpt lat="46.383631" lon="11.238937">
        <ele>573.126</ele>
        <time>2026-08-11T10:53:41Z</time>
      </trkpt>
      <trkpt lat="46.383637" lon="11.238963">
        <ele>576.309</ele>
        <time>2026-08-11T10:54:43Z</time>
      </trkpt>
      <trkpt lat="46.383459" lon="11.238945">
        <ele>576.010</ele>
        <time>2026-08-11T10:55:16Z</time>
      </trkpt>
      <trkpt lat="46.383364" lon="11.239056">
        <ele>577.375</ele>
        <time>2026-08-11T10:55:34Z</time>
      </trkpt>
      <trkpt lat="46.383305" lon="11.239053">
        <ele>577.647</ele>
        <time>2026-08-11T10:55:41Z</time>
      </trkpt>
      <trkpt lat="46.383241" lon="11.239093">
        <ele>578.989</ele>
        <time>2026-08-11T10:55:50Z</time>
      </trkpt>
      <trkpt lat="46.383128" lon="11.239070">
        <ele>579.758</ele>
        <time>2026-08-11T10:56:03Z</time>
      </trkpt>
      <trkpt lat="46.383054" lon="11.239118">
        <ele>580.762</ele>
        <time>2026-08-11T10:56:12Z</time>
      </trkpt>
      <trkpt lat="46.382950" lon="11.239094">
        <ele>581.124</ele>
        <time>2026-08-11T10:56:31Z</time>
      </trkpt>
      <trkpt lat="46.382908" lon="11.239047">
        <ele>581.340</ele>
        <time>2026-08-11T10:56:38Z</time>
      </trkpt>
      <trkpt lat="46.382815" lon="11.239045">
        <ele>583.865</ele>
        <time>2026-08-11T10:56:51Z</time>
      </trkpt>
      <trkpt lat="46.382733" lon="11.239190">
        <ele>586.448</ele>
        <time>2026-08-11T10:57:09Z</time>
      </trkpt>
      <trkpt lat="46.382678" lon="11.239232">
        <ele>587.161</ele>
        <time>2026-08-11T10:57:19Z</time>
      </trkpt>
      <trkpt lat="46.382631" lon="11.239248">
        <ele>587.517</ele>
        <time>2026-08-11T10:57:25Z</time>
      </trkpt>
      <trkpt lat="46.382584" lon="11.239229">
        <ele>587.909</ele>
        <time>2026-08-11T10:57:31Z</time>
      </trkpt>
      <trkpt lat="46.382474" lon="11.239266">
        <ele>588.056</ele>
        <time>2026-08-11T10:57:45Z</time>
      </trkpt>
      <trkpt lat="46.382452" lon="11.239315">
        <ele>587.871</ele>
        <time>2026-08-11T10:57:52Z</time>
      </trkpt>
      <trkpt lat="46.382263" lon="11.239333">
        <ele>585.523</ele>
        <time>2026-08-11T10:58:14Z</time>
      </trkpt>
      <trkpt lat="46.382167" lon="11.239222">
        <ele>584.695</ele>
        <time>2026-08-11T10:58:31Z</time>
      </trkpt>
      <trkpt lat="46.382118" lon="11.239040">
        <ele>584.754</ele>
        <time>2026-08-11T10:58:53Z</time>
      </trkpt>
      <trkpt lat="46.382038" lon="11.238953">
        <ele>586.258</ele>
        <time>2026-08-11T10:59:08Z</time>
      </trkpt>
      <trkpt lat="46.382052" lon="11.238898">
        <ele>588.120</ele>
        <time>2026-08-11T10:59:14Z</time>
      </trkpt>
      <trkpt lat="46.381969" lon="11.238715">
        <ele>590.096</ele>
        <time>2026-08-11T10:59:35Z</time>
      </trkpt>
      <trkpt lat="46.381751" lon="11.238530">
        <ele>592.221</ele>
        <time>2026-08-11T11:00:18Z</time>
      </trkpt>
      <trkpt lat="46.381714" lon="11.238554">
        <ele>592.679</ele>
        <time>2026-08-11T11:00:25Z</time>
      </trkpt>
      <trkpt lat="46.381590" lon="11.238497">
        <ele>593.205</ele>
        <time>2026-08-11T11:00:45Z</time>
      </trkpt>
      <trkpt lat="46.381534" lon="11.238507">
        <ele>592.925</ele>
        <time>2026-08-11T11:01:05Z</time>
      </trkpt>
      <trkpt lat="46.381486" lon="11.238298">
        <ele>591.509</ele>
        <time>2026-08-11T11:01:20Z</time>
      </trkpt>
      <trkpt lat="46.381417" lon="11.238251">
        <ele>591.079</ele>
        <time>2026-08-11T11:01:29Z</time>
      </trkpt>
      <trkpt lat="46.381457" lon="11.238186">
        <ele>591.174</ele>
        <time>2026-08-11T11:01:44Z</time>
      </trkpt>
      <trkpt lat="46.381421" lon="11.238225">
        <ele>591.616</ele>
        <time>2026-08-11T11:01:49Z</time>
      </trkpt>
      <trkpt lat="46.381360" lon="11.238225">
        <ele>591.798</ele>
        <time>2026-08-11T11:01:58Z</time>
      </trkpt>
      <trkpt lat="46.381368" lon="11.238145">
        <ele>592.737</ele>
        <time>2026-08-11T11:02:08Z</time>
      </trkpt>
      <trkpt lat="46.381276" lon="11.238063">
        <ele>595.171</ele>
        <time>2026-08-11T11:02:18Z</time>
      </trkpt>
      <trkpt lat="46.381152" lon="11.237873">
        <ele>596.013</ele>
        <time>2026-08-11T11:02:43Z</time>
      </trkpt>
      <trkpt lat="46.381048" lon="11.237967">
        <ele>596.269</ele>
        <time>2026-08-11T11:03:06Z</time>
      </trkpt>
      <trkpt lat="46.380997" lon="11.238161">
        <ele>595.864</ele>
        <time>2026-08-11T11:03:23Z</time>
      </trkpt>
      <trkpt lat="46.380773" lon="11.238202">
        <ele>590.636</ele>
        <time>2026-08-11T11:03:49Z</time>
      </trkpt>
      <trkpt lat="46.380634" lon="11.238329">
        <ele>589.717</ele>
        <time>2026-08-11T11:04:07Z</time>
      </trkpt>
      <trkpt lat="46.380513" lon="11.238283">
        <ele>589.918</ele>
        <time>2026-08-11T11:04:19Z</time>
      </trkpt>
      <trkpt lat="46.380394" lon="11.238393">
        <ele>589.809</ele>
        <time>2026-08-11T11:04:40Z</time>
      </trkpt>
      <trkpt lat="46.380155" lon="11.238316">
        <ele>588.385</ele>
        <time>2026-08-11T11:05:21Z</time>
      </trkpt>
      <trkpt lat="46.380095" lon="11.238328">
        <ele>588.640</ele>
        <time>2026-08-11T11:05:31Z</time>
      </trkpt>
      <trkpt lat="46.380031" lon="11.238285">
        <ele>588.442</ele>
        <time>2026-08-11T11:05:43Z</time>
      </trkpt>
      <trkpt lat="46.379949" lon="11.238283">
        <ele>588.424</ele>
        <time>2026-08-11T11:05:56Z</time>
      </trkpt>
      <trkpt lat="46.379890" lon="11.238183">
        <ele>589.183</ele>
        <time>2026-08-11T11:06:13Z</time>
      </trkpt>
      <trkpt lat="46.379912" lon="11.238155">
        <ele>589.367</ele>
        <time>2026-08-11T11:06:16Z</time>
      </trkpt>
      <trkpt lat="46.379986" lon="11.238149">
        <ele>590.929</ele>
        <time>2026-08-11T11:06:32Z</time>
      </trkpt>
    </trkseg>
  </trk></gpx>