<?xml version="1.0" encoding="UTF-8"?>
<gpx creator="Wikiloc - https://www.wikiloc.com" version="1.1" xmlns="http://www.topografix.com/GPX/1/1" xmlns:xsi="http://www.w3.org/2001/XMLSchema-instance" xsi:schemaLocation="http://www.topografix.com/GPX/1/1 http://www.topografix.com/GPX/1/1/gpx.xsd">
  <metadata>
    <name>Wikiloc - Sentiero di Federico Augusto di Sassonia</name>
    <link href="https://www.wikiloc.com/hiking-trails/sentiero-di-federico-augusto-di-sassonia-143501001">
      <text>Sentiero di Federico Augusto di Sassonia - Wikiloc on Wikiloc</text>
    </link>
    <time>2023-08-12T16:16:40Z</time>
  </metadata>
  <wpt lat="46.496598" lon="11.751278">
    <ele>2453.0</ele>
    <time>2023-08-12T08:46:14Z</time>
    <name>Waypoint</name>
    <cmt></cmt>
    <desc></desc>
  </wpt>
  <wpt lat="46.497287" lon="11.751361">
    <ele>2394.0</ele>
    <time>2023-08-12T08:49:18Z</time>
    <name>Waypoint</name>
    <cmt></cmt>
    <desc></desc>
  </wpt>
  <wpt lat="46.499284" lon="11.748611">
    <ele>2319.7</ele>
    <time>2023-08-12T08:58:12Z</time>
    <name>Waypoint</name>
    <cmt></cmt>
    <desc></desc>
  </wpt>
  <wpt lat="46.501414" lon="11.743454">
    <ele>2268.4</ele>
    <time>2023-08-12T09:16:44Z</time>
    <name>Waypoint</name>
    <cmt></cmt>
    <desc></desc>
  </wpt>
  <wpt lat="46.501414" lon="11.743454">
    <ele>2268.4</ele>
    <time>2023-08-12T09:16:54Z</time>
    <name>Waypoint</name>
    <cmt></cmt>
    <desc></desc>
  </wpt>
  <wpt lat="46.499920" lon="11.737280">
    <ele>2281.1</ele>
    <time>2023-08-12T09:29:40Z</time>
    <name>Waypoint</name>
    <cmt></cmt>
    <desc></desc>
  </wpt>
  <wpt lat="46.500130" lon="11.736737">
    <ele>2275.9</ele>
    <time>2023-08-12T09:30:38Z</time>
    <name>Waypoint</name>
    <cmt></cmt>
    <desc></desc>
  </wpt>
  <wpt lat="46.501541" lon="11.726940">
    <ele>2305.6</ele>
    <time>2023-08-12T09:52:06Z</time>
    <name>Waypoint</name>
    <cmt></cmt>
    <desc></desc>
  </wpt>
  <wpt lat="46.502903" lon="11.723181">
    <ele>2300.9</ele>
    <time>2023-08-12T10:49:20Z</time>
    <name>Waypoint</name>
    <cmt></cmt>
    <desc></desc>
  </wpt>
  <wpt lat="46.503919" lon="11.719180">
    <ele>2318.7</ele>
    <time>2023-08-12T11:00:45Z</time>
    <name>Waypoint</name>
    <cmt></cmt>
    <desc></desc>
  </wpt>
  <wpt lat="46.503718" lon="11.718399">
    <ele>2314.2</ele>
    <time>2023-08-12T11:02:22Z</time>
    <name>Waypoint</name>
    <cmt></cmt>
    <desc></desc>
  </wpt>
  <wpt lat="46.504307" lon="11.714847">
    <ele>2357.6</ele>
    <time>2023-08-12T11:12:46Z</time>
    <name>Waypoint</name>
    <cmt></cmt>
    <desc></desc>
  </wpt>
  <wpt lat="46.504559" lon="11.713332">
    <ele>2358.9</ele>
    <time>2023-08-12T11:17:35Z</time>
    <name>Waypoint</name>
    <cmt></cmt>
    <desc></desc>
  </wpt>
  <wpt lat="46.505230" lon="11.703372">
    <ele>2312.2</ele>
    <time>2023-08-12T11:39:48Z</time>
    <name>Waypoint</name>
    <cmt></cmt>
    <desc></desc>
  </wpt>
  <wpt lat="46.506501" lon="11.707135">
    <ele>2293.7</ele>
    <time>2023-08-12T12:26:36Z</time>
    <name>Waypoint</name>
    <cmt></cmt>
    <desc></desc>
  </wpt>
  <wpt lat="46.501322" lon="11.728510">
    <ele>2311.8</ele>
    <time>2023-08-12T13:16:59Z</time>
    <name>Waypoint</name>
    <cmt></cmt>
    <desc></desc>
  </wpt>
  <wpt lat="46.495136" lon="11.751323">
    <ele>2400.8</ele>
    <time>2023-08-12T14:16:50Z</time>
    <name>Waypoint</name>
    <cmt></cmt>
    <desc></desc>
  </wpt>
  <trk>
    <name>Sentiero di Federico Augusto di Sassonia - Wikiloc</name>
    <cmt>Sentiero di Federico Augusto di Sassonia</cmt>
    <desc>Sentiero di Federico Augusto di Sassonia</desc>
    <trkseg>
      <trkpt lat="46.496598" lon="11.751278">
        <ele>2403.658</ele>
        <time>2023-08-12T10:45:46Z</time>
      </trkpt>
      <trkpt lat="46.497524" lon="11.751414">
        <ele>2390.852</ele>
        <time>2023-08-12T10:50:03Z</time>
      </trkpt>
      <trkpt lat="46.497441" lon="11.750417">
        <ele>2371.617</ele>
        <time>2023-08-12T10:52:18Z</time>
      </trkpt>
      <trkpt lat="46.497674" lon="11.750371">
        <ele>2369.009</ele>
        <time>2023-08-12T10:53:04Z</time>
      </trkpt>
      <trkpt lat="46.498084" lon="11.750044">
        <ele>2356.696</ele>
        <time>2023-08-12T10:54:25Z</time>
      </trkpt>
      <trkpt lat="46.498830" lon="11.749255">
        <ele>2333.919</ele>
        <time>2023-08-12T10:57:06Z</time>
      </trkpt>
      <trkpt lat="46.499158" lon="11.748710">
        <ele>2321.068</ele>
        <time>2023-08-12T10:57:59Z</time>
      </trkpt>
      <trkpt lat="46.499725" lon="11.748224">
        <ele>2319.280</ele>
        <time>2023-08-12T10:59:16Z</time>
      </trkpt>
      <trkpt lat="46.500181" lon="11.746859">
        <ele>2305.625</ele>
        <time>2023-08-12T11:01:22Z</time>
      </trkpt>
      <trkpt lat="46.500177" lon="11.746370">
        <ele>2305.066</ele>
        <time>2023-08-12T11:02:38Z</time>
      </trkpt>
      <trkpt lat="46.500414" lon="11.745493">
        <ele>2300.985</ele>
        <time>2023-08-12T11:04:35Z</time>
      </trkpt>
      <trkpt lat="46.500290" lon="11.745322">
        <ele>2297.715</ele>
        <time>2023-08-12T11:05:48Z</time>
      </trkpt>
      <trkpt lat="46.500436" lon="11.745502">
        <ele>2298.366</ele>
        <time>2023-08-12T11:07:26Z</time>
      </trkpt>
      <trkpt lat="46.501010" lon="11.745018">
        <ele>2293.256</ele>
        <time>2023-08-12T11:08:57Z</time>
      </trkpt>
      <trkpt lat="46.501193" lon="11.744548">
        <ele>2284.759</ele>
        <time>2023-08-12T11:11:12Z</time>
      </trkpt>
      <trkpt lat="46.501220" lon="11.743657">
        <ele>2277.014</ele>
        <time>2023-08-12T11:15:38Z</time>
      </trkpt>
      <trkpt lat="46.502016" lon="11.742848">
        <ele>2260.009</ele>
        <time>2023-08-12T11:18:36Z</time>
      </trkpt>
      <trkpt lat="46.501973" lon="11.742728">
        <ele>2263.336</ele>
        <time>2023-08-12T11:19:05Z</time>
      </trkpt>
      <trkpt lat="46.501738" lon="11.742861">
        <ele>2259.369</ele>
        <time>2023-08-12T11:19:38Z</time>
      </trkpt>
      <trkpt lat="46.501589" lon="11.742799">
        <ele>2258.838</ele>
        <time>2023-08-12T11:19:53Z</time>
      </trkpt>
      <trkpt lat="46.501080" lon="11.742098">
        <ele>2266.620</ele>
        <time>2023-08-12T11:21:41Z</time>
      </trkpt>
      <trkpt lat="46.500924" lon="11.741325">
        <ele>2269.535</ele>
        <time>2023-08-12T11:22:36Z</time>
      </trkpt>
      <trkpt lat="46.500488" lon="11.740463">
        <ele>2276.296</ele>
        <time>2023-08-12T11:24:04Z</time>
      </trkpt>
      <trkpt lat="46.500295" lon="11.739518">
        <ele>2271.125</ele>
        <time>2023-08-12T11:25:42Z</time>
      </trkpt>
      <trkpt lat="46.500323" lon="11.738782">
        <ele>2275.115</ele>
        <time>2023-08-12T11:26:42Z</time>
      </trkpt>
      <trkpt lat="46.499918" lon="11.738131">
        <ele>2283.546</ele>
        <time>2023-08-12T11:28:10Z</time>
      </trkpt>
      <trkpt lat="46.499800" lon="11.737582">
        <ele>2281.864</ele>
        <time>2023-08-12T11:29:02Z</time>
      </trkpt>
      <trkpt lat="46.500316" lon="11.736290">
        <ele>2273.306</ele>
        <time>2023-08-12T11:31:32Z</time>
      </trkpt>
      <trkpt lat="46.500696" lon="11.735977">
        <ele>2274.416</ele>
        <time>2023-08-12T11:32:31Z</time>
      </trkpt>
      <trkpt lat="46.500978" lon="11.735963">
        <ele>2277.409</ele>
        <time>2023-08-12T11:33:30Z</time>
      </trkpt>
      <trkpt lat="46.500470" lon="11.734714">
        <ele>2286.867</ele>
        <time>2023-08-12T11:35:41Z</time>
      </trkpt>
      <trkpt lat="46.500386" lon="11.734145">
        <ele>2288.090</ele>
        <time>2023-08-12T11:36:35Z</time>
      </trkpt>
      <trkpt lat="46.500692" lon="11.733846">
        <ele>2295.859</ele>
        <time>2023-08-12T11:39:24Z</time>
      </trkpt>
      <trkpt lat="46.501274" lon="11.733555">
        <ele>2305.531</ele>
        <time>2023-08-12T11:41:15Z</time>
      </trkpt>
      <trkpt lat="46.501456" lon="11.733326">
        <ele>2310.426</ele>
        <time>2023-08-12T11:42:28Z</time>
      </trkpt>
      <trkpt lat="46.502090" lon="11.731662">
        <ele>2318.097</ele>
        <time>2023-08-12T11:45:19Z</time>
      </trkpt>
      <trkpt lat="46.502041" lon="11.730597">
        <ele>2317.336</ele>
        <time>2023-08-12T11:46:48Z</time>
      </trkpt>
      <trkpt lat="46.501335" lon="11.729001">
        <ele>2315.396</ele>
        <time>2023-08-12T11:49:06Z</time>
      </trkpt>
      <trkpt lat="46.501332" lon="11.727644">
        <ele>2311.057</ele>
        <time>2023-08-12T11:50:46Z</time>
      </trkpt>
      <trkpt lat="46.501500" lon="11.726986">
        <ele>2306.773</ele>
        <time>2023-08-12T11:51:45Z</time>
      </trkpt>
      <trkpt lat="46.501730" lon="11.726541">
        <ele>2300.285</ele>
        <time>2023-08-12T11:53:00Z</time>
      </trkpt>
      <trkpt lat="46.501635" lon="11.726223">
        <ele>2296.513</ele>
        <time>2023-08-12T11:53:23Z</time>
      </trkpt>
      <trkpt lat="46.501801" lon="11.726059">
        <ele>2295.209</ele>
        <time>2023-08-12T11:53:51Z</time>
      </trkpt>
      <trkpt lat="46.501665" lon="11.725702">
        <ele>2290.628</ele>
        <time>2023-08-12T11:55:03Z</time>
      </trkpt>
      <trkpt lat="46.502214" lon="11.724784">
        <ele>2287.591</ele>
        <time>2023-08-12T12:46:02Z</time>
      </trkpt>
      <trkpt lat="46.502488" lon="11.724507">
        <ele>2294.610</ele>
        <time>2023-08-12T12:46:54Z</time>
      </trkpt>
      <trkpt lat="46.503079" lon="11.722758">
        <ele>2302.952</ele>
        <time>2023-08-12T12:49:56Z</time>
      </trkpt>
      <trkpt lat="46.503096" lon="11.722519">
        <ele>2302.947</ele>
        <time>2023-08-12T12:50:31Z</time>
      </trkpt>
      <trkpt lat="46.502864" lon="11.722269">
        <ele>2304.988</ele>
        <time>2023-08-12T12:51:11Z</time>
      </trkpt>
      <trkpt lat="46.502954" lon="11.721674">
        <ele>2306.297</ele>
        <time>2023-08-12T12:52:21Z</time>
      </trkpt>
      <trkpt lat="46.503016" lon="11.721543">
        <ele>2306.227</ele>
        <time>2023-08-12T12:52:33Z</time>
      </trkpt>
      <trkpt lat="46.503418" lon="11.721364">
        <ele>2310.988</ele>
        <time>2023-08-12T12:53:34Z</time>
      </trkpt>
      <trkpt lat="46.503792" lon="11.720845">
        <ele>2319.567</ele>
        <time>2023-08-12T12:55:10Z</time>
      </trkpt>
      <trkpt lat="46.503846" lon="11.720576">
        <ele>2323.981</ele>
        <time>2023-08-12T12:55:39Z</time>
      </trkpt>
      <trkpt lat="46.504226" lon="11.720156">
        <ele>2319.319</ele>
        <time>2023-08-12T12:56:51Z</time>
      </trkpt>
      <trkpt lat="46.504227" lon="11.719835">
        <ele>2320.209</ele>
        <time>2023-08-12T12:57:38Z</time>
      </trkpt>
      <trkpt lat="46.504083" lon="11.719771">
        <ele>2318.877</ele>
        <time>2023-08-12T12:59:10Z</time>
      </trkpt>
      <trkpt lat="46.503893" lon="11.719433">
        <ele>2319.390</ele>
        <time>2023-08-12T12:59:57Z</time>
      </trkpt>
      <trkpt lat="46.503959" lon="11.718913">
        <ele>2314.269</ele>
        <time>2023-08-12T13:01:11Z</time>
      </trkpt>
      <trkpt lat="46.503785" lon="11.718873">
        <ele>2312.791</ele>
        <time>2023-08-12T13:01:34Z</time>
      </trkpt>
      <trkpt lat="46.503693" lon="11.718530">
        <ele>2312.986</ele>
        <time>2023-08-12T13:02:03Z</time>
      </trkpt>
      <trkpt lat="46.503907" lon="11.717360">
        <ele>2327.387</ele>
        <time>2023-08-12T13:04:31Z</time>
      </trkpt>
      <trkpt lat="46.503801" lon="11.717269">
        <ele>2331.696</ele>
        <time>2023-08-12T13:05:04Z</time>
      </trkpt>
      <trkpt lat="46.503891" lon="11.717232">
        <ele>2334.536</ele>
        <time>2023-08-12T13:05:21Z</time>
      </trkpt>
      <trkpt lat="46.503822" lon="11.716982">
        <ele>2338.447</ele>
        <time>2023-08-12T13:06:35Z</time>
      </trkpt>
      <trkpt lat="46.504020" lon="11.716749">
        <ele>2349.051</ele>
        <time>2023-08-12T13:08:06Z</time>
      </trkpt>
      <trkpt lat="46.503912" lon="11.716634">
        <ele>2351.501</ele>
        <time>2023-08-12T13:08:42Z</time>
      </trkpt>
      <trkpt lat="46.503985" lon="11.716066">
        <ele>2351.911</ele>
        <time>2023-08-12T13:10:52Z</time>
      </trkpt>
      <trkpt lat="46.504571" lon="11.713848">
        <ele>2361.909</ele>
        <time>2023-08-12T13:14:38Z</time>
      </trkpt>
      <trkpt lat="46.504479" lon="11.712549">
        <ele>2339.246</ele>
        <time>2023-08-12T13:21:22Z</time>
      </trkpt>
      <trkpt lat="46.504576" lon="11.712417">
        <ele>2339.229</ele>
        <time>2023-08-12T13:21:56Z</time>
      </trkpt>
      <trkpt lat="46.504846" lon="11.712678">
        <ele>2321.158</ele>
        <time>2023-08-12T13:22:58Z</time>
      </trkpt>
      <trkpt lat="46.504976" lon="11.712484">
        <ele>2320.170</ele>
        <time>2023-08-12T13:23:22Z</time>
      </trkpt>
      <trkpt lat="46.505070" lon="11.712522">
        <ele>2321.465</ele>
        <time>2023-08-12T13:23:39Z</time>
      </trkpt>
      <trkpt lat="46.505289" lon="11.711888">
        <ele>2325.016</ele>
        <time>2023-08-12T13:24:47Z</time>
      </trkpt>
      <trkpt lat="46.505503" lon="11.711701">
        <ele>2320.375</ele>
        <time>2023-08-12T13:25:14Z</time>
      </trkpt>
      <trkpt lat="46.505775" lon="11.711156">
        <ele>2313.785</ele>
        <time>2023-08-12T13:25:59Z</time>
      </trkpt>
      <trkpt lat="46.506448" lon="11.709011">
        <ele>2308.876</ele>
        <time>2023-08-12T13:29:42Z</time>
      </trkpt>
      <trkpt lat="46.506318" lon="11.708526">
        <ele>2305.625</ele>
        <time>2023-08-12T13:30:41Z</time>
      </trkpt>
      <trkpt lat="46.506512" lon="11.707407">
        <ele>2299.426</ele>
        <time>2023-08-12T13:32:18Z</time>
      </trkpt>
      <trkpt lat="46.506444" lon="11.706733">
        <ele>2301.108</ele>
        <time>2023-08-12T13:33:34Z</time>
      </trkpt>
      <trkpt lat="46.505924" lon="11.705799">
        <ele>2296.509</ele>
        <time>2023-08-12T13:35:03Z</time>
      </trkpt>
      <trkpt lat="46.505857" lon="11.704966">
        <ele>2301.033</ele>
        <time>2023-08-12T13:36:33Z</time>
      </trkpt>
      <trkpt lat="46.505585" lon="11.704704">
        <ele>2306.816</ele>
        <time>2023-08-12T13:37:24Z</time>
      </trkpt>
      <trkpt lat="46.505260" lon="11.703902">
        <ele>2312.625</ele>
        <time>2023-08-12T13:38:48Z</time>
      </trkpt>
      <trkpt lat="46.505300" lon="11.701818">
        <ele>2306.727</ele>
        <time>2023-08-12T13:41:54Z</time>
      </trkpt>
      <trkpt lat="46.505090" lon="11.701178">
        <ele>2304.662</ele>
        <time>2023-08-12T13:42:47Z</time>
      </trkpt>
      <trkpt lat="46.504816" lon="11.700904">
        <ele>2306.223</ele>
        <time>2023-08-12T13:43:31Z</time>
      </trkpt>
      <trkpt lat="46.505282" lon="11.703939">
        <ele>2311.032</ele>
        <time>2023-08-12T14:21:07Z</time>
      </trkpt>
      <trkpt lat="46.505624" lon="11.704686">
        <ele>2304.742</ele>
        <time>2023-08-12T14:22:34Z</time>
      </trkpt>
      <trkpt lat="46.505928" lon="11.705027">
        <ele>2299.673</ele>
        <time>2023-08-12T14:23:20Z</time>
      </trkpt>
      <trkpt lat="46.505977" lon="11.705860">
        <ele>2296.385</ele>
        <time>2023-08-12T14:24:35Z</time>
      </trkpt>
      <trkpt lat="46.506495" lon="11.707035">
        <ele>2296.189</ele>
        <time>2023-08-12T14:26:31Z</time>
      </trkpt>
      <trkpt lat="46.506546" lon="11.708117">
        <ele>2282.017</ele>
        <time>2023-08-12T14:27:55Z</time>
      </trkpt>
      <trkpt lat="46.506379" lon="11.708675">
        <ele>2294.209</ele>
        <time>2023-08-12T14:29:00Z</time>
      </trkpt>
      <trkpt lat="46.506499" lon="11.709147">
        <ele>2300.219</ele>
        <time>2023-08-12T14:30:04Z</time>
      </trkpt>
      <trkpt lat="46.506239" lon="11.709719">
        <ele>2303.212</ele>
        <time>2023-08-12T14:31:07Z</time>
      </trkpt>
      <trkpt lat="46.506173" lon="11.710201">
        <ele>2303.241</ele>
        <time>2023-08-12T14:31:54Z</time>
      </trkpt>
      <trkpt lat="46.505921" lon="11.710673">
        <ele>2306.353</ele>
        <time>2023-08-12T14:32:50Z</time>
      </trkpt>
      <trkpt lat="46.505842" lon="11.711159">
        <ele>2311.038</ele>
        <time>2023-08-12T14:33:39Z</time>
      </trkpt>
      <trkpt lat="46.505591" lon="11.711680">
        <ele>2313.469</ele>
        <time>2023-08-12T14:34:32Z</time>
      </trkpt>
      <trkpt lat="46.505297" lon="11.711992">
        <ele>2319.638</ele>
        <time>2023-08-12T14:35:08Z</time>
      </trkpt>
      <trkpt lat="46.505124" lon="11.712488">
        <ele>2321.938</ele>
        <time>2023-08-12T14:36:04Z</time>
      </trkpt>
      <trkpt lat="46.504989" lon="11.712474">
        <ele>2323.869</ele>
        <time>2023-08-12T14:36:29Z</time>
      </trkpt>
      <trkpt lat="46.504834" lon="11.712615">
        <ele>2324.491</ele>
        <time>2023-08-12T14:36:51Z</time>
      </trkpt>
      <trkpt lat="46.504594" lon="11.712414">
        <ele>2330.181</ele>
        <time>2023-08-12T14:37:45Z</time>
      </trkpt>
      <trkpt lat="46.504198" lon="11.712754">
        <ele>2343.319</ele>
        <time>2023-08-12T14:39:27Z</time>
      </trkpt>
      <trkpt lat="46.504257" lon="11.713017">
        <ele>2346.109</ele>
        <time>2023-08-12T14:40:08Z</time>
      </trkpt>
      <trkpt lat="46.504574" lon="11.713505">
        <ele>2355.350</ele>
        <time>2023-08-12T14:41:57Z</time>
      </trkpt>
      <trkpt lat="46.504628" lon="11.713918">
        <ele>2358.673</ele>
        <time>2023-08-12T14:42:46Z</time>
      </trkpt>
      <trkpt lat="46.504210" lon="11.715256">
        <ele>2362.762</ele>
        <time>2023-08-12T14:45:05Z</time>
      </trkpt>
      <trkpt lat="46.504140" lon="11.715887">
        <ele>2361.284</ele>
        <time>2023-08-12T14:45:57Z</time>
      </trkpt>
      <trkpt lat="46.504012" lon="11.716090">
        <ele>2360.849</ele>
        <time>2023-08-12T14:46:23Z</time>
      </trkpt>
      <trkpt lat="46.503944" lon="11.716644">
        <ele>2357.320</ele>
        <time>2023-08-12T14:47:10Z</time>
      </trkpt>
      <trkpt lat="46.504052" lon="11.716747">
        <ele>2353.769</ele>
        <time>2023-08-12T14:47:29Z</time>
      </trkpt>
      <trkpt lat="46.503930" lon="11.716971">
        <ele>2351.219</ele>
        <time>2023-08-12T14:48:22Z</time>
      </trkpt>
      <trkpt lat="46.503839" lon="11.716964">
        <ele>2351.370</ele>
        <time>2023-08-12T14:48:40Z</time>
      </trkpt>
      <trkpt lat="46.503873" lon="11.717240">
        <ele>2347.248</ele>
        <time>2023-08-12T14:49:27Z</time>
      </trkpt>
      <trkpt lat="46.503695" lon="11.717144">
        <ele>2345.361</ele>
        <time>2023-08-12T14:49:54Z</time>
      </trkpt>
      <trkpt lat="46.503645" lon="11.717234">
        <ele>2347.817</ele>
        <time>2023-08-12T14:50:31Z</time>
      </trkpt>
      <trkpt lat="46.503828" lon="11.717401">
        <ele>2337.109</ele>
        <time>2023-08-12T14:51:02Z</time>
      </trkpt>
      <trkpt lat="46.503909" lon="11.717727">
        <ele>2331.025</ele>
        <time>2023-08-12T14:51:37Z</time>
      </trkpt>
      <trkpt lat="46.503731" lon="11.718725">
        <ele>2317.858</ele>
        <time>2023-08-12T14:53:09Z</time>
      </trkpt>
      <trkpt lat="46.503832" lon="11.718990">
        <ele>2314.317</ele>
        <time>2023-08-12T14:53:32Z</time>
      </trkpt>
      <trkpt lat="46.504011" lon="11.719083">
        <ele>2309.289</ele>
        <time>2023-08-12T14:54:07Z</time>
      </trkpt>
      <trkpt lat="46.503943" lon="11.719475">
        <ele>2317.274</ele>
        <time>2023-08-12T14:54:50Z</time>
      </trkpt>
      <trkpt lat="46.504250" lon="11.719910">
        <ele>2317.295</ele>
        <time>2023-08-12T14:55:49Z</time>
      </trkpt>
      <trkpt lat="46.504239" lon="11.720194">
        <ele>2321.564</ele>
        <time>2023-08-12T14:56:20Z</time>
      </trkpt>
      <trkpt lat="46.503860" lon="11.720548">
        <ele>2325.054</ele>
        <time>2023-08-12T14:57:34Z</time>
      </trkpt>
      <trkpt lat="46.503803" lon="11.720878">
        <ele>2322.155</ele>
        <time>2023-08-12T14:58:08Z</time>
      </trkpt>
      <trkpt lat="46.503373" lon="11.721435">
        <ele>2315.196</ele>
        <time>2023-08-12T14:59:23Z</time>
      </trkpt>
      <trkpt lat="46.503042" lon="11.721544">
        <ele>2312.431</ele>
        <time>2023-08-12T15:00:05Z</time>
      </trkpt>
      <trkpt lat="46.502933" lon="11.721706">
        <ele>2313.224</ele>
        <time>2023-08-12T15:00:23Z</time>
      </trkpt>
      <trkpt lat="46.502901" lon="11.722358">
        <ele>2310.009</ele>
        <time>2023-08-12T15:01:09Z</time>
      </trkpt>
      <trkpt lat="46.503094" lon="11.722554">
        <ele>2308.550</ele>
        <time>2023-08-12T15:01:36Z</time>
      </trkpt>
      <trkpt lat="46.503058" lon="11.722851">
        <ele>2304.163</ele>
        <time>2023-08-12T15:02:13Z</time>
      </trkpt>
      <trkpt lat="46.502517" lon="11.724502">
        <ele>2298.552</ele>
        <time>2023-08-12T15:04:47Z</time>
      </trkpt>
      <trkpt lat="46.502193" lon="11.724798">
        <ele>2295.264</ele>
        <time>2023-08-12T15:05:32Z</time>
      </trkpt>
      <trkpt lat="46.501649" lon="11.726213">
        <ele>2294.649</ele>
        <time>2023-08-12T15:12:23Z</time>
      </trkpt>
      <trkpt lat="46.501740" lon="11.726528">
        <ele>2297.550</ele>
        <time>2023-08-12T15:13:12Z</time>
      </trkpt>
      <trkpt lat="46.501574" lon="11.726776">
        <ele>2301.669</ele>
        <time>2023-08-12T15:13:50Z</time>
      </trkpt>
      <trkpt lat="46.501331" lon="11.727684">
        <ele>2309.499</ele>
        <time>2023-08-12T15:15:37Z</time>
      </trkpt>
      <trkpt lat="46.501346" lon="11.729037">
        <ele>2318.390</ele>
        <time>2023-08-12T15:18:05Z</time>
      </trkpt>
      <trkpt lat="46.502029" lon="11.730475">
        <ele>2318.091</ele>
        <time>2023-08-12T15:20:18Z</time>
      </trkpt>
      <trkpt lat="46.502126" lon="11.731447">
        <ele>2322.581</ele>
        <time>2023-08-12T15:21:32Z</time>
      </trkpt>
      <trkpt lat="46.501710" lon="11.732831">
        <ele>2319.619</ele>
        <time>2023-08-12T15:23:47Z</time>
      </trkpt>
      <trkpt lat="46.501448" lon="11.733353">
        <ele>2314.409</ele>
        <time>2023-08-12T15:24:41Z</time>
      </trkpt>
      <trkpt lat="46.500412" lon="11.734104">
        <ele>2299.890</ele>
        <time>2023-08-12T15:27:18Z</time>
      </trkpt>
      <trkpt lat="46.500470" lon="11.734652">
        <ele>2291.883</ele>
        <time>2023-08-12T15:28:10Z</time>
      </trkpt>
      <trkpt lat="46.500745" lon="11.735447">
        <ele>2284.752</ele>
        <time>2023-08-12T15:29:27Z</time>
      </trkpt>
      <trkpt lat="46.500952" lon="11.735730">
        <ele>2281.234</ele>
        <time>2023-08-12T15:29:58Z</time>
      </trkpt>
      <trkpt lat="46.500985" lon="11.736000">
        <ele>2281.479</ele>
        <time>2023-08-12T15:30:21Z</time>
      </trkpt>
      <trkpt lat="46.500456" lon="11.736006">
        <ele>2279.930</ele>
        <time>2023-08-12T15:31:24Z</time>
      </trkpt>
      <trkpt lat="46.499792" lon="11.737594">
        <ele>2288.379</ele>
        <time>2023-08-12T15:34:00Z</time>
      </trkpt>
      <trkpt lat="46.500269" lon="11.738712">
        <ele>2280.959</ele>
        <time>2023-08-12T15:35:53Z</time>
      </trkpt>
      <trkpt lat="46.500366" lon="11.739922">
        <ele>2279.520</ele>
        <time>2023-08-12T15:37:46Z</time>
      </trkpt>
      <trkpt lat="46.500495" lon="11.740455">
        <ele>2280.181</ele>
        <time>2023-08-12T15:38:28Z</time>
      </trkpt>
      <trkpt lat="46.500949" lon="11.741403">
        <ele>2274.261</ele>
        <time>2023-08-12T15:39:50Z</time>
      </trkpt>
      <trkpt lat="46.501081" lon="11.742098">
        <ele>2273.217</ele>
        <time>2023-08-12T15:40:41Z</time>
      </trkpt>
      <trkpt lat="46.501339" lon="11.742314">
        <ele>2272.609</ele>
        <time>2023-08-12T15:41:19Z</time>
      </trkpt>
      <trkpt lat="46.501628" lon="11.742840">
        <ele>2264.859</ele>
        <time>2023-08-12T15:42:26Z</time>
      </trkpt>
      <trkpt lat="46.502057" lon="11.742739">
        <ele>2261.192</ele>
        <time>2023-08-12T15:43:25Z</time>
      </trkpt>
      <trkpt lat="46.501220" lon="11.743642">
        <ele>2271.521</ele>
        <time>2023-08-12T15:46:00Z</time>
      </trkpt>
      <trkpt lat="46.501193" lon="11.744654">
        <ele>2283.323</ele>
        <time>2023-08-12T15:48:19Z</time>
      </trkpt>
      <trkpt lat="46.500965" lon="11.745007">
        <ele>2293.648</ele>
        <time>2023-08-12T15:51:26Z</time>
      </trkpt>
      <trkpt lat="46.500409" lon="11.745435">
        <ele>2301.119</ele>
        <time>2023-08-12T15:52:47Z</time>
      </trkpt>
      <trkpt lat="46.500140" lon="11.747086">
        <ele>2305.098</ele>
        <time>2023-08-12T15:55:34Z</time>
      </trkpt>
      <trkpt lat="46.499758" lon="11.748160">
        <ele>2316.368</ele>
        <time>2023-08-12T15:57:15Z</time>
      </trkpt>
      <trkpt lat="46.499243" lon="11.748663">
        <ele>2321.049</ele>
        <time>2023-08-12T15:58:31Z</time>
      </trkpt>
      <trkpt lat="46.498115" lon="11.749417">
        <ele>2343.569</ele>
        <time>2023-08-12T16:02:10Z</time>
      </trkpt>
      <trkpt lat="46.497455" lon="11.750202">
        <ele>2362.404</ele>
        <time>2023-08-12T16:05:03Z</time>
      </trkpt>
      <trkpt lat="46.497440" lon="11.750353">
        <ele>2373.124</ele>
        <time>2023-08-12T16:06:17Z</time>
      </trkpt>
      <trkpt lat="46.497346" lon="11.750351">
        <ele>2375.309</ele>
        <time>2023-08-12T16:08:03Z</time>
      </trkpt>
      <trkpt lat="46.496585" lon="11.751223">
        <ele>2396.937</ele>
        <time>2023-08-12T16:13:02Z</time>
      </trkpt>
      <trkpt lat="46.496269" lon="11.751377">
        <ele>2399.980</ele>
        <time>2023-08-12T16:14:00Z</time>
      </trkpt>
      <trkpt lat="46.495284" lon="11.751377">
        <ele>2400.929</ele>
        <time>2023-08-12T16:16:04Z</time>
      </trkpt>
      <trkpt lat="46.495131" lon="11.751295">
        <ele>2401.861</ele>
        <time>2023-08-12T16:16:40Z</time>
      </trkpt>
    </trkseg>
  </trk></gpx>