<?xml version="1.0" encoding="UTF-8"?>
<gpx creator="Wikiloc - https://www.wikiloc.com" version="1.1" xmlns="http://www.topografix.com/GPX/1/1" xmlns:xsi="http://www.w3.org/2001/XMLSchema-instance" xsi:schemaLocation="http://www.topografix.com/GPX/1/1 http://www.topografix.com/GPX/1/1/gpx.xsd">
  <metadata>
    <name>Wikiloc - Cima di Col Margherita e Rifugio Laresei da San Pellegrino sul sentiero giallo-blu</name>
    <link href="https://www.wikiloc.com/hiking-trails/cima-di-col-margherita-e-rifugio-laresei-da-san-pellegrino-sul-sentiero-giallo-blu-279373248">
      <text>Cima di Col Margherita e Rifugio Laresei da San Pellegrino sul sentiero giallo-blu - Wikiloc on Wikiloc</text>
    </link>
    <time>2026-08-12T16:27:23Z</time>
  </metadata>
  <wpt lat="46.367500" lon="11.793223">
    <ele>2517.2</ele>
    <time>2026-08-12T10:57:04Z</time>
    <name>Foto</name>
    <cmt></cmt>
    <desc></desc>
  </wpt>
  <wpt lat="46.367042" lon="11.791670">
    <ele>2544.7</ele>
    <time>2026-08-12T11:05:44Z</time>
    <name>Foto</name>
    <cmt></cmt>
    <desc></desc>
  </wpt>
  <wpt lat="46.367027" lon="11.795351">
    <ele>2482.4</ele>
    <time>2026-08-12T11:49:25Z</time>
    <name>Foto</name>
    <cmt></cmt>
    <desc></desc>
  </wpt>
  <wpt lat="46.353454" lon="11.811355">
    <ele>2258.0</ele>
    <time>2026-08-12T13:00:15Z</time>
    <name>Rifugio custodito</name>
    <cmt></cmt>
    <desc></desc>
  </wpt>
  <wpt lat="46.355125" lon="11.808760">
    <ele>2207.7</ele>
    <time>2026-08-12T14:02:19Z</time>
    <name>Lago</name>
    <cmt></cmt>
    <desc></desc>
  </wpt>
  <wpt lat="46.358513" lon="11.817843">
    <ele>2107.6</ele>
    <time>2026-08-12T14:24:26Z</time>
    <name>Cima di Col Margherita</name>
    <cmt></cmt>
    <desc></desc>
  </wpt>
  <wpt lat="46.369908" lon="11.812435">
    <ele>2147.9</ele>
    <time>2026-08-12T15:33:08Z</time>
    <name>Cima di Col Margherita</name>
    <cmt></cmt>
    <desc></desc>
  </wpt>
  <trk>
    <name>Cima di Col Margherita e Rifugio Laresei da San Pellegrino sul sentiero giallo-blu - Wikiloc</name>
    <cmt>Percorso da San Pellegrino passando per:
- Cima di Col Margherita (0.5 km)
- Rifugio Laresei (4.8 km)</cmt>
    <desc>Percorso da San Pellegrino passando per:
- Cima di Col Margherita (0.5 km)
- Rifugio Laresei (4.8 km)</desc>
    <trkseg>
      <trkpt lat="46.367366" lon="11.793746">
        <ele>2517.119</ele>
        <time>2026-08-12T10:55:29Z</time>
      </trkpt>
      <trkpt lat="46.367364" lon="11.793336">
        <ele>2516.309</ele>
        <time>2026-08-12T10:56:18Z</time>
      </trkpt>
      <trkpt lat="46.367514" lon="11.793196">
        <ele>2516.419</ele>
        <time>2026-08-12T10:57:11Z</time>
      </trkpt>
      <trkpt lat="46.367375" lon="11.793059">
        <ele>2517.409</ele>
        <time>2026-08-12T10:57:45Z</time>
      </trkpt>
      <trkpt lat="46.367347" lon="11.792955">
        <ele>2520.073</ele>
        <time>2026-08-12T10:58:12Z</time>
      </trkpt>
      <trkpt lat="46.367302" lon="11.792959">
        <ele>2521.138</ele>
        <time>2026-08-12T10:58:20Z</time>
      </trkpt>
      <trkpt lat="46.367276" lon="11.792474">
        <ele>2527.530</ele>
        <time>2026-08-12T10:59:58Z</time>
      </trkpt>
      <trkpt lat="46.367217" lon="11.792296">
        <ele>2534.244</ele>
        <time>2026-08-12T11:00:54Z</time>
      </trkpt>
      <trkpt lat="46.367201" lon="11.792374">
        <ele>2534.498</ele>
        <time>2026-08-12T11:01:01Z</time>
      </trkpt>
      <trkpt lat="46.367274" lon="11.792471">
        <ele>2535.794</ele>
        <time>2026-08-12T11:03:39Z</time>
      </trkpt>
      <trkpt lat="46.367230" lon="11.792223">
        <ele>2535.723</ele>
        <time>2026-08-12T11:04:11Z</time>
      </trkpt>
      <trkpt lat="46.367031" lon="11.791651">
        <ele>2540.865</ele>
        <time>2026-08-12T11:05:26Z</time>
      </trkpt>
      <trkpt lat="46.367201" lon="11.791634">
        <ele>2544.369</ele>
        <time>2026-08-12T11:06:00Z</time>
      </trkpt>
      <trkpt lat="46.367258" lon="11.791698">
        <ele>2544.254</ele>
        <time>2026-08-12T11:06:09Z</time>
      </trkpt>
      <trkpt lat="46.367391" lon="11.791606">
        <ele>2543.356</ele>
        <time>2026-08-12T11:06:53Z</time>
      </trkpt>
      <trkpt lat="46.367211" lon="11.791851">
        <ele>2544.411</ele>
        <time>2026-08-12T11:15:21Z</time>
      </trkpt>
      <trkpt lat="46.366887" lon="11.791764">
        <ele>2544.009</ele>
        <time>2026-08-12T11:15:58Z</time>
      </trkpt>
      <trkpt lat="46.366833" lon="11.791684">
        <ele>2543.767</ele>
        <time>2026-08-12T11:16:08Z</time>
      </trkpt>
      <trkpt lat="46.366567" lon="11.792080">
        <ele>2540.822</ele>
        <time>2026-08-12T11:17:21Z</time>
      </trkpt>
      <trkpt lat="46.366665" lon="11.791831">
        <ele>2541.284</ele>
        <time>2026-08-12T11:18:31Z</time>
      </trkpt>
      <trkpt lat="46.366275" lon="11.791388">
        <ele>2548.478</ele>
        <time>2026-08-12T11:25:44Z</time>
      </trkpt>
      <trkpt lat="46.366348" lon="11.791478">
        <ele>2548.512</ele>
        <time>2026-08-12T11:28:20Z</time>
      </trkpt>
      <trkpt lat="46.366506" lon="11.791493">
        <ele>2546.968</ele>
        <time>2026-08-12T11:28:34Z</time>
      </trkpt>
      <trkpt lat="46.366602" lon="11.791243">
        <ele>2547.697</ele>
        <time>2026-08-12T11:28:52Z</time>
      </trkpt>
      <trkpt lat="46.366548" lon="11.791162">
        <ele>2548.679</ele>
        <time>2026-08-12T11:29:07Z</time>
      </trkpt>
      <trkpt lat="46.366588" lon="11.791218">
        <ele>2549.883</ele>
        <time>2026-08-12T11:30:50Z</time>
      </trkpt>
      <trkpt lat="46.366561" lon="11.791410">
        <ele>2548.595</ele>
        <time>2026-08-12T11:31:01Z</time>
      </trkpt>
      <trkpt lat="46.366431" lon="11.791539">
        <ele>2548.149</ele>
        <time>2026-08-12T11:31:16Z</time>
      </trkpt>
      <trkpt lat="46.366633" lon="11.791852">
        <ele>2541.623</ele>
        <time>2026-08-12T11:31:41Z</time>
      </trkpt>
      <trkpt lat="46.366464" lon="11.792073">
        <ele>2537.109</ele>
        <time>2026-08-12T11:32:01Z</time>
      </trkpt>
      <trkpt lat="46.366327" lon="11.791975">
        <ele>2536.481</ele>
        <time>2026-08-12T11:32:58Z</time>
      </trkpt>
      <trkpt lat="46.366332" lon="11.792058">
        <ele>2536.036</ele>
        <time>2026-08-12T11:33:38Z</time>
      </trkpt>
      <trkpt lat="46.366444" lon="11.792103">
        <ele>2535.928</ele>
        <time>2026-08-12T11:34:20Z</time>
      </trkpt>
      <trkpt lat="46.366572" lon="11.791975">
        <ele>2536.472</ele>
        <time>2026-08-12T11:34:41Z</time>
      </trkpt>
      <trkpt lat="46.366714" lon="11.792052">
        <ele>2537.736</ele>
        <time>2026-08-12T11:35:03Z</time>
      </trkpt>
      <trkpt lat="46.366855" lon="11.791981">
        <ele>2538.162</ele>
        <time>2026-08-12T11:35:24Z</time>
      </trkpt>
      <trkpt lat="46.366916" lon="11.792016">
        <ele>2538.791</ele>
        <time>2026-08-12T11:35:37Z</time>
      </trkpt>
      <trkpt lat="46.366986" lon="11.791802">
        <ele>2540.133</ele>
        <time>2026-08-12T11:35:58Z</time>
      </trkpt>
      <trkpt lat="46.367030" lon="11.791812">
        <ele>2540.257</ele>
        <time>2026-08-12T11:36:04Z</time>
      </trkpt>
      <trkpt lat="46.367260" lon="11.792531">
        <ele>2535.211</ele>
        <time>2026-08-12T11:37:37Z</time>
      </trkpt>
      <trkpt lat="46.367280" lon="11.792924">
        <ele>2529.521</ele>
        <time>2026-08-12T11:38:46Z</time>
      </trkpt>
      <trkpt lat="46.367482" lon="11.793258">
        <ele>2521.403</ele>
        <time>2026-08-12T11:40:21Z</time>
      </trkpt>
      <trkpt lat="46.367310" lon="11.793349">
        <ele>2515.209</ele>
        <time>2026-08-12T11:41:04Z</time>
      </trkpt>
      <trkpt lat="46.367284" lon="11.793597">
        <ele>2514.083</ele>
        <time>2026-08-12T11:41:43Z</time>
      </trkpt>
      <trkpt lat="46.367325" lon="11.793745">
        <ele>2509.458</ele>
        <time>2026-08-12T11:41:53Z</time>
      </trkpt>
      <trkpt lat="46.367605" lon="11.794000">
        <ele>2510.080</ele>
        <time>2026-08-12T11:42:34Z</time>
      </trkpt>
      <trkpt lat="46.367603" lon="11.794348">
        <ele>2508.254</ele>
        <time>2026-08-12T11:43:19Z</time>
      </trkpt>
      <trkpt lat="46.367547" lon="11.794442">
        <ele>2508.038</ele>
        <time>2026-08-12T11:43:35Z</time>
      </trkpt>
      <trkpt lat="46.367520" lon="11.794796">
        <ele>2505.844</ele>
        <time>2026-08-12T11:44:27Z</time>
      </trkpt>
      <trkpt lat="46.367466" lon="11.794844">
        <ele>2504.833</ele>
        <time>2026-08-12T11:44:35Z</time>
      </trkpt>
      <trkpt lat="46.367469" lon="11.795385">
        <ele>2495.425</ele>
        <time>2026-08-12T11:45:41Z</time>
      </trkpt>
      <trkpt lat="46.367544" lon="11.795676">
        <ele>2493.259</ele>
        <time>2026-08-12T11:46:37Z</time>
      </trkpt>
      <trkpt lat="46.367506" lon="11.795767">
        <ele>2491.459</ele>
        <time>2026-08-12T11:46:51Z</time>
      </trkpt>
      <trkpt lat="46.367445" lon="11.795790">
        <ele>2490.003</ele>
        <time>2026-08-12T11:47:07Z</time>
      </trkpt>
      <trkpt lat="46.367320" lon="11.795700">
        <ele>2488.623</ele>
        <time>2026-08-12T11:47:39Z</time>
      </trkpt>
      <trkpt lat="46.367069" lon="11.795311">
        <ele>2481.909</ele>
        <time>2026-08-12T11:48:20Z</time>
      </trkpt>
      <trkpt lat="46.367018" lon="11.795383">
        <ele>2482.957</ele>
        <time>2026-08-12T11:50:27Z</time>
      </trkpt>
      <trkpt lat="46.367074" lon="11.795243">
        <ele>2482.522</ele>
        <time>2026-08-12T11:50:55Z</time>
      </trkpt>
      <trkpt lat="46.366816" lon="11.794731">
        <ele>2479.734</ele>
        <time>2026-08-12T11:51:36Z</time>
      </trkpt>
      <trkpt lat="46.366693" lon="11.794651">
        <ele>2479.348</ele>
        <time>2026-08-12T11:51:57Z</time>
      </trkpt>
      <trkpt lat="46.366624" lon="11.794450">
        <ele>2479.182</ele>
        <time>2026-08-12T11:52:23Z</time>
      </trkpt>
      <trkpt lat="46.366313" lon="11.794107">
        <ele>2474.438</ele>
        <time>2026-08-12T11:53:28Z</time>
      </trkpt>
      <trkpt lat="46.366065" lon="11.793978">
        <ele>2470.727</ele>
        <time>2026-08-12T11:54:09Z</time>
      </trkpt>
      <trkpt lat="46.365733" lon="11.794090">
        <ele>2464.049</ele>
        <time>2026-08-12T11:54:55Z</time>
      </trkpt>
      <trkpt lat="46.365718" lon="11.794147">
        <ele>2463.263</ele>
        <time>2026-08-12T11:55:01Z</time>
      </trkpt>
      <trkpt lat="46.365880" lon="11.794046">
        <ele>2458.414</ele>
        <time>2026-08-12T11:55:16Z</time>
      </trkpt>
      <trkpt lat="46.365715" lon="11.794112">
        <ele>2456.854</ele>
        <time>2026-08-12T11:56:53Z</time>
      </trkpt>
      <trkpt lat="46.365644" lon="11.794219">
        <ele>2456.809</ele>
        <time>2026-08-12T11:57:15Z</time>
      </trkpt>
      <trkpt lat="46.365818" lon="11.794844">
        <ele>2446.509</ele>
        <time>2026-08-12T11:58:12Z</time>
      </trkpt>
      <trkpt lat="46.365693" lon="11.795256">
        <ele>2443.813</ele>
        <time>2026-08-12T11:58:49Z</time>
      </trkpt>
      <trkpt lat="46.365725" lon="11.795456">
        <ele>2442.898</ele>
        <time>2026-08-12T11:59:06Z</time>
      </trkpt>
      <trkpt lat="46.365658" lon="11.795208">
        <ele>2440.510</ele>
        <time>2026-08-12T11:59:32Z</time>
      </trkpt>
      <trkpt lat="46.365487" lon="11.795140">
        <ele>2439.524</ele>
        <time>2026-08-12T11:59:51Z</time>
      </trkpt>
      <trkpt lat="46.365305" lon="11.795182">
        <ele>2438.148</ele>
        <time>2026-08-12T12:00:09Z</time>
      </trkpt>
      <trkpt lat="46.365195" lon="11.795447">
        <ele>2437.444</ele>
        <time>2026-08-12T12:00:34Z</time>
      </trkpt>
      <trkpt lat="46.365036" lon="11.795619">
        <ele>2437.453</ele>
        <time>2026-08-12T12:01:13Z</time>
      </trkpt>
      <trkpt lat="46.365037" lon="11.795869">
        <ele>2434.135</ele>
        <time>2026-08-12T12:01:37Z</time>
      </trkpt>
      <trkpt lat="46.364893" lon="11.796417">
        <ele>2424.749</ele>
        <time>2026-08-12T12:02:30Z</time>
      </trkpt>
      <trkpt lat="46.364882" lon="11.796685">
        <ele>2422.137</ele>
        <time>2026-08-12T12:02:54Z</time>
      </trkpt>
      <trkpt lat="46.364830" lon="11.796812">
        <ele>2421.249</ele>
        <time>2026-08-12T12:03:06Z</time>
      </trkpt>
      <trkpt lat="46.364765" lon="11.796794">
        <ele>2420.713</ele>
        <time>2026-08-12T12:03:14Z</time>
      </trkpt>
      <trkpt lat="46.364837" lon="11.796832">
        <ele>2420.709</ele>
        <time>2026-08-12T12:03:16Z</time>
      </trkpt>
      <trkpt lat="46.364640" lon="11.796963">
        <ele>2419.545</ele>
        <time>2026-08-12T12:03:56Z</time>
      </trkpt>
      <trkpt lat="46.364512" lon="11.797226">
        <ele>2414.440</ele>
        <time>2026-08-12T12:04:49Z</time>
      </trkpt>
      <trkpt lat="46.364444" lon="11.797315">
        <ele>2412.942</ele>
        <time>2026-08-12T12:05:04Z</time>
      </trkpt>
      <trkpt lat="46.364397" lon="11.797298">
        <ele>2411.926</ele>
        <time>2026-08-12T12:05:35Z</time>
      </trkpt>
      <trkpt lat="46.364304" lon="11.797589">
        <ele>2405.780</ele>
        <time>2026-08-12T12:06:52Z</time>
      </trkpt>
      <trkpt lat="46.364140" lon="11.797553">
        <ele>2402.136</ele>
        <time>2026-08-12T12:07:16Z</time>
      </trkpt>
      <trkpt lat="46.363930" lon="11.797934">
        <ele>2395.275</ele>
        <time>2026-08-12T12:08:09Z</time>
      </trkpt>
      <trkpt lat="46.363642" lon="11.798114">
        <ele>2390.757</ele>
        <time>2026-08-12T12:09:24Z</time>
      </trkpt>
      <trkpt lat="46.363289" lon="11.798504">
        <ele>2381.261</ele>
        <time>2026-08-12T12:10:57Z</time>
      </trkpt>
      <trkpt lat="46.363178" lon="11.798506">
        <ele>2379.174</ele>
        <time>2026-08-12T12:11:12Z</time>
      </trkpt>
      <trkpt lat="46.363127" lon="11.798571">
        <ele>2375.456</ele>
        <time>2026-08-12T12:11:38Z</time>
      </trkpt>
      <trkpt lat="46.363129" lon="11.798820">
        <ele>2371.421</ele>
        <time>2026-08-12T12:12:19Z</time>
      </trkpt>
      <trkpt lat="46.363266" lon="11.799393">
        <ele>2365.909</ele>
        <time>2026-08-12T12:13:29Z</time>
      </trkpt>
      <trkpt lat="46.363171" lon="11.799743">
        <ele>2361.789</ele>
        <time>2026-08-12T12:14:20Z</time>
      </trkpt>
      <trkpt lat="46.363252" lon="11.799954">
        <ele>2357.444</ele>
        <time>2026-08-12T12:16:09Z</time>
      </trkpt>
      <trkpt lat="46.363227" lon="11.800159">
        <ele>2355.866</ele>
        <time>2026-08-12T12:16:18Z</time>
      </trkpt>
      <trkpt lat="46.363202" lon="11.800188">
        <ele>2355.680</ele>
        <time>2026-08-12T12:16:22Z</time>
      </trkpt>
      <trkpt lat="46.362747" lon="11.799799">
        <ele>2353.064</ele>
        <time>2026-08-12T12:17:11Z</time>
      </trkpt>
      <trkpt lat="46.362415" lon="11.800015">
        <ele>2346.310</ele>
        <time>2026-08-12T12:18:26Z</time>
      </trkpt>
      <trkpt lat="46.362340" lon="11.800018">
        <ele>2345.729</ele>
        <time>2026-08-12T12:18:34Z</time>
      </trkpt>
      <trkpt lat="46.362279" lon="11.799945">
        <ele>2344.821</ele>
        <time>2026-08-12T12:18:41Z</time>
      </trkpt>
      <trkpt lat="46.362229" lon="11.799971">
        <ele>2344.675</ele>
        <time>2026-08-12T12:18:47Z</time>
      </trkpt>
      <trkpt lat="46.361843" lon="11.800756">
        <ele>2337.689</ele>
        <time>2026-08-12T12:19:56Z</time>
      </trkpt>
      <trkpt lat="46.361628" lon="11.801628">
        <ele>2330.406</ele>
        <time>2026-08-12T12:21:33Z</time>
      </trkpt>
      <trkpt lat="46.361449" lon="11.801820">
        <ele>2324.026</ele>
        <time>2026-08-12T12:22:18Z</time>
      </trkpt>
      <trkpt lat="46.361332" lon="11.801863">
        <ele>2320.309</ele>
        <time>2026-08-12T12:22:37Z</time>
      </trkpt>
      <trkpt lat="46.361291" lon="11.802010">
        <ele>2318.810</ele>
        <time>2026-08-12T12:22:51Z</time>
      </trkpt>
      <trkpt lat="46.361119" lon="11.802125">
        <ele>2316.175</ele>
        <time>2026-08-12T12:23:11Z</time>
      </trkpt>
      <trkpt lat="46.361084" lon="11.802225">
        <ele>2315.247</ele>
        <time>2026-08-12T12:23:27Z</time>
      </trkpt>
      <trkpt lat="46.360666" lon="11.801866">
        <ele>2307.491</ele>
        <time>2026-08-12T12:24:56Z</time>
      </trkpt>
      <trkpt lat="46.360643" lon="11.801697">
        <ele>2305.135</ele>
        <time>2026-08-12T12:25:13Z</time>
      </trkpt>
      <trkpt lat="46.360567" lon="11.801716">
        <ele>2304.111</ele>
        <time>2026-08-12T12:25:38Z</time>
      </trkpt>
      <trkpt lat="46.360480" lon="11.801427">
        <ele>2302.650</ele>
        <time>2026-08-12T12:26:07Z</time>
      </trkpt>
      <trkpt lat="46.360208" lon="11.801168">
        <ele>2300.062</ele>
        <time>2026-08-12T12:26:43Z</time>
      </trkpt>
      <trkpt lat="46.360115" lon="11.800945">
        <ele>2298.896</ele>
        <time>2026-08-12T12:27:07Z</time>
      </trkpt>
      <trkpt lat="46.360006" lon="11.800952">
        <ele>2298.237</ele>
        <time>2026-08-12T12:27:21Z</time>
      </trkpt>
      <trkpt lat="46.359828" lon="11.800835">
        <ele>2297.849</ele>
        <time>2026-08-12T12:27:44Z</time>
      </trkpt>
      <trkpt lat="46.359726" lon="11.800917">
        <ele>2297.513</ele>
        <time>2026-08-12T12:28:26Z</time>
      </trkpt>
      <trkpt lat="46.359568" lon="11.800927">
        <ele>2293.309</ele>
        <time>2026-08-12T12:29:05Z</time>
      </trkpt>
      <trkpt lat="46.359268" lon="11.800661">
        <ele>2284.755</ele>
        <time>2026-08-12T12:29:58Z</time>
      </trkpt>
      <trkpt lat="46.358993" lon="11.800698">
        <ele>2282.920</ele>
        <time>2026-08-12T12:30:27Z</time>
      </trkpt>
      <trkpt lat="46.358431" lon="11.800561">
        <ele>2275.962</ele>
        <time>2026-08-12T12:31:25Z</time>
      </trkpt>
      <trkpt lat="46.358097" lon="11.800785">
        <ele>2275.476</ele>
        <time>2026-08-12T12:31:52Z</time>
      </trkpt>
      <trkpt lat="46.357979" lon="11.801374">
        <ele>2273.510</ele>
        <time>2026-08-12T12:32:54Z</time>
      </trkpt>
      <trkpt lat="46.357914" lon="11.801346">
        <ele>2272.796</ele>
        <time>2026-08-12T12:33:04Z</time>
      </trkpt>
      <trkpt lat="46.357846" lon="11.801476">
        <ele>2271.685</ele>
        <time>2026-08-12T12:33:38Z</time>
      </trkpt>
      <trkpt lat="46.357653" lon="11.801546">
        <ele>2270.077</ele>
        <time>2026-08-12T12:34:01Z</time>
      </trkpt>
      <trkpt lat="46.357539" lon="11.801492">
        <ele>2268.541</ele>
        <time>2026-08-12T12:34:12Z</time>
      </trkpt>
      <trkpt lat="46.357500" lon="11.801401">
        <ele>2267.533</ele>
        <time>2026-08-12T12:34:28Z</time>
      </trkpt>
      <trkpt lat="46.357439" lon="11.801414">
        <ele>2267.023</ele>
        <time>2026-08-12T12:34:35Z</time>
      </trkpt>
      <trkpt lat="46.357307" lon="11.801544">
        <ele>2265.015</ele>
        <time>2026-08-12T12:34:53Z</time>
      </trkpt>
      <trkpt lat="46.356902" lon="11.801761">
        <ele>2263.009</ele>
        <time>2026-08-12T12:35:41Z</time>
      </trkpt>
      <trkpt lat="46.356458" lon="11.801780">
        <ele>2259.615</ele>
        <time>2026-08-12T12:36:32Z</time>
      </trkpt>
      <trkpt lat="46.356069" lon="11.802005">
        <ele>2255.890</ele>
        <time>2026-08-12T12:37:20Z</time>
      </trkpt>
      <trkpt lat="46.356003" lon="11.801965">
        <ele>2255.552</ele>
        <time>2026-08-12T12:37:27Z</time>
      </trkpt>
      <trkpt lat="46.355757" lon="11.802138">
        <ele>2253.986</ele>
        <time>2026-08-12T12:37:58Z</time>
      </trkpt>
      <trkpt lat="46.355691" lon="11.802244">
        <ele>2252.650</ele>
        <time>2026-08-12T12:38:10Z</time>
      </trkpt>
      <trkpt lat="46.355727" lon="11.802316">
        <ele>2252.626</ele>
        <time>2026-08-12T12:38:20Z</time>
      </trkpt>
      <trkpt lat="46.356072" lon="11.802598">
        <ele>2253.265</ele>
        <time>2026-08-12T12:39:15Z</time>
      </trkpt>
      <trkpt lat="46.356121" lon="11.803069">
        <ele>2247.647</ele>
        <time>2026-08-12T12:39:56Z</time>
      </trkpt>
      <trkpt lat="46.356022" lon="11.803317">
        <ele>2245.031</ele>
        <time>2026-08-12T12:40:18Z</time>
      </trkpt>
      <trkpt lat="46.355773" lon="11.803639">
        <ele>2241.516</ele>
        <time>2026-08-12T12:41:07Z</time>
      </trkpt>
      <trkpt lat="46.355664" lon="11.804023">
        <ele>2240.276</ele>
        <time>2026-08-12T12:42:19Z</time>
      </trkpt>
      <trkpt lat="46.355493" lon="11.804190">
        <ele>2237.013</ele>
        <time>2026-08-12T12:43:16Z</time>
      </trkpt>
      <trkpt lat="46.355385" lon="11.804930">
        <ele>2230.009</ele>
        <time>2026-08-12T12:44:19Z</time>
      </trkpt>
      <trkpt lat="46.355123" lon="11.805487">
        <ele>2226.643</ele>
        <time>2026-08-12T12:45:09Z</time>
      </trkpt>
      <trkpt lat="46.355187" lon="11.805922">
        <ele>2222.668</ele>
        <time>2026-08-12T12:45:37Z</time>
      </trkpt>
      <trkpt lat="46.355110" lon="11.806149">
        <ele>2221.690</ele>
        <time>2026-08-12T12:46:29Z</time>
      </trkpt>
      <trkpt lat="46.354852" lon="11.806524">
        <ele>2222.784</ele>
        <time>2026-08-12T12:47:16Z</time>
      </trkpt>
      <trkpt lat="46.354858" lon="11.806588">
        <ele>2222.848</ele>
        <time>2026-08-12T12:47:22Z</time>
      </trkpt>
      <trkpt lat="46.354819" lon="11.806577">
        <ele>2222.834</ele>
        <time>2026-08-12T12:47:23Z</time>
      </trkpt>
      <trkpt lat="46.354633" lon="11.807247">
        <ele>2225.473</ele>
        <time>2026-08-12T12:48:20Z</time>
      </trkpt>
      <trkpt lat="46.354529" lon="11.807289">
        <ele>2226.375</ele>
        <time>2026-08-12T12:48:37Z</time>
      </trkpt>
      <trkpt lat="46.354406" lon="11.807857">
        <ele>2231.629</ele>
        <time>2026-08-12T12:49:34Z</time>
      </trkpt>
      <trkpt lat="46.354298" lon="11.808009">
        <ele>2232.236</ele>
        <time>2026-08-12T12:49:52Z</time>
      </trkpt>
      <trkpt lat="46.354050" lon="11.808053">
        <ele>2234.117</ele>
        <time>2026-08-12T12:50:26Z</time>
      </trkpt>
      <trkpt lat="46.353769" lon="11.808402">
        <ele>2237.618</ele>
        <time>2026-08-12T12:51:17Z</time>
      </trkpt>
      <trkpt lat="46.353524" lon="11.808484">
        <ele>2242.209</ele>
        <time>2026-08-12T12:51:45Z</time>
      </trkpt>
      <trkpt lat="46.353380" lon="11.808660">
        <ele>2244.985</ele>
        <time>2026-08-12T12:52:52Z</time>
      </trkpt>
      <trkpt lat="46.353126" lon="11.808745">
        <ele>2247.350</ele>
        <time>2026-08-12T12:53:26Z</time>
      </trkpt>
      <trkpt lat="46.352880" lon="11.808736">
        <ele>2252.032</ele>
        <time>2026-08-12T12:53:54Z</time>
      </trkpt>
      <trkpt lat="46.352725" lon="11.808872">
        <ele>2252.546</ele>
        <time>2026-08-12T12:54:14Z</time>
      </trkpt>
      <trkpt lat="46.352778" lon="11.809133">
        <ele>2253.350</ele>
        <time>2026-08-12T12:54:36Z</time>
      </trkpt>
      <trkpt lat="46.353234" lon="11.809639">
        <ele>2256.316</ele>
        <time>2026-08-12T12:55:46Z</time>
      </trkpt>
      <trkpt lat="46.353471" lon="11.810375">
        <ele>2257.055</ele>
        <time>2026-08-12T12:57:08Z</time>
      </trkpt>
      <trkpt lat="46.353349" lon="11.810687">
        <ele>2256.427</ele>
        <time>2026-08-12T12:57:45Z</time>
      </trkpt>
      <trkpt lat="46.353435" lon="11.810798">
        <ele>2257.171</ele>
        <time>2026-08-12T12:58:23Z</time>
      </trkpt>
      <trkpt lat="46.353518" lon="11.810800">
        <ele>2258.361</ele>
        <time>2026-08-12T12:58:41Z</time>
      </trkpt>
      <trkpt lat="46.353705" lon="11.811117">
        <ele>2258.621</ele>
        <time>2026-08-12T12:59:18Z</time>
      </trkpt>
      <trkpt lat="46.353581" lon="11.811073">
        <ele>2257.613</ele>
        <time>2026-08-12T12:59:34Z</time>
      </trkpt>
      <trkpt lat="46.353439" lon="11.811300">
        <ele>2255.609</ele>
        <time>2026-08-12T13:00:12Z</time>
      </trkpt>
      <trkpt lat="46.353513" lon="11.811510">
        <ele>2257.818</ele>
        <time>2026-08-12T13:00:26Z</time>
      </trkpt>
      <trkpt lat="46.353485" lon="11.811793">
        <ele>2257.833</ele>
        <time>2026-08-12T13:01:08Z</time>
      </trkpt>
      <trkpt lat="46.353569" lon="11.811838">
        <ele>2257.575</ele>
        <time>2026-08-12T13:01:18Z</time>
      </trkpt>
      <trkpt lat="46.353622" lon="11.811752">
        <ele>2256.859</ele>
        <time>2026-08-12T13:01:28Z</time>
      </trkpt>
      <trkpt lat="46.353619" lon="11.811858">
        <ele>2256.493</ele>
        <time>2026-08-12T13:01:43Z</time>
      </trkpt>
      <trkpt lat="46.353573" lon="11.811797">
        <ele>2256.159</ele>
        <time>2026-08-12T13:02:06Z</time>
      </trkpt>
      <trkpt lat="46.353541" lon="11.811937">
        <ele>2255.698</ele>
        <time>2026-08-12T13:02:27Z</time>
      </trkpt>
      <trkpt lat="46.353611" lon="11.811793">
        <ele>2256.070</ele>
        <time>2026-08-12T13:02:36Z</time>
      </trkpt>
      <trkpt lat="46.353587" lon="11.811662">
        <ele>2257.784</ele>
        <time>2026-08-12T13:02:56Z</time>
      </trkpt>
      <trkpt lat="46.353649" lon="11.811574">
        <ele>2260.017</ele>
        <time>2026-08-12T13:03:07Z</time>
      </trkpt>
      <trkpt lat="46.353682" lon="11.811622">
        <ele>2260.987</ele>
        <time>2026-08-12T13:03:23Z</time>
      </trkpt>
      <trkpt lat="46.353621" lon="11.811561">
        <ele>2260.915</ele>
        <time>2026-08-12T13:03:50Z</time>
      </trkpt>
      <trkpt lat="46.353663" lon="11.811481">
        <ele>2260.909</ele>
        <time>2026-08-12T13:04:07Z</time>
      </trkpt>
      <trkpt lat="46.353516" lon="11.811412">
        <ele>2260.913</ele>
        <time>2026-08-12T13:04:11Z</time>
      </trkpt>
      <trkpt lat="46.353484" lon="11.811449">
        <ele>2258.338</ele>
        <time>2026-08-12T13:04:14Z</time>
      </trkpt>
      <trkpt lat="46.353568" lon="11.811490">
        <ele>2248.730</ele>
        <time>2026-08-12T13:05:04Z</time>
      </trkpt>
      <trkpt lat="46.353610" lon="11.811409">
        <ele>2261.294</ele>
        <time>2026-08-12T13:05:08Z</time>
      </trkpt>
      <trkpt lat="46.353620" lon="11.811497">
        <ele>2265.038</ele>
        <time>2026-08-12T13:05:14Z</time>
      </trkpt>
      <trkpt lat="46.353626" lon="11.811429">
        <ele>2273.064</ele>
        <time>2026-08-12T13:05:20Z</time>
      </trkpt>
      <trkpt lat="46.353629" lon="11.811758">
        <ele>2263.033</ele>
        <time>2026-08-12T13:08:58Z</time>
      </trkpt>
      <trkpt lat="46.353568" lon="11.811915">
        <ele>2256.035</ele>
        <time>2026-08-12T13:13:20Z</time>
      </trkpt>
      <trkpt lat="46.353638" lon="11.811789">
        <ele>2257.499</ele>
        <time>2026-08-12T13:14:12Z</time>
      </trkpt>
      <trkpt lat="46.353617" lon="11.811649">
        <ele>2257.437</ele>
        <time>2026-08-12T13:14:21Z</time>
      </trkpt>
      <trkpt lat="46.353661" lon="11.811632">
        <ele>2257.449</ele>
        <time>2026-08-12T13:14:28Z</time>
      </trkpt>
      <trkpt lat="46.353584" lon="11.811924">
        <ele>2256.613</ele>
        <time>2026-08-12T13:14:48Z</time>
      </trkpt>
      <trkpt lat="46.353542" lon="11.811851">
        <ele>2256.409</ele>
        <time>2026-08-12T13:15:11Z</time>
      </trkpt>
      <trkpt lat="46.353548" lon="11.811913">
        <ele>2256.455</ele>
        <time>2026-08-12T13:15:42Z</time>
      </trkpt>
      <trkpt lat="46.353624" lon="11.811779">
        <ele>2256.570</ele>
        <time>2026-08-12T13:15:52Z</time>
      </trkpt>
      <trkpt lat="46.353625" lon="11.811501">
        <ele>2258.512</ele>
        <time>2026-08-12T13:16:42Z</time>
      </trkpt>
      <trkpt lat="46.353633" lon="11.811754">
        <ele>2258.526</ele>
        <time>2026-08-12T13:17:14Z</time>
      </trkpt>
      <trkpt lat="46.353640" lon="11.811635">
        <ele>2258.510</ele>
        <time>2026-08-12T13:17:18Z</time>
      </trkpt>
      <trkpt lat="46.353557" lon="11.811919">
        <ele>2258.346</ele>
        <time>2026-08-12T13:17:31Z</time>
      </trkpt>
      <trkpt lat="46.353623" lon="11.811884">
        <ele>2258.115</ele>
        <time>2026-08-12T13:17:35Z</time>
      </trkpt>
      <trkpt lat="46.353608" lon="11.811954">
        <ele>2258.047</ele>
        <time>2026-08-12T13:17:43Z</time>
      </trkpt>
      <trkpt lat="46.353481" lon="11.811715">
        <ele>2257.931</ele>
        <time>2026-08-12T13:45:56Z</time>
      </trkpt>
      <trkpt lat="46.353508" lon="11.811237">
        <ele>2258.478</ele>
        <time>2026-08-12T13:46:34Z</time>
      </trkpt>
      <trkpt lat="46.353635" lon="11.811071">
        <ele>2259.533</ele>
        <time>2026-08-12T13:46:53Z</time>
      </trkpt>
      <trkpt lat="46.353476" lon="11.810642">
        <ele>2256.426</ele>
        <time>2026-08-12T13:47:39Z</time>
      </trkpt>
      <trkpt lat="46.353405" lon="11.810011">
        <ele>2259.509</ele>
        <time>2026-08-12T13:48:23Z</time>
      </trkpt>
      <trkpt lat="46.353512" lon="11.809864">
        <ele>2259.889</ele>
        <time>2026-08-12T13:48:40Z</time>
      </trkpt>
      <trkpt lat="46.353319" lon="11.809796">
        <ele>2259.774</ele>
        <time>2026-08-12T13:49:15Z</time>
      </trkpt>
      <trkpt lat="46.353148" lon="11.809478">
        <ele>2259.246</ele>
        <time>2026-08-12T13:49:41Z</time>
      </trkpt>
      <trkpt lat="46.352847" lon="11.809169">
        <ele>2255.870</ele>
        <time>2026-08-12T13:50:16Z</time>
      </trkpt>
      <trkpt lat="46.352764" lon="11.808890">
        <ele>2253.454</ele>
        <time>2026-08-12T13:50:36Z</time>
      </trkpt>
      <trkpt lat="46.353758" lon="11.808454">
        <ele>2243.350</ele>
        <time>2026-08-12T13:54:11Z</time>
      </trkpt>
      <trkpt lat="46.353984" lon="11.808134">
        <ele>2240.929</ele>
        <time>2026-08-12T13:54:33Z</time>
      </trkpt>
      <trkpt lat="46.354389" lon="11.807963">
        <ele>2239.361</ele>
        <time>2026-08-12T13:55:24Z</time>
      </trkpt>
      <trkpt lat="46.354452" lon="11.807876">
        <ele>2235.755</ele>
        <time>2026-08-12T13:55:43Z</time>
      </trkpt>
      <trkpt lat="46.354543" lon="11.807372">
        <ele>2232.997</ele>
        <time>2026-08-12T13:56:17Z</time>
      </trkpt>
      <trkpt lat="46.354610" lon="11.807318">
        <ele>2232.023</ele>
        <time>2026-08-12T13:56:24Z</time>
      </trkpt>
      <trkpt lat="46.354841" lon="11.806620">
        <ele>2225.225</ele>
        <time>2026-08-12T13:57:09Z</time>
      </trkpt>
      <trkpt lat="46.355014" lon="11.806362">
        <ele>2223.709</ele>
        <time>2026-08-12T13:57:29Z</time>
      </trkpt>
      <trkpt lat="46.355213" lon="11.806232">
        <ele>2222.581</ele>
        <time>2026-08-12T13:57:53Z</time>
      </trkpt>
      <trkpt lat="46.355199" lon="11.806180">
        <ele>2222.536</ele>
        <time>2026-08-12T13:57:56Z</time>
      </trkpt>
      <trkpt lat="46.355148" lon="11.806396">
        <ele>2223.248</ele>
        <time>2026-08-12T13:59:13Z</time>
      </trkpt>
      <trkpt lat="46.355294" lon="11.806561">
        <ele>2222.962</ele>
        <time>2026-08-12T13:59:30Z</time>
      </trkpt>
      <trkpt lat="46.355339" lon="11.807119">
        <ele>2219.216</ele>
        <time>2026-08-12T14:00:05Z</time>
      </trkpt>
      <trkpt lat="46.355230" lon="11.807518">
        <ele>2217.452</ele>
        <time>2026-08-12T14:00:47Z</time>
      </trkpt>
      <trkpt lat="46.355199" lon="11.808547">
        <ele>2210.571</ele>
        <time>2026-08-12T14:01:52Z</time>
      </trkpt>
      <trkpt lat="46.355139" lon="11.808788">
        <ele>2209.153</ele>
        <time>2026-08-12T14:02:13Z</time>
      </trkpt>
      <trkpt lat="46.355115" lon="11.808735">
        <ele>2208.817</ele>
        <time>2026-08-12T14:02:26Z</time>
      </trkpt>
      <trkpt lat="46.354926" lon="11.809057">
        <ele>2206.615</ele>
        <time>2026-08-12T14:03:04Z</time>
      </trkpt>
      <trkpt lat="46.354904" lon="11.809020">
        <ele>2206.565</ele>
        <time>2026-08-12T14:03:07Z</time>
      </trkpt>
      <trkpt lat="46.354932" lon="11.809174">
        <ele>2205.811</ele>
        <time>2026-08-12T14:03:42Z</time>
      </trkpt>
      <trkpt lat="46.354845" lon="11.809452">
        <ele>2204.009</ele>
        <time>2026-08-12T14:04:04Z</time>
      </trkpt>
      <trkpt lat="46.354889" lon="11.809607">
        <ele>2203.593</ele>
        <time>2026-08-12T14:04:13Z</time>
      </trkpt>
      <trkpt lat="46.355044" lon="11.809858">
        <ele>2202.198</ele>
        <time>2026-08-12T14:04:30Z</time>
      </trkpt>
      <trkpt lat="46.355209" lon="11.810309">
        <ele>2196.940</ele>
        <time>2026-08-12T14:05:00Z</time>
      </trkpt>
      <trkpt lat="46.355437" lon="11.811128">
        <ele>2190.314</ele>
        <time>2026-08-12T14:06:07Z</time>
      </trkpt>
      <trkpt lat="46.355673" lon="11.811297">
        <ele>2184.548</ele>
        <time>2026-08-12T14:06:28Z</time>
      </trkpt>
      <trkpt lat="46.355953" lon="11.811762">
        <ele>2175.614</ele>
        <time>2026-08-12T14:07:42Z</time>
      </trkpt>
      <trkpt lat="46.355831" lon="11.811610">
        <ele>2175.063</ele>
        <time>2026-08-12T14:08:19Z</time>
      </trkpt>
      <trkpt lat="46.355871" lon="11.811605">
        <ele>2174.995</ele>
        <time>2026-08-12T14:08:39Z</time>
      </trkpt>
      <trkpt lat="46.356104" lon="11.812134">
        <ele>2173.649</ele>
        <time>2026-08-12T14:09:50Z</time>
      </trkpt>
      <trkpt lat="46.356148" lon="11.812338">
        <ele>2172.776</ele>
        <time>2026-08-12T14:10:04Z</time>
      </trkpt>
      <trkpt lat="46.356096" lon="11.812324">
        <ele>2172.690</ele>
        <time>2026-08-12T14:10:13Z</time>
      </trkpt>
      <trkpt lat="46.356106" lon="11.812697">
        <ele>2169.119</ele>
        <time>2026-08-12T14:10:35Z</time>
      </trkpt>
      <trkpt lat="46.356262" lon="11.812899">
        <ele>2165.209</ele>
        <time>2026-08-12T14:11:41Z</time>
      </trkpt>
      <trkpt lat="46.356225" lon="11.812961">
        <ele>2164.459</ele>
        <time>2026-08-12T14:11:49Z</time>
      </trkpt>
      <trkpt lat="46.356377" lon="11.814034">
        <ele>2146.724</ele>
        <time>2026-08-12T14:13:39Z</time>
      </trkpt>
      <trkpt lat="46.356449" lon="11.814112">
        <ele>2143.366</ele>
        <time>2026-08-12T14:13:57Z</time>
      </trkpt>
      <trkpt lat="46.356479" lon="11.814379">
        <ele>2141.030</ele>
        <time>2026-08-12T14:14:21Z</time>
      </trkpt>
      <trkpt lat="46.356616" lon="11.814503">
        <ele>2135.484</ele>
        <time>2026-08-12T14:14:38Z</time>
      </trkpt>
      <trkpt lat="46.356726" lon="11.814732">
        <ele>2128.960</ele>
        <time>2026-08-12T14:14:53Z</time>
      </trkpt>
      <trkpt lat="46.356819" lon="11.815101">
        <ele>2125.439</ele>
        <time>2026-08-12T14:15:17Z</time>
      </trkpt>
      <trkpt lat="46.356938" lon="11.815199">
        <ele>2125.831</ele>
        <time>2026-08-12T14:16:39Z</time>
      </trkpt>
      <trkpt lat="46.356904" lon="11.815399">
        <ele>2125.495</ele>
        <time>2026-08-12T14:17:23Z</time>
      </trkpt>
      <trkpt lat="46.357008" lon="11.815883">
        <ele>2121.218</ele>
        <time>2026-08-12T14:17:50Z</time>
      </trkpt>
      <trkpt lat="46.357068" lon="11.815856">
        <ele>2121.198</ele>
        <time>2026-08-12T14:18:19Z</time>
      </trkpt>
      <trkpt lat="46.357035" lon="11.815911">
        <ele>2119.617</ele>
        <time>2026-08-12T14:19:20Z</time>
      </trkpt>
      <trkpt lat="46.357095" lon="11.815940">
        <ele>2119.109</ele>
        <time>2026-08-12T14:19:26Z</time>
      </trkpt>
      <trkpt lat="46.357115" lon="11.815884">
        <ele>2119.353</ele>
        <time>2026-08-12T14:19:32Z</time>
      </trkpt>
      <trkpt lat="46.357132" lon="11.815976">
        <ele>2119.498</ele>
        <time>2026-08-12T14:19:52Z</time>
      </trkpt>
      <trkpt lat="46.357181" lon="11.815958">
        <ele>2119.380</ele>
        <time>2026-08-12T14:19:57Z</time>
      </trkpt>
      <trkpt lat="46.357228" lon="11.816031">
        <ele>2119.034</ele>
        <time>2026-08-12T14:20:10Z</time>
      </trkpt>
      <trkpt lat="46.357276" lon="11.815998">
        <ele>2118.858</ele>
        <time>2026-08-12T14:20:30Z</time>
      </trkpt>
      <trkpt lat="46.357269" lon="11.816046">
        <ele>2117.374</ele>
        <time>2026-08-12T14:20:51Z</time>
      </trkpt>
      <trkpt lat="46.357379" lon="11.816083">
        <ele>2115.963</ele>
        <time>2026-08-12T14:21:03Z</time>
      </trkpt>
      <trkpt lat="46.357658" lon="11.816383">
        <ele>2113.075</ele>
        <time>2026-08-12T14:21:54Z</time>
      </trkpt>
      <trkpt lat="46.357696" lon="11.816520">
        <ele>2112.889</ele>
        <time>2026-08-12T14:21:59Z</time>
      </trkpt>
      <trkpt lat="46.358181" lon="11.817191">
        <ele>2108.114</ele>
        <time>2026-08-12T14:23:19Z</time>
      </trkpt>
      <trkpt lat="46.358201" lon="11.817324">
        <ele>2107.654</ele>
        <time>2026-08-12T14:23:29Z</time>
      </trkpt>
      <trkpt lat="46.358416" lon="11.817702">
        <ele>2107.209</ele>
        <time>2026-08-12T14:24:05Z</time>
      </trkpt>
      <trkpt lat="46.358430" lon="11.817654">
        <ele>2107.209</ele>
        <time>2026-08-12T14:24:07Z</time>
      </trkpt>
      <trkpt lat="46.358425" lon="11.817726">
        <ele>2107.113</ele>
        <time>2026-08-12T14:24:13Z</time>
      </trkpt>
      <trkpt lat="46.358626" lon="11.817937">
        <ele>2107.098</ele>
        <time>2026-08-12T14:25:54Z</time>
      </trkpt>
      <trkpt lat="46.358870" lon="11.818594">
        <ele>2105.010</ele>
        <time>2026-08-12T14:26:51Z</time>
      </trkpt>
      <trkpt lat="46.359161" lon="11.818949">
        <ele>2103.814</ele>
        <time>2026-08-12T14:27:23Z</time>
      </trkpt>
      <trkpt lat="46.359365" lon="11.819081">
        <ele>2102.428</ele>
        <time>2026-08-12T14:27:41Z</time>
      </trkpt>
      <trkpt lat="46.359398" lon="11.819049">
        <ele>2101.574</ele>
        <time>2026-08-12T14:27:46Z</time>
      </trkpt>
      <trkpt lat="46.359446" lon="11.819170">
        <ele>2100.943</ele>
        <time>2026-08-12T14:28:07Z</time>
      </trkpt>
      <trkpt lat="46.359581" lon="11.819235">
        <ele>2101.025</ele>
        <time>2026-08-12T14:28:19Z</time>
      </trkpt>
      <trkpt lat="46.359579" lon="11.819147">
        <ele>2101.149</ele>
        <time>2026-08-12T14:28:37Z</time>
      </trkpt>
      <trkpt lat="46.359718" lon="11.818946">
        <ele>2102.167</ele>
        <time>2026-08-12T14:28:58Z</time>
      </trkpt>
      <trkpt lat="46.360007" lon="11.818621">
        <ele>2101.181</ele>
        <time>2026-08-12T14:29:28Z</time>
      </trkpt>
      <trkpt lat="46.360329" lon="11.818503">
        <ele>2101.019</ele>
        <time>2026-08-12T14:29:58Z</time>
      </trkpt>
      <trkpt lat="46.360652" lon="11.818523">
        <ele>2100.609</ele>
        <time>2026-08-12T14:30:33Z</time>
      </trkpt>
      <trkpt lat="46.360851" lon="11.818631">
        <ele>2100.378</ele>
        <time>2026-08-12T14:30:52Z</time>
      </trkpt>
      <trkpt lat="46.360887" lon="11.818744">
        <ele>2099.863</ele>
        <time>2026-08-12T14:30:59Z</time>
      </trkpt>
      <trkpt lat="46.361200" lon="11.818910">
        <ele>2101.475</ele>
        <time>2026-08-12T14:31:30Z</time>
      </trkpt>
      <trkpt lat="46.362519" lon="11.820074">
        <ele>2100.269</ele>
        <time>2026-08-12T14:33:59Z</time>
      </trkpt>
      <trkpt lat="46.362509" lon="11.819696">
        <ele>2102.063</ele>
        <time>2026-08-12T14:34:44Z</time>
      </trkpt>
      <trkpt lat="46.362663" lon="11.818887">
        <ele>2105.549</ele>
        <time>2026-08-12T14:35:59Z</time>
      </trkpt>
      <trkpt lat="46.362866" lon="11.818798">
        <ele>2107.948</ele>
        <time>2026-08-12T14:36:51Z</time>
      </trkpt>
      <trkpt lat="46.362966" lon="11.818839">
        <ele>2109.180</ele>
        <time>2026-08-12T14:37:06Z</time>
      </trkpt>
      <trkpt lat="46.363125" lon="11.818686">
        <ele>2110.444</ele>
        <time>2026-08-12T14:37:54Z</time>
      </trkpt>
      <trkpt lat="46.363332" lon="11.818257">
        <ele>2109.666</ele>
        <time>2026-08-12T14:38:29Z</time>
      </trkpt>
      <trkpt lat="46.363468" lon="11.818282">
        <ele>2110.329</ele>
        <time>2026-08-12T14:38:59Z</time>
      </trkpt>
      <trkpt lat="46.363516" lon="11.818163">
        <ele>2112.421</ele>
        <time>2026-08-12T14:39:38Z</time>
      </trkpt>
      <trkpt lat="46.363975" lon="11.817834">
        <ele>2114.209</ele>
        <time>2026-08-12T14:40:42Z</time>
      </trkpt>
      <trkpt lat="46.364058" lon="11.817650">
        <ele>2117.078</ele>
        <time>2026-08-12T14:41:04Z</time>
      </trkpt>
      <trkpt lat="46.364138" lon="11.817641">
        <ele>2118.613</ele>
        <time>2026-08-12T14:41:28Z</time>
      </trkpt>
      <trkpt lat="46.364146" lon="11.817685">
        <ele>2119.175</ele>
        <time>2026-08-12T14:41:36Z</time>
      </trkpt>
      <trkpt lat="46.364030" lon="11.817692">
        <ele>2123.549</ele>
        <time>2026-08-12T14:42:46Z</time>
      </trkpt>
      <trkpt lat="46.363861" lon="11.817964">
        <ele>2116.593</ele>
        <time>2026-08-12T14:43:14Z</time>
      </trkpt>
      <trkpt lat="46.363442" lon="11.818257">
        <ele>2111.469</ele>
        <time>2026-08-12T14:43:47Z</time>
      </trkpt>
      <trkpt lat="46.363292" lon="11.818284">
        <ele>2111.668</ele>
        <time>2026-08-12T14:44:00Z</time>
      </trkpt>
      <trkpt lat="46.363254" lon="11.818364">
        <ele>2112.430</ele>
        <time>2026-08-12T14:44:08Z</time>
      </trkpt>
      <trkpt lat="46.363301" lon="11.818360">
        <ele>2112.734</ele>
        <time>2026-08-12T14:44:19Z</time>
      </trkpt>
      <trkpt lat="46.363341" lon="11.818238">
        <ele>2113.121</ele>
        <time>2026-08-12T14:44:28Z</time>
      </trkpt>
      <trkpt lat="46.363467" lon="11.818241">
        <ele>2113.141</ele>
        <time>2026-08-12T14:44:41Z</time>
      </trkpt>
      <trkpt lat="46.363888" lon="11.817958">
        <ele>2113.405</ele>
        <time>2026-08-12T14:45:18Z</time>
      </trkpt>
      <trkpt lat="46.364022" lon="11.817674">
        <ele>2117.409</ele>
        <time>2026-08-12T14:45:36Z</time>
      </trkpt>
      <trkpt lat="46.364131" lon="11.817592">
        <ele>2118.954</ele>
        <time>2026-08-12T14:45:46Z</time>
      </trkpt>
      <trkpt lat="46.363875" lon="11.817262">
        <ele>2128.419</ele>
        <time>2026-08-12T14:47:10Z</time>
      </trkpt>
      <trkpt lat="46.363876" lon="11.817018">
        <ele>2132.481</ele>
        <time>2026-08-12T14:50:50Z</time>
      </trkpt>
      <trkpt lat="46.364036" lon="11.817130">
        <ele>2133.075</ele>
        <time>2026-08-12T14:51:22Z</time>
      </trkpt>
      <trkpt lat="46.364120" lon="11.816998">
        <ele>2136.479</ele>
        <time>2026-08-12T14:51:50Z</time>
      </trkpt>
      <trkpt lat="46.364412" lon="11.816990">
        <ele>2142.235</ele>
        <time>2026-08-12T14:52:38Z</time>
      </trkpt>
      <trkpt lat="46.364488" lon="11.816862">
        <ele>2145.144</ele>
        <time>2026-08-12T14:53:28Z</time>
      </trkpt>
      <trkpt lat="46.364431" lon="11.816838">
        <ele>2147.746</ele>
        <time>2026-08-12T14:59:37Z</time>
      </trkpt>
      <trkpt lat="46.364612" lon="11.816879">
        <ele>2147.740</ele>
        <time>2026-08-12T15:00:21Z</time>
      </trkpt>
      <trkpt lat="46.364826" lon="11.816742">
        <ele>2147.165</ele>
        <time>2026-08-12T15:01:04Z</time>
      </trkpt>
      <trkpt lat="46.365274" lon="11.816274">
        <ele>2149.268</ele>
        <time>2026-08-12T15:03:17Z</time>
      </trkpt>
      <trkpt lat="46.365361" lon="11.816050">
        <ele>2149.814</ele>
        <time>2026-08-12T15:04:00Z</time>
      </trkpt>
      <trkpt lat="46.365542" lon="11.815807">
        <ele>2152.509</ele>
        <time>2026-08-12T15:04:48Z</time>
      </trkpt>
      <trkpt lat="46.365757" lon="11.815659">
        <ele>2155.468</ele>
        <time>2026-08-12T15:05:37Z</time>
      </trkpt>
      <trkpt lat="46.365836" lon="11.815528">
        <ele>2161.023</ele>
        <time>2026-08-12T15:06:00Z</time>
      </trkpt>
      <trkpt lat="46.365930" lon="11.814913">
        <ele>2163.395</ele>
        <time>2026-08-12T15:07:49Z</time>
      </trkpt>
      <trkpt lat="46.365839" lon="11.814675">
        <ele>2165.599</ele>
        <time>2026-08-12T15:08:31Z</time>
      </trkpt>
      <trkpt lat="46.365934" lon="11.814486">
        <ele>2167.273</ele>
        <time>2026-08-12T15:09:06Z</time>
      </trkpt>
      <trkpt lat="46.365875" lon="11.814296">
        <ele>2177.399</ele>
        <time>2026-08-12T15:12:23Z</time>
      </trkpt>
      <trkpt lat="46.365954" lon="11.814132">
        <ele>2180.378</ele>
        <time>2026-08-12T15:13:02Z</time>
      </trkpt>
      <trkpt lat="46.365912" lon="11.814026">
        <ele>2181.460</ele>
        <time>2026-08-12T15:13:26Z</time>
      </trkpt>
      <trkpt lat="46.365882" lon="11.814063">
        <ele>2182.684</ele>
        <time>2026-08-12T15:13:32Z</time>
      </trkpt>
      <trkpt lat="46.366009" lon="11.813985">
        <ele>2184.471</ele>
        <time>2026-08-12T15:14:14Z</time>
      </trkpt>
      <trkpt lat="46.366119" lon="11.813610">
        <ele>2189.641</ele>
        <time>2026-08-12T15:15:33Z</time>
      </trkpt>
      <trkpt lat="46.366450" lon="11.813404">
        <ele>2196.115</ele>
        <time>2026-08-12T15:16:13Z</time>
      </trkpt>
      <trkpt lat="46.366612" lon="11.813176">
        <ele>2198.509</ele>
        <time>2026-08-12T15:16:37Z</time>
      </trkpt>
      <trkpt lat="46.366803" lon="11.813077">
        <ele>2201.099</ele>
        <time>2026-08-12T15:17:00Z</time>
      </trkpt>
      <trkpt lat="46.366810" lon="11.812983">
        <ele>2201.394</ele>
        <time>2026-08-12T15:17:09Z</time>
      </trkpt>
      <trkpt lat="46.367064" lon="11.812811">
        <ele>2199.716</ele>
        <time>2026-08-12T15:17:35Z</time>
      </trkpt>
      <trkpt lat="46.366726" lon="11.813088">
        <ele>2199.030</ele>
        <time>2026-08-12T15:18:41Z</time>
      </trkpt>
      <trkpt lat="46.366952" lon="11.812893">
        <ele>2199.914</ele>
        <time>2026-08-12T15:19:27Z</time>
      </trkpt>
      <trkpt lat="46.367132" lon="11.812855">
        <ele>2199.710</ele>
        <time>2026-08-12T15:19:53Z</time>
      </trkpt>
      <trkpt lat="46.367096" lon="11.812788">
        <ele>2199.629</ele>
        <time>2026-08-12T15:20:04Z</time>
      </trkpt>
      <trkpt lat="46.367230" lon="11.812749">
        <ele>2199.241</ele>
        <time>2026-08-12T15:20:26Z</time>
      </trkpt>
      <trkpt lat="46.367267" lon="11.812673">
        <ele>2198.975</ele>
        <time>2026-08-12T15:20:42Z</time>
      </trkpt>
      <trkpt lat="46.367329" lon="11.812694">
        <ele>2198.626</ele>
        <time>2026-08-12T15:20:53Z</time>
      </trkpt>
      <trkpt lat="46.367391" lon="11.812565">
        <ele>2198.747</ele>
        <time>2026-08-12T15:21:28Z</time>
      </trkpt>
      <trkpt lat="46.367802" lon="11.812389">
        <ele>2194.611</ele>
        <time>2026-08-12T15:22:43Z</time>
      </trkpt>
      <trkpt lat="46.368139" lon="11.812127">
        <ele>2188.109</ele>
        <time>2026-08-12T15:23:53Z</time>
      </trkpt>
      <trkpt lat="46.368319" lon="11.812108">
        <ele>2184.054</ele>
        <time>2026-08-12T15:24:12Z</time>
      </trkpt>
      <trkpt lat="46.368873" lon="11.811639">
        <ele>2178.289</ele>
        <time>2026-08-12T15:25:39Z</time>
      </trkpt>
      <trkpt lat="46.369110" lon="11.811603">
        <ele>2177.571</ele>
        <time>2026-08-12T15:26:08Z</time>
      </trkpt>
      <trkpt lat="46.369377" lon="11.811446">
        <ele>2171.715</ele>
        <time>2026-08-12T15:26:36Z</time>
      </trkpt>
      <trkpt lat="46.369428" lon="11.811553">
        <ele>2169.539</ele>
        <time>2026-08-12T15:26:56Z</time>
      </trkpt>
      <trkpt lat="46.369727" lon="11.811643">
        <ele>2163.915</ele>
        <time>2026-08-12T15:28:12Z</time>
      </trkpt>
      <trkpt lat="46.369878" lon="11.812008">
        <ele>2157.384</ele>
        <time>2026-08-12T15:28:57Z</time>
      </trkpt>
      <trkpt lat="46.369869" lon="11.812141">
        <ele>2152.816</ele>
        <time>2026-08-12T15:29:36Z</time>
      </trkpt>
      <trkpt lat="46.369900" lon="11.812093">
        <ele>2151.810</ele>
        <time>2026-08-12T15:30:47Z</time>
      </trkpt>
      <trkpt lat="46.369886" lon="11.812048">
        <ele>2151.527</ele>
        <time>2026-08-12T15:31:03Z</time>
      </trkpt>
      <trkpt lat="46.369909" lon="11.812918">
        <ele>2143.868</ele>
        <time>2026-08-12T15:34:30Z</time>
      </trkpt>
      <trkpt lat="46.369804" lon="11.813709">
        <ele>2128.514</ele>
        <time>2026-08-12T15:37:28Z</time>
      </trkpt>
      <trkpt lat="46.369887" lon="11.814127">
        <ele>2122.209</ele>
        <time>2026-08-12T15:38:30Z</time>
      </trkpt>
      <trkpt lat="46.369947" lon="11.814177">
        <ele>2119.594</ele>
        <time>2026-08-12T15:38:46Z</time>
      </trkpt>
      <trkpt lat="46.369979" lon="11.814121">
        <ele>2118.989</ele>
        <time>2026-08-12T15:39:15Z</time>
      </trkpt>
      <trkpt lat="46.370031" lon="11.814172">
        <ele>2118.451</ele>
        <time>2026-08-12T15:39:35Z</time>
      </trkpt>
      <trkpt lat="46.370134" lon="11.814151">
        <ele>2113.745</ele>
        <time>2026-08-12T15:40:16Z</time>
      </trkpt>
      <trkpt lat="46.370194" lon="11.814010">
        <ele>2110.519</ele>
        <time>2026-08-12T15:41:02Z</time>
      </trkpt>
      <trkpt lat="46.370392" lon="11.813866">
        <ele>2105.335</ele>
        <time>2026-08-12T15:42:05Z</time>
      </trkpt>
      <trkpt lat="46.370380" lon="11.813802">
        <ele>2103.354</ele>
        <time>2026-08-12T15:42:27Z</time>
      </trkpt>
      <trkpt lat="46.370436" lon="11.813806">
        <ele>2102.226</ele>
        <time>2026-08-12T15:42:34Z</time>
      </trkpt>
      <trkpt lat="46.370684" lon="11.813396">
        <ele>2096.720</ele>
        <time>2026-08-12T15:43:54Z</time>
      </trkpt>
      <trkpt lat="46.370683" lon="11.813288">
        <ele>2093.499</ele>
        <time>2026-08-12T15:44:13Z</time>
      </trkpt>
      <trkpt lat="46.371031" lon="11.813131">
        <ele>2085.307</ele>
        <time>2026-08-12T15:45:02Z</time>
      </trkpt>
      <trkpt lat="46.371069" lon="11.813194">
        <ele>2084.727</ele>
        <time>2026-08-12T15:45:14Z</time>
      </trkpt>
      <trkpt lat="46.371023" lon="11.813230">
        <ele>2084.309</ele>
        <time>2026-08-12T15:45:23Z</time>
      </trkpt>
      <trkpt lat="46.371078" lon="11.813207">
        <ele>2084.071</ele>
        <time>2026-08-12T15:45:28Z</time>
      </trkpt>
      <trkpt lat="46.371013" lon="11.813329">
        <ele>2083.536</ele>
        <time>2026-08-12T15:45:36Z</time>
      </trkpt>
      <trkpt lat="46.371091" lon="11.813483">
        <ele>2079.898</ele>
        <time>2026-08-12T15:45:53Z</time>
      </trkpt>
      <trkpt lat="46.371064" lon="11.813429">
        <ele>2079.892</ele>
        <time>2026-08-12T15:45:57Z</time>
      </trkpt>
      <trkpt lat="46.371206" lon="11.813550">
        <ele>2080.636</ele>
        <time>2026-08-12T15:46:45Z</time>
      </trkpt>
      <trkpt lat="46.371252" lon="11.813968">
        <ele>2073.372</ele>
        <time>2026-08-12T15:47:20Z</time>
      </trkpt>
      <trkpt lat="46.371343" lon="11.814165">
        <ele>2071.581</ele>
        <time>2026-08-12T15:47:36Z</time>
      </trkpt>
      <trkpt lat="46.371363" lon="11.814118">
        <ele>2071.573</ele>
        <time>2026-08-12T15:47:41Z</time>
      </trkpt>
      <trkpt lat="46.371583" lon="11.814393">
        <ele>2067.327</ele>
        <time>2026-08-12T15:48:12Z</time>
      </trkpt>
      <trkpt lat="46.371633" lon="11.814297">
        <ele>2067.278</ele>
        <time>2026-08-12T15:48:32Z</time>
      </trkpt>
      <trkpt lat="46.371823" lon="11.814501">
        <ele>2068.133</ele>
        <time>2026-08-12T15:48:50Z</time>
      </trkpt>
      <trkpt lat="46.371867" lon="11.814701">
        <ele>2071.126</ele>
        <time>2026-08-12T15:49:13Z</time>
      </trkpt>
      <trkpt lat="46.371921" lon="11.814647">
        <ele>2071.409</ele>
        <time>2026-08-12T15:49:27Z</time>
      </trkpt>
      <trkpt lat="46.371949" lon="11.814744">
        <ele>2071.489</ele>
        <time>2026-08-12T15:49:35Z</time>
      </trkpt>
      <trkpt lat="46.371965" lon="11.814698">
        <ele>2071.084</ele>
        <time>2026-08-12T15:49:43Z</time>
      </trkpt>
      <trkpt lat="46.372049" lon="11.814720">
        <ele>2068.796</ele>
        <time>2026-08-12T15:49:58Z</time>
      </trkpt>
      <trkpt lat="46.372059" lon="11.814578">
        <ele>2066.990</ele>
        <time>2026-08-12T15:50:07Z</time>
      </trkpt>
      <trkpt lat="46.372150" lon="11.814575">
        <ele>2066.074</ele>
        <time>2026-08-12T15:50:16Z</time>
      </trkpt>
      <trkpt lat="46.372186" lon="11.814487">
        <ele>2065.680</ele>
        <time>2026-08-12T15:50:41Z</time>
      </trkpt>
      <trkpt lat="46.372202" lon="11.814530">
        <ele>2065.519</ele>
        <time>2026-08-12T15:50:44Z</time>
      </trkpt>
      <trkpt lat="46.372142" lon="11.814517">
        <ele>2065.281</ele>
        <time>2026-08-12T15:50:57Z</time>
      </trkpt>
      <trkpt lat="46.372143" lon="11.814435">
        <ele>2062.095</ele>
        <time>2026-08-12T15:51:17Z</time>
      </trkpt>
      <trkpt lat="46.372189" lon="11.814470">
        <ele>2058.554</ele>
        <time>2026-08-12T15:51:33Z</time>
      </trkpt>
      <trkpt lat="46.372226" lon="11.814405">
        <ele>2056.756</ele>
        <time>2026-08-12T15:51:47Z</time>
      </trkpt>
      <trkpt lat="46.372245" lon="11.814318">
        <ele>2054.311</ele>
        <time>2026-08-12T15:52:25Z</time>
      </trkpt>
      <trkpt lat="46.372198" lon="11.814276">
        <ele>2053.609</ele>
        <time>2026-08-12T15:52:44Z</time>
      </trkpt>
      <trkpt lat="46.372383" lon="11.814049">
        <ele>2047.717</ele>
        <time>2026-08-12T15:53:37Z</time>
      </trkpt>
      <trkpt lat="46.372353" lon="11.814197">
        <ele>2044.532</ele>
        <time>2026-08-12T15:53:53Z</time>
      </trkpt>
      <trkpt lat="46.372499" lon="11.814359">
        <ele>2040.894</ele>
        <time>2026-08-12T15:54:33Z</time>
      </trkpt>
      <trkpt lat="46.372538" lon="11.814511">
        <ele>2038.528</ele>
        <time>2026-08-12T15:54:48Z</time>
      </trkpt>
      <trkpt lat="46.372668" lon="11.814437">
        <ele>2037.632</ele>
        <time>2026-08-12T15:55:05Z</time>
      </trkpt>
      <trkpt lat="46.372819" lon="11.814063">
        <ele>2028.158</ele>
        <time>2026-08-12T15:56:32Z</time>
      </trkpt>
      <trkpt lat="46.372770" lon="11.813900">
        <ele>2024.647</ele>
        <time>2026-08-12T15:56:59Z</time>
      </trkpt>
      <trkpt lat="46.372828" lon="11.813779">
        <ele>2024.149</ele>
        <time>2026-08-12T15:57:33Z</time>
      </trkpt>
      <trkpt lat="46.372891" lon="11.813769">
        <ele>2023.713</ele>
        <time>2026-08-12T15:57:39Z</time>
      </trkpt>
      <trkpt lat="46.372872" lon="11.813628">
        <ele>2021.916</ele>
        <time>2026-08-12T15:58:07Z</time>
      </trkpt>
      <trkpt lat="46.372965" lon="11.813472">
        <ele>2018.376</ele>
        <time>2026-08-12T15:58:54Z</time>
      </trkpt>
      <trkpt lat="46.372917" lon="11.813426">
        <ele>2017.113</ele>
        <time>2026-08-12T15:59:00Z</time>
      </trkpt>
      <trkpt lat="46.373001" lon="11.813051">
        <ele>2012.409</ele>
        <time>2026-08-12T15:59:57Z</time>
      </trkpt>
      <trkpt lat="46.373055" lon="11.813067">
        <ele>2012.043</ele>
        <time>2026-08-12T16:00:07Z</time>
      </trkpt>
      <trkpt lat="46.373113" lon="11.812889">
        <ele>2010.948</ele>
        <time>2026-08-12T16:00:28Z</time>
      </trkpt>
      <trkpt lat="46.373156" lon="11.811808">
        <ele>1994.790</ele>
        <time>2026-08-12T16:03:27Z</time>
      </trkpt>
      <trkpt lat="46.373086" lon="11.810837">
        <ele>1985.264</ele>
        <time>2026-08-12T16:05:09Z</time>
      </trkpt>
      <trkpt lat="46.373157" lon="11.810866">
        <ele>1982.758</ele>
        <time>2026-08-12T16:05:27Z</time>
      </trkpt>
      <trkpt lat="46.373288" lon="11.809975">
        <ele>1977.584</ele>
        <time>2026-08-12T16:06:41Z</time>
      </trkpt>
      <trkpt lat="46.373490" lon="11.809552">
        <ele>1974.473</ele>
        <time>2026-08-12T16:07:43Z</time>
      </trkpt>
      <trkpt lat="46.373508" lon="11.809257">
        <ele>1973.085</ele>
        <time>2026-08-12T16:08:09Z</time>
      </trkpt>
      <trkpt lat="46.373555" lon="11.809200">
        <ele>1970.439</ele>
        <time>2026-08-12T16:08:21Z</time>
      </trkpt>
      <trkpt lat="46.373525" lon="11.809022">
        <ele>1968.583</ele>
        <time>2026-08-12T16:08:43Z</time>
      </trkpt>
      <trkpt lat="46.373602" lon="11.808995">
        <ele>1968.125</ele>
        <time>2026-08-12T16:09:02Z</time>
      </trkpt>
      <trkpt lat="46.373539" lon="11.808911">
        <ele>1967.817</ele>
        <time>2026-08-12T16:09:10Z</time>
      </trkpt>
      <trkpt lat="46.373543" lon="11.808785">
        <ele>1966.509</ele>
        <time>2026-08-12T16:09:32Z</time>
      </trkpt>
      <trkpt lat="46.373658" lon="11.808652">
        <ele>1962.150</ele>
        <time>2026-08-12T16:09:54Z</time>
      </trkpt>
      <trkpt lat="46.373632" lon="11.808435">
        <ele>1958.015</ele>
        <time>2026-08-12T16:10:22Z</time>
      </trkpt>
      <trkpt lat="46.373707" lon="11.808123">
        <ele>1954.867</ele>
        <time>2026-08-12T16:11:02Z</time>
      </trkpt>
      <trkpt lat="46.373758" lon="11.808089">
        <ele>1952.251</ele>
        <time>2026-08-12T16:11:18Z</time>
      </trkpt>
      <trkpt lat="46.373721" lon="11.808059">
        <ele>1951.975</ele>
        <time>2026-08-12T16:11:24Z</time>
      </trkpt>
      <trkpt lat="46.373724" lon="11.808096">
        <ele>1951.721</ele>
        <time>2026-08-12T16:11:28Z</time>
      </trkpt>
      <trkpt lat="46.373897" lon="11.807742">
        <ele>1948.660</ele>
        <time>2026-08-12T16:12:26Z</time>
      </trkpt>
      <trkpt lat="46.373884" lon="11.807648">
        <ele>1947.132</ele>
        <time>2026-08-12T16:12:32Z</time>
      </trkpt>
      <trkpt lat="46.374029" lon="11.807289">
        <ele>1940.596</ele>
        <time>2026-08-12T16:13:41Z</time>
      </trkpt>
      <trkpt lat="46.374076" lon="11.807304">
        <ele>1939.356</ele>
        <time>2026-08-12T16:13:46Z</time>
      </trkpt>
      <trkpt lat="46.374077" lon="11.807194">
        <ele>1935.759</ele>
        <time>2026-08-12T16:13:54Z</time>
      </trkpt>
      <trkpt lat="46.374130" lon="11.807211">
        <ele>1932.914</ele>
        <time>2026-08-12T16:14:02Z</time>
      </trkpt>
      <trkpt lat="46.374116" lon="11.807159">
        <ele>1931.109</ele>
        <time>2026-08-12T16:14:15Z</time>
      </trkpt>
      <trkpt lat="46.374182" lon="11.807145">
        <ele>1930.317</ele>
        <time>2026-08-12T16:14:25Z</time>
      </trkpt>
      <trkpt lat="46.374119" lon="11.807111">
        <ele>1929.882</ele>
        <time>2026-08-12T16:14:30Z</time>
      </trkpt>
      <trkpt lat="46.374136" lon="11.807041">
        <ele>1929.264</ele>
        <time>2026-08-12T16:14:42Z</time>
      </trkpt>
      <trkpt lat="46.374269" lon="11.806915">
        <ele>1925.658</ele>
        <time>2026-08-12T16:15:15Z</time>
      </trkpt>
      <trkpt lat="46.374315" lon="11.806946">
        <ele>1925.212</ele>
        <time>2026-08-12T16:15:23Z</time>
      </trkpt>
      <trkpt lat="46.374355" lon="11.806817">
        <ele>1924.218</ele>
        <time>2026-08-12T16:15:35Z</time>
      </trkpt>
      <trkpt lat="46.374405" lon="11.806848">
        <ele>1923.627</ele>
        <time>2026-08-12T16:15:41Z</time>
      </trkpt>
      <trkpt lat="46.374471" lon="11.806804">
        <ele>1919.879</ele>
        <time>2026-08-12T16:15:54Z</time>
      </trkpt>
      <trkpt lat="46.374487" lon="11.806720">
        <ele>1918.353</ele>
        <time>2026-08-12T16:16:01Z</time>
      </trkpt>
      <trkpt lat="46.374439" lon="11.806710">
        <ele>1917.759</ele>
        <time>2026-08-12T16:16:07Z</time>
      </trkpt>
      <trkpt lat="46.374523" lon="11.806605">
        <ele>1916.703</ele>
        <time>2026-08-12T16:16:18Z</time>
      </trkpt>
      <trkpt lat="46.374449" lon="11.806561">
        <ele>1915.423</ele>
        <time>2026-08-12T16:16:22Z</time>
      </trkpt>
      <trkpt lat="46.374594" lon="11.806407">
        <ele>1911.109</ele>
        <time>2026-08-12T16:16:38Z</time>
      </trkpt>
      <trkpt lat="46.374657" lon="11.806410">
        <ele>1910.547</ele>
        <time>2026-08-12T16:16:53Z</time>
      </trkpt>
      <trkpt lat="46.374857" lon="11.806038">
        <ele>1909.542</ele>
        <time>2026-08-12T16:17:25Z</time>
      </trkpt>
      <trkpt lat="46.374999" lon="11.805529">
        <ele>1908.734</ele>
        <time>2026-08-12T16:18:00Z</time>
      </trkpt>
      <trkpt lat="46.375084" lon="11.805496">
        <ele>1908.678</ele>
        <time>2026-08-12T16:18:33Z</time>
      </trkpt>
      <trkpt lat="46.375011" lon="11.805473">
        <ele>1908.692</ele>
        <time>2026-08-12T16:18:34Z</time>
      </trkpt>
      <trkpt lat="46.375097" lon="11.805166">
        <ele>1907.128</ele>
        <time>2026-08-12T16:19:00Z</time>
      </trkpt>
      <trkpt lat="46.374977" lon="11.805107">
        <ele>1906.987</ele>
        <time>2026-08-12T16:19:11Z</time>
      </trkpt>
      <trkpt lat="46.375050" lon="11.805085">
        <ele>1905.949</ele>
        <time>2026-08-12T16:19:14Z</time>
      </trkpt>
      <trkpt lat="46.375129" lon="11.804943">
        <ele>1900.663</ele>
        <time>2026-08-12T16:19:26Z</time>
      </trkpt>
      <trkpt lat="46.375372" lon="11.804252">
        <ele>1896.318</ele>
        <time>2026-08-12T16:20:26Z</time>
      </trkpt>
      <trkpt lat="46.375769" lon="11.803753">
        <ele>1897.798</ele>
        <time>2026-08-12T16:21:38Z</time>
      </trkpt>
      <trkpt lat="46.375956" lon="11.803351">
        <ele>1887.417</ele>
        <time>2026-08-12T16:22:31Z</time>
      </trkpt>
      <trkpt lat="46.375999" lon="11.803389">
        <ele>1885.609</ele>
        <time>2026-08-12T16:22:39Z</time>
      </trkpt>
      <trkpt lat="46.376185" lon="11.803241">
        <ele>1881.853</ele>
        <time>2026-08-12T16:22:57Z</time>
      </trkpt>
      <trkpt lat="46.376290" lon="11.803040">
        <ele>1880.748</ele>
        <time>2026-08-12T16:23:16Z</time>
      </trkpt>
      <trkpt lat="46.376334" lon="11.803093">
        <ele>1880.440</ele>
        <time>2026-08-12T16:23:26Z</time>
      </trkpt>
      <trkpt lat="46.376430" lon="11.802850">
        <ele>1877.924</ele>
        <time>2026-08-12T16:23:49Z</time>
      </trkpt>
      <trkpt lat="46.376565" lon="11.802691">
        <ele>1872.138</ele>
        <time>2026-08-12T16:24:03Z</time>
      </trkpt>
      <trkpt lat="46.376928" lon="11.802387">
        <ele>1872.084</ele>
        <time>2026-08-12T16:24:40Z</time>
      </trkpt>
      <trkpt lat="46.376929" lon="11.802436">
        <ele>1871.973</ele>
        <time>2026-08-12T16:24:43Z</time>
      </trkpt>
      <trkpt lat="46.377016" lon="11.802290">
        <ele>1871.735</ele>
        <time>2026-08-12T16:24:54Z</time>
      </trkpt>
      <trkpt lat="46.377061" lon="11.802310">
        <ele>1871.759</ele>
        <time>2026-08-12T16:25:01Z</time>
      </trkpt>
      <trkpt lat="46.377095" lon="11.802254">
        <ele>1871.731</ele>
        <time>2026-08-12T16:25:07Z</time>
      </trkpt>
      <trkpt lat="46.377130" lon="11.802330">
        <ele>1871.561</ele>
        <time>2026-08-12T16:27:09Z</time>
      </trkpt>
      <trkpt lat="46.377233" lon="11.802260">
        <ele>1871.407</ele>
        <time>2026-08-12T16:27:23Z</time>
      </trkpt>
    </trkseg>
  </trk></gpx>