<?xml version="1.0" encoding="UTF-8"?>
<gpx creator="Wikiloc - https://www.wikiloc.com" version="1.1" xmlns="http://www.topografix.com/GPX/1/1" xmlns:xsi="http://www.w3.org/2001/XMLSchema-instance" xsi:schemaLocation="http://www.topografix.com/GPX/1/1 http://www.topografix.com/GPX/1/1/gpx.xsd">
  <metadata>
    <name>Wikiloc - Rifugio Fuciade da Passo San Pellegrino</name>
    <link href="https://www.wikiloc.com/hiking-trails/rifugio-fuciade-da-passo-san-pellegrino-279549091">
      <text>Rifugio Fuciade da Passo San Pellegrino - Wikiloc on Wikiloc</text>
    </link>
    <time>2026-08-13T15:16:54Z</time>
  </metadata>
  <wpt lat="46.385425" lon="11.818341">
    <ele>1957.0</ele>
    <time>2026-08-13T10:35:25Z</time>
    <name>Foto</name>
    <cmt></cmt>
    <desc></desc>
  </wpt>
  <wpt lat="46.386343" lon="11.818915">
    <ele>1964.3</ele>
    <time>2026-08-13T10:42:11Z</time>
    <name>Foto</name>
    <cmt></cmt>
    <desc></desc>
  </wpt>
  <wpt lat="46.385643" lon="11.818359">
    <ele>1958.5</ele>
    <time>2026-08-13T14:13:16Z</time>
    <name>Foto</name>
    <cmt></cmt>
    <desc></desc>
  </wpt>
  <wpt lat="46.382752" lon="11.812100">
    <ele>1914.4</ele>
    <time>2026-08-13T14:25:39Z</time>
    <name>Foto</name>
    <cmt></cmt>
    <desc></desc>
  </wpt>
  <wpt lat="46.378692" lon="11.796674">
    <ele>1912.2</ele>
    <time>2026-08-13T15:05:55Z</time>
    <name>Foto</name>
    <cmt></cmt>
    <desc></desc>
  </wpt>
  <trk>
    <name>Rifugio Fuciade da Passo San Pellegrino - Wikiloc</name>
    <cmt>Percorso andata e ritorno, partendo da passo San Pellegrino e arrivando al rifugio Fuciade.
Parcheggio a Passo San Pellegrino o al parcheggio gratuito dell'impianto di Col Margherita.</cmt>
    <desc>Percorso andata e ritorno, partendo da passo San Pellegrino e arrivando al rifugio Fuciade.
Parcheggio a Passo San Pellegrino o al parcheggio gratuito dell'impianto di Col Margherita.</desc>
    <trkseg>
      <trkpt lat="46.379639" lon="11.801288">
        <ele>1910.578</ele>
        <time>2026-08-13T09:47:44Z</time>
      </trkpt>
      <trkpt lat="46.379740" lon="11.801852">
        <ele>1911.233</ele>
        <time>2026-08-13T09:48:33Z</time>
      </trkpt>
      <trkpt lat="46.380029" lon="11.802178">
        <ele>1907.526</ele>
        <time>2026-08-13T09:49:30Z</time>
      </trkpt>
      <trkpt lat="46.380049" lon="11.802416">
        <ele>1908.309</ele>
        <time>2026-08-13T09:49:51Z</time>
      </trkpt>
      <trkpt lat="46.380109" lon="11.802453">
        <ele>1909.849</ele>
        <time>2026-08-13T09:50:01Z</time>
      </trkpt>
      <trkpt lat="46.380357" lon="11.803868">
        <ele>1906.284</ele>
        <time>2026-08-13T09:51:56Z</time>
      </trkpt>
      <trkpt lat="46.380485" lon="11.804236">
        <ele>1908.316</ele>
        <time>2026-08-13T09:52:27Z</time>
      </trkpt>
      <trkpt lat="46.380648" lon="11.805177">
        <ele>1906.052</ele>
        <time>2026-08-13T09:53:38Z</time>
      </trkpt>
      <trkpt lat="46.380672" lon="11.805833">
        <ele>1909.911</ele>
        <time>2026-08-13T09:54:26Z</time>
      </trkpt>
      <trkpt lat="46.380743" lon="11.805932">
        <ele>1908.526</ele>
        <time>2026-08-13T09:55:00Z</time>
      </trkpt>
      <trkpt lat="46.380712" lon="11.806690">
        <ele>1901.157</ele>
        <time>2026-08-13T09:55:58Z</time>
      </trkpt>
      <trkpt lat="46.380846" lon="11.806808">
        <ele>1900.046</ele>
        <time>2026-08-13T09:56:16Z</time>
      </trkpt>
      <trkpt lat="46.381009" lon="11.806689">
        <ele>1897.228</ele>
        <time>2026-08-13T09:56:34Z</time>
      </trkpt>
      <trkpt lat="46.381223" lon="11.806735">
        <ele>1897.463</ele>
        <time>2026-08-13T09:56:58Z</time>
      </trkpt>
      <trkpt lat="46.381270" lon="11.806674">
        <ele>1898.244</ele>
        <time>2026-08-13T09:58:28Z</time>
      </trkpt>
      <trkpt lat="46.381547" lon="11.806632">
        <ele>1900.218</ele>
        <time>2026-08-13T09:59:20Z</time>
      </trkpt>
      <trkpt lat="46.381778" lon="11.806880">
        <ele>1901.309</ele>
        <time>2026-08-13T09:59:58Z</time>
      </trkpt>
      <trkpt lat="46.381840" lon="11.807041">
        <ele>1901.858</ele>
        <time>2026-08-13T10:00:14Z</time>
      </trkpt>
      <trkpt lat="46.381833" lon="11.807633">
        <ele>1903.633</ele>
        <time>2026-08-13T10:01:09Z</time>
      </trkpt>
      <trkpt lat="46.381761" lon="11.807667">
        <ele>1905.715</ele>
        <time>2026-08-13T10:01:36Z</time>
      </trkpt>
      <trkpt lat="46.381689" lon="11.807817">
        <ele>1906.611</ele>
        <time>2026-08-13T10:02:14Z</time>
      </trkpt>
      <trkpt lat="46.381465" lon="11.808052">
        <ele>1904.850</ele>
        <time>2026-08-13T10:03:00Z</time>
      </trkpt>
      <trkpt lat="46.381392" lon="11.808284">
        <ele>1906.525</ele>
        <time>2026-08-13T10:03:24Z</time>
      </trkpt>
      <trkpt lat="46.381461" lon="11.808838">
        <ele>1909.886</ele>
        <time>2026-08-13T10:04:10Z</time>
      </trkpt>
      <trkpt lat="46.381301" lon="11.809200">
        <ele>1916.175</ele>
        <time>2026-08-13T10:04:45Z</time>
      </trkpt>
      <trkpt lat="46.381351" lon="11.809800">
        <ele>1914.627</ele>
        <time>2026-08-13T10:05:33Z</time>
      </trkpt>
      <trkpt lat="46.381470" lon="11.810190">
        <ele>1914.625</ele>
        <time>2026-08-13T10:06:02Z</time>
      </trkpt>
      <trkpt lat="46.381507" lon="11.810183">
        <ele>1914.626</ele>
        <time>2026-08-13T10:06:08Z</time>
      </trkpt>
      <trkpt lat="46.381698" lon="11.810394">
        <ele>1912.608</ele>
        <time>2026-08-13T10:06:37Z</time>
      </trkpt>
      <trkpt lat="46.381782" lon="11.810368">
        <ele>1911.609</ele>
        <time>2026-08-13T10:06:51Z</time>
      </trkpt>
      <trkpt lat="46.381967" lon="11.810415">
        <ele>1911.084</ele>
        <time>2026-08-13T10:07:12Z</time>
      </trkpt>
      <trkpt lat="46.382421" lon="11.809826">
        <ele>1901.469</ele>
        <time>2026-08-13T10:08:12Z</time>
      </trkpt>
      <trkpt lat="46.382576" lon="11.809784">
        <ele>1893.871</ele>
        <time>2026-08-13T10:08:25Z</time>
      </trkpt>
      <trkpt lat="46.382663" lon="11.809885">
        <ele>1891.587</ele>
        <time>2026-08-13T10:08:34Z</time>
      </trkpt>
      <trkpt lat="46.382772" lon="11.810282">
        <ele>1902.196</ele>
        <time>2026-08-13T10:09:05Z</time>
      </trkpt>
      <trkpt lat="46.383120" lon="11.810799">
        <ele>1909.841</ele>
        <time>2026-08-13T10:09:52Z</time>
      </trkpt>
      <trkpt lat="46.383047" lon="11.811253">
        <ele>1918.712</ele>
        <time>2026-08-13T10:10:23Z</time>
      </trkpt>
      <trkpt lat="46.382906" lon="11.811452">
        <ele>1914.571</ele>
        <time>2026-08-13T10:10:44Z</time>
      </trkpt>
      <trkpt lat="46.382768" lon="11.811911">
        <ele>1915.783</ele>
        <time>2026-08-13T10:11:19Z</time>
      </trkpt>
      <trkpt lat="46.382708" lon="11.812859">
        <ele>1920.814</ele>
        <time>2026-08-13T10:12:18Z</time>
      </trkpt>
      <trkpt lat="46.382759" lon="11.813061">
        <ele>1920.154</ele>
        <time>2026-08-13T10:12:32Z</time>
      </trkpt>
      <trkpt lat="46.383040" lon="11.813609">
        <ele>1907.809</ele>
        <time>2026-08-13T10:13:18Z</time>
      </trkpt>
      <trkpt lat="46.383316" lon="11.813915">
        <ele>1908.609</ele>
        <time>2026-08-13T10:13:49Z</time>
      </trkpt>
      <trkpt lat="46.383481" lon="11.814024">
        <ele>1915.873</ele>
        <time>2026-08-13T10:14:14Z</time>
      </trkpt>
      <trkpt lat="46.383560" lon="11.814019">
        <ele>1917.788</ele>
        <time>2026-08-13T10:14:25Z</time>
      </trkpt>
      <trkpt lat="46.383675" lon="11.814160">
        <ele>1920.430</ele>
        <time>2026-08-13T10:14:37Z</time>
      </trkpt>
      <trkpt lat="46.383655" lon="11.814327">
        <ele>1923.426</ele>
        <time>2026-08-13T10:14:50Z</time>
      </trkpt>
      <trkpt lat="46.383600" lon="11.814230">
        <ele>1929.355</ele>
        <time>2026-08-13T10:20:08Z</time>
      </trkpt>
      <trkpt lat="46.383640" lon="11.814349">
        <ele>1930.250</ele>
        <time>2026-08-13T10:24:09Z</time>
      </trkpt>
      <trkpt lat="46.383583" lon="11.814412">
        <ele>1930.651</ele>
        <time>2026-08-13T10:24:20Z</time>
      </trkpt>
      <trkpt lat="46.383578" lon="11.814566">
        <ele>1932.010</ele>
        <time>2026-08-13T10:24:46Z</time>
      </trkpt>
      <trkpt lat="46.383432" lon="11.814952">
        <ele>1933.712</ele>
        <time>2026-08-13T10:26:01Z</time>
      </trkpt>
      <trkpt lat="46.383417" lon="11.815187">
        <ele>1937.155</ele>
        <time>2026-08-13T10:26:30Z</time>
      </trkpt>
      <trkpt lat="46.383537" lon="11.815876">
        <ele>1939.307</ele>
        <time>2026-08-13T10:28:47Z</time>
      </trkpt>
      <trkpt lat="46.383638" lon="11.816018">
        <ele>1943.317</ele>
        <time>2026-08-13T10:29:12Z</time>
      </trkpt>
      <trkpt lat="46.383694" lon="11.816314">
        <ele>1948.209</ele>
        <time>2026-08-13T10:29:54Z</time>
      </trkpt>
      <trkpt lat="46.383833" lon="11.816697">
        <ele>1951.887</ele>
        <time>2026-08-13T10:30:40Z</time>
      </trkpt>
      <trkpt lat="46.384128" lon="11.816802">
        <ele>1951.752</ele>
        <time>2026-08-13T10:31:19Z</time>
      </trkpt>
      <trkpt lat="46.384188" lon="11.816953">
        <ele>1951.534</ele>
        <time>2026-08-13T10:31:37Z</time>
      </trkpt>
      <trkpt lat="46.384210" lon="11.817197">
        <ele>1952.750</ele>
        <time>2026-08-13T10:32:00Z</time>
      </trkpt>
      <trkpt lat="46.384351" lon="11.817395">
        <ele>1956.289</ele>
        <time>2026-08-13T10:32:26Z</time>
      </trkpt>
      <trkpt lat="46.384580" lon="11.817594">
        <ele>1955.854</ele>
        <time>2026-08-13T10:33:05Z</time>
      </trkpt>
      <trkpt lat="46.385025" lon="11.817852">
        <ele>1953.195</ele>
        <time>2026-08-13T10:33:59Z</time>
      </trkpt>
      <trkpt lat="46.385167" lon="11.818004">
        <ele>1955.194</ele>
        <time>2026-08-13T10:34:20Z</time>
      </trkpt>
      <trkpt lat="46.385180" lon="11.818126">
        <ele>1956.626</ele>
        <time>2026-08-13T10:34:36Z</time>
      </trkpt>
      <trkpt lat="46.385308" lon="11.818299">
        <ele>1957.637</ele>
        <time>2026-08-13T10:35:02Z</time>
      </trkpt>
      <trkpt lat="46.385566" lon="11.818355">
        <ele>1958.949</ele>
        <time>2026-08-13T10:37:59Z</time>
      </trkpt>
      <trkpt lat="46.385622" lon="11.818403">
        <ele>1958.913</ele>
        <time>2026-08-13T10:38:08Z</time>
      </trkpt>
      <trkpt lat="46.385658" lon="11.818363">
        <ele>1958.909</ele>
        <time>2026-08-13T10:38:12Z</time>
      </trkpt>
      <trkpt lat="46.385939" lon="11.818605">
        <ele>1960.865</ele>
        <time>2026-08-13T10:39:19Z</time>
      </trkpt>
      <trkpt lat="46.385983" lon="11.818580">
        <ele>1961.040</ele>
        <time>2026-08-13T10:40:01Z</time>
      </trkpt>
      <trkpt lat="46.386257" lon="11.818668">
        <ele>1960.592</ele>
        <time>2026-08-13T10:41:23Z</time>
      </trkpt>
      <trkpt lat="46.386518" lon="11.819277">
        <ele>1962.228</ele>
        <time>2026-08-13T10:45:11Z</time>
      </trkpt>
      <trkpt lat="46.386680" lon="11.820100">
        <ele>1961.477</ele>
        <time>2026-08-13T10:46:51Z</time>
      </trkpt>
      <trkpt lat="46.386718" lon="11.820091">
        <ele>1961.012</ele>
        <time>2026-08-13T10:47:58Z</time>
      </trkpt>
      <trkpt lat="46.386733" lon="11.820179">
        <ele>1959.323</ele>
        <time>2026-08-13T10:50:29Z</time>
      </trkpt>
      <trkpt lat="46.386783" lon="11.820164">
        <ele>1958.792</ele>
        <time>2026-08-13T10:50:57Z</time>
      </trkpt>
      <trkpt lat="46.386784" lon="11.820198">
        <ele>1958.734</ele>
        <time>2026-08-13T10:50:59Z</time>
      </trkpt>
      <trkpt lat="46.387122" lon="11.820036">
        <ele>1955.674</ele>
        <time>2026-08-13T10:51:49Z</time>
      </trkpt>
      <trkpt lat="46.387298" lon="11.820178">
        <ele>1954.856</ele>
        <time>2026-08-13T10:52:14Z</time>
      </trkpt>
      <trkpt lat="46.387398" lon="11.820397">
        <ele>1957.421</ele>
        <time>2026-08-13T10:52:59Z</time>
      </trkpt>
      <trkpt lat="46.387429" lon="11.820371">
        <ele>1957.809</ele>
        <time>2026-08-13T10:53:04Z</time>
      </trkpt>
      <trkpt lat="46.387472" lon="11.820518">
        <ele>1960.139</ele>
        <time>2026-08-13T10:53:16Z</time>
      </trkpt>
      <trkpt lat="46.387470" lon="11.820941">
        <ele>1963.124</ele>
        <time>2026-08-13T10:54:03Z</time>
      </trkpt>
      <trkpt lat="46.387602" lon="11.821424">
        <ele>1965.566</ele>
        <time>2026-08-13T10:54:44Z</time>
      </trkpt>
      <trkpt lat="46.387849" lon="11.821827">
        <ele>1961.132</ele>
        <time>2026-08-13T10:55:31Z</time>
      </trkpt>
      <trkpt lat="46.388007" lon="11.821913">
        <ele>1961.751</ele>
        <time>2026-08-13T10:55:51Z</time>
      </trkpt>
      <trkpt lat="46.388159" lon="11.822065">
        <ele>1961.896</ele>
        <time>2026-08-13T10:56:15Z</time>
      </trkpt>
      <trkpt lat="46.388153" lon="11.822155">
        <ele>1961.797</ele>
        <time>2026-08-13T10:56:24Z</time>
      </trkpt>
      <trkpt lat="46.388204" lon="11.822124">
        <ele>1961.726</ele>
        <time>2026-08-13T10:56:25Z</time>
      </trkpt>
      <trkpt lat="46.388386" lon="11.822281">
        <ele>1961.838</ele>
        <time>2026-08-13T10:57:05Z</time>
      </trkpt>
      <trkpt lat="46.388367" lon="11.822306">
        <ele>1961.732</ele>
        <time>2026-08-13T10:57:21Z</time>
      </trkpt>
      <trkpt lat="46.388861" lon="11.822857">
        <ele>1963.292</ele>
        <time>2026-08-13T11:00:02Z</time>
      </trkpt>
      <trkpt lat="46.388966" lon="11.823186">
        <ele>1961.511</ele>
        <time>2026-08-13T11:00:30Z</time>
      </trkpt>
      <trkpt lat="46.389038" lon="11.823717">
        <ele>1962.709</ele>
        <time>2026-08-13T11:01:19Z</time>
      </trkpt>
      <trkpt lat="46.389372" lon="11.824453">
        <ele>1960.565</ele>
        <time>2026-08-13T11:02:29Z</time>
      </trkpt>
      <trkpt lat="46.389541" lon="11.824580">
        <ele>1959.620</ele>
        <time>2026-08-13T11:02:54Z</time>
      </trkpt>
      <trkpt lat="46.389573" lon="11.824704">
        <ele>1959.492</ele>
        <time>2026-08-13T11:03:05Z</time>
      </trkpt>
      <trkpt lat="46.389831" lon="11.824980">
        <ele>1959.098</ele>
        <time>2026-08-13T11:03:46Z</time>
      </trkpt>
      <trkpt lat="46.389856" lon="11.825067">
        <ele>1959.887</ele>
        <time>2026-08-13T11:03:54Z</time>
      </trkpt>
      <trkpt lat="46.389987" lon="11.825152">
        <ele>1960.882</ele>
        <time>2026-08-13T11:04:15Z</time>
      </trkpt>
      <trkpt lat="46.389965" lon="11.825199">
        <ele>1961.123</ele>
        <time>2026-08-13T11:05:00Z</time>
      </trkpt>
      <trkpt lat="46.390285" lon="11.825286">
        <ele>1960.772</ele>
        <time>2026-08-13T11:05:42Z</time>
      </trkpt>
      <trkpt lat="46.390576" lon="11.825453">
        <ele>1960.744</ele>
        <time>2026-08-13T11:06:22Z</time>
      </trkpt>
      <trkpt lat="46.390724" lon="11.825593">
        <ele>1961.454</ele>
        <time>2026-08-13T11:06:40Z</time>
      </trkpt>
      <trkpt lat="46.390891" lon="11.825619">
        <ele>1963.456</ele>
        <time>2026-08-13T11:07:02Z</time>
      </trkpt>
      <trkpt lat="46.390982" lon="11.825680">
        <ele>1964.211</ele>
        <time>2026-08-13T11:07:13Z</time>
      </trkpt>
      <trkpt lat="46.391232" lon="11.825663">
        <ele>1964.009</ele>
        <time>2026-08-13T11:07:39Z</time>
      </trkpt>
      <trkpt lat="46.391277" lon="11.825844">
        <ele>1961.217</ele>
        <time>2026-08-13T11:07:53Z</time>
      </trkpt>
      <trkpt lat="46.391217" lon="11.825940">
        <ele>1961.132</ele>
        <time>2026-08-13T11:08:09Z</time>
      </trkpt>
      <trkpt lat="46.391238" lon="11.826030">
        <ele>1965.364</ele>
        <time>2026-08-13T11:09:48Z</time>
      </trkpt>
      <trkpt lat="46.391239" lon="11.825990">
        <ele>1964.360</ele>
        <time>2026-08-13T11:13:28Z</time>
      </trkpt>
      <trkpt lat="46.391219" lon="11.826042">
        <ele>1960.459</ele>
        <time>2026-08-13T11:23:01Z</time>
      </trkpt>
      <trkpt lat="46.391197" lon="11.826023">
        <ele>1960.024</ele>
        <time>2026-08-13T11:24:37Z</time>
      </trkpt>
      <trkpt lat="46.391230" lon="11.826025">
        <ele>1959.555</ele>
        <time>2026-08-13T11:24:42Z</time>
      </trkpt>
      <trkpt lat="46.391223" lon="11.825989">
        <ele>1959.584</ele>
        <time>2026-08-13T11:24:45Z</time>
      </trkpt>
      <trkpt lat="46.391197" lon="11.826043">
        <ele>1959.026</ele>
        <time>2026-08-13T11:38:26Z</time>
      </trkpt>
      <trkpt lat="46.391219" lon="11.826014">
        <ele>1959.164</ele>
        <time>2026-08-13T11:38:39Z</time>
      </trkpt>
      <trkpt lat="46.391176" lon="11.825979">
        <ele>1959.306</ele>
        <time>2026-08-13T11:38:52Z</time>
      </trkpt>
      <trkpt lat="46.391205" lon="11.826028">
        <ele>1962.616</ele>
        <time>2026-08-13T11:41:25Z</time>
      </trkpt>
      <trkpt lat="46.391179" lon="11.826085">
        <ele>1963.109</ele>
        <time>2026-08-13T11:41:27Z</time>
      </trkpt>
      <trkpt lat="46.391133" lon="11.825973">
        <ele>1962.368</ele>
        <time>2026-08-13T11:41:36Z</time>
      </trkpt>
      <trkpt lat="46.391129" lon="11.826014">
        <ele>1961.943</ele>
        <time>2026-08-13T11:41:49Z</time>
      </trkpt>
      <trkpt lat="46.391079" lon="11.826016">
        <ele>1962.185</ele>
        <time>2026-08-13T11:41:51Z</time>
      </trkpt>
      <trkpt lat="46.391123" lon="11.825976">
        <ele>1963.351</ele>
        <time>2026-08-13T11:45:26Z</time>
      </trkpt>
      <trkpt lat="46.392044" lon="11.827156">
        <ele>1975.870</ele>
        <time>2026-08-13T13:12:34Z</time>
      </trkpt>
      <trkpt lat="46.391942" lon="11.827052">
        <ele>1976.055</ele>
        <time>2026-08-13T13:12:45Z</time>
      </trkpt>
      <trkpt lat="46.391880" lon="11.826895">
        <ele>1976.476</ele>
        <time>2026-08-13T13:12:56Z</time>
      </trkpt>
      <trkpt lat="46.391959" lon="11.826519">
        <ele>1975.455</ele>
        <time>2026-08-13T13:13:27Z</time>
      </trkpt>
      <trkpt lat="46.391904" lon="11.826346">
        <ele>1969.547</ele>
        <time>2026-08-13T13:13:41Z</time>
      </trkpt>
      <trkpt lat="46.391456" lon="11.826000">
        <ele>1965.193</ele>
        <time>2026-08-13T13:14:37Z</time>
      </trkpt>
      <trkpt lat="46.391278" lon="11.826038">
        <ele>1964.665</ele>
        <time>2026-08-13T13:14:56Z</time>
      </trkpt>
      <trkpt lat="46.391241" lon="11.825996">
        <ele>1964.621</ele>
        <time>2026-08-13T13:15:01Z</time>
      </trkpt>
      <trkpt lat="46.391242" lon="11.826052">
        <ele>1967.109</ele>
        <time>2026-08-13T13:16:47Z</time>
      </trkpt>
      <trkpt lat="46.391182" lon="11.826087">
        <ele>1967.241</ele>
        <time>2026-08-13T13:20:42Z</time>
      </trkpt>
      <trkpt lat="46.391236" lon="11.826073">
        <ele>1964.666</ele>
        <time>2026-08-13T13:26:23Z</time>
      </trkpt>
      <trkpt lat="46.391251" lon="11.826032">
        <ele>1963.938</ele>
        <time>2026-08-13T13:26:26Z</time>
      </trkpt>
      <trkpt lat="46.391173" lon="11.826085">
        <ele>1963.444</ele>
        <time>2026-08-13T13:28:12Z</time>
      </trkpt>
      <trkpt lat="46.391263" lon="11.826106">
        <ele>1962.543</ele>
        <time>2026-08-13T13:28:23Z</time>
      </trkpt>
      <trkpt lat="46.391248" lon="11.826012">
        <ele>1962.358</ele>
        <time>2026-08-13T13:28:34Z</time>
      </trkpt>
      <trkpt lat="46.391261" lon="11.826081">
        <ele>1962.499</ele>
        <time>2026-08-13T13:42:44Z</time>
      </trkpt>
      <trkpt lat="46.391443" lon="11.825947">
        <ele>1960.288</ele>
        <time>2026-08-13T13:43:13Z</time>
      </trkpt>
      <trkpt lat="46.391450" lon="11.826034">
        <ele>1960.240</ele>
        <time>2026-08-13T13:43:20Z</time>
      </trkpt>
      <trkpt lat="46.391505" lon="11.826016">
        <ele>1960.255</ele>
        <time>2026-08-13T13:43:25Z</time>
      </trkpt>
      <trkpt lat="46.391554" lon="11.826079">
        <ele>1960.207</ele>
        <time>2026-08-13T13:43:31Z</time>
      </trkpt>
      <trkpt lat="46.391613" lon="11.826069">
        <ele>1960.217</ele>
        <time>2026-08-13T13:43:38Z</time>
      </trkpt>
      <trkpt lat="46.391846" lon="11.826308">
        <ele>1961.309</ele>
        <time>2026-08-13T13:44:06Z</time>
      </trkpt>
      <trkpt lat="46.391952" lon="11.826471">
        <ele>1961.697</ele>
        <time>2026-08-13T13:44:23Z</time>
      </trkpt>
      <trkpt lat="46.391900" lon="11.826911">
        <ele>1963.522</ele>
        <time>2026-08-13T13:45:04Z</time>
      </trkpt>
      <trkpt lat="46.392055" lon="11.827142">
        <ele>1967.764</ele>
        <time>2026-08-13T13:45:28Z</time>
      </trkpt>
      <trkpt lat="46.391887" lon="11.826843">
        <ele>1968.980</ele>
        <time>2026-08-13T13:52:51Z</time>
      </trkpt>
      <trkpt lat="46.391994" lon="11.826580">
        <ele>1968.369</ele>
        <time>2026-08-13T13:53:15Z</time>
      </trkpt>
      <trkpt lat="46.391976" lon="11.826449">
        <ele>1964.284</ele>
        <time>2026-08-13T13:53:23Z</time>
      </trkpt>
      <trkpt lat="46.391507" lon="11.826010">
        <ele>1958.065</ele>
        <time>2026-08-13T13:54:16Z</time>
      </trkpt>
      <trkpt lat="46.391417" lon="11.825997">
        <ele>1957.494</ele>
        <time>2026-08-13T13:54:24Z</time>
      </trkpt>
      <trkpt lat="46.391246" lon="11.826059">
        <ele>1957.986</ele>
        <time>2026-08-13T13:54:43Z</time>
      </trkpt>
      <trkpt lat="46.391230" lon="11.825976">
        <ele>1958.343</ele>
        <time>2026-08-13T13:54:49Z</time>
      </trkpt>
      <trkpt lat="46.391258" lon="11.825941">
        <ele>1958.964</ele>
        <time>2026-08-13T13:55:42Z</time>
      </trkpt>
      <trkpt lat="46.391319" lon="11.825967">
        <ele>1961.210</ele>
        <time>2026-08-13T13:56:37Z</time>
      </trkpt>
      <trkpt lat="46.391360" lon="11.825902">
        <ele>1961.109</ele>
        <time>2026-08-13T13:56:44Z</time>
      </trkpt>
      <trkpt lat="46.391287" lon="11.825663">
        <ele>1961.296</ele>
        <time>2026-08-13T13:57:13Z</time>
      </trkpt>
      <trkpt lat="46.391218" lon="11.825636">
        <ele>1961.171</ele>
        <time>2026-08-13T13:57:22Z</time>
      </trkpt>
      <trkpt lat="46.391174" lon="11.825676">
        <ele>1961.033</ele>
        <time>2026-08-13T13:57:29Z</time>
      </trkpt>
      <trkpt lat="46.391085" lon="11.825670">
        <ele>1960.589</ele>
        <time>2026-08-13T13:57:39Z</time>
      </trkpt>
      <trkpt lat="46.391047" lon="11.825710">
        <ele>1959.988</ele>
        <time>2026-08-13T13:57:45Z</time>
      </trkpt>
      <trkpt lat="46.391071" lon="11.825737">
        <ele>1959.793</ele>
        <time>2026-08-13T13:57:47Z</time>
      </trkpt>
      <trkpt lat="46.391156" lon="11.825654">
        <ele>1959.524</ele>
        <time>2026-08-13T13:57:58Z</time>
      </trkpt>
      <trkpt lat="46.391109" lon="11.825555">
        <ele>1959.553</ele>
        <time>2026-08-13T13:58:06Z</time>
      </trkpt>
      <trkpt lat="46.390959" lon="11.825586">
        <ele>1959.435</ele>
        <time>2026-08-13T13:58:17Z</time>
      </trkpt>
      <trkpt lat="46.390905" lon="11.825654">
        <ele>1959.583</ele>
        <time>2026-08-13T13:58:18Z</time>
      </trkpt>
      <trkpt lat="46.390812" lon="11.825627">
        <ele>1960.625</ele>
        <time>2026-08-13T13:58:35Z</time>
      </trkpt>
      <trkpt lat="46.390384" lon="11.825307">
        <ele>1963.017</ele>
        <time>2026-08-13T13:59:41Z</time>
      </trkpt>
      <trkpt lat="46.390346" lon="11.825288">
        <ele>1962.609</ele>
        <time>2026-08-13T13:59:45Z</time>
      </trkpt>
      <trkpt lat="46.390327" lon="11.825374">
        <ele>1962.550</ele>
        <time>2026-08-13T13:59:58Z</time>
      </trkpt>
      <trkpt lat="46.390273" lon="11.825275">
        <ele>1962.465</ele>
        <time>2026-08-13T14:00:02Z</time>
      </trkpt>
      <trkpt lat="46.389984" lon="11.825184">
        <ele>1962.467</ele>
        <time>2026-08-13T14:00:37Z</time>
      </trkpt>
      <trkpt lat="46.389398" lon="11.824520">
        <ele>1961.263</ele>
        <time>2026-08-13T14:02:28Z</time>
      </trkpt>
      <trkpt lat="46.389102" lon="11.823837">
        <ele>1960.692</ele>
        <time>2026-08-13T14:03:34Z</time>
      </trkpt>
      <trkpt lat="46.388867" lon="11.822933">
        <ele>1954.347</ele>
        <time>2026-08-13T14:04:50Z</time>
      </trkpt>
      <trkpt lat="46.388317" lon="11.822214">
        <ele>1948.998</ele>
        <time>2026-08-13T14:06:09Z</time>
      </trkpt>
      <trkpt lat="46.387934" lon="11.821923">
        <ele>1948.867</ele>
        <time>2026-08-13T14:06:52Z</time>
      </trkpt>
      <trkpt lat="46.387694" lon="11.821640">
        <ele>1948.879</ele>
        <time>2026-08-13T14:07:24Z</time>
      </trkpt>
      <trkpt lat="46.387575" lon="11.821334">
        <ele>1949.751</ele>
        <time>2026-08-13T14:07:47Z</time>
      </trkpt>
      <trkpt lat="46.387446" lon="11.820346">
        <ele>1954.401</ele>
        <time>2026-08-13T14:08:55Z</time>
      </trkpt>
      <trkpt lat="46.387314" lon="11.820155">
        <ele>1952.111</ele>
        <time>2026-08-13T14:09:13Z</time>
      </trkpt>
      <trkpt lat="46.387193" lon="11.820068">
        <ele>1948.809</ele>
        <time>2026-08-13T14:09:25Z</time>
      </trkpt>
      <trkpt lat="46.387085" lon="11.820049">
        <ele>1947.027</ele>
        <time>2026-08-13T14:09:35Z</time>
      </trkpt>
      <trkpt lat="46.386842" lon="11.820134">
        <ele>1949.522</ele>
        <time>2026-08-13T14:10:02Z</time>
      </trkpt>
      <trkpt lat="46.386754" lon="11.820094">
        <ele>1950.844</ele>
        <time>2026-08-13T14:10:14Z</time>
      </trkpt>
      <trkpt lat="46.386569" lon="11.819387">
        <ele>1954.450</ele>
        <time>2026-08-13T14:11:15Z</time>
      </trkpt>
      <trkpt lat="46.386452" lon="11.819184">
        <ele>1951.869</ele>
        <time>2026-08-13T14:11:35Z</time>
      </trkpt>
      <trkpt lat="46.386401" lon="11.818923">
        <ele>1951.764</ele>
        <time>2026-08-13T14:11:53Z</time>
      </trkpt>
      <trkpt lat="46.386249" lon="11.818663">
        <ele>1952.325</ele>
        <time>2026-08-13T14:12:13Z</time>
      </trkpt>
      <trkpt lat="46.385852" lon="11.818492">
        <ele>1958.924</ele>
        <time>2026-08-13T14:12:52Z</time>
      </trkpt>
      <trkpt lat="46.385601" lon="11.818332">
        <ele>1959.686</ele>
        <time>2026-08-13T14:13:21Z</time>
      </trkpt>
      <trkpt lat="46.385367" lon="11.818263">
        <ele>1958.831</ele>
        <time>2026-08-13T14:13:45Z</time>
      </trkpt>
      <trkpt lat="46.385090" lon="11.817827">
        <ele>1953.761</ele>
        <time>2026-08-13T14:14:29Z</time>
      </trkpt>
      <trkpt lat="46.384499" lon="11.817480">
        <ele>1954.607</ele>
        <time>2026-08-13T14:15:31Z</time>
      </trkpt>
      <trkpt lat="46.384364" lon="11.817343">
        <ele>1954.209</ele>
        <time>2026-08-13T14:15:47Z</time>
      </trkpt>
      <trkpt lat="46.384184" lon="11.816817">
        <ele>1950.535</ele>
        <time>2026-08-13T14:16:28Z</time>
      </trkpt>
      <trkpt lat="46.383879" lon="11.816573">
        <ele>1949.250</ele>
        <time>2026-08-13T14:17:04Z</time>
      </trkpt>
      <trkpt lat="46.383498" lon="11.815558">
        <ele>1943.142</ele>
        <time>2026-08-13T14:18:30Z</time>
      </trkpt>
      <trkpt lat="46.383480" lon="11.815647">
        <ele>1942.468</ele>
        <time>2026-08-13T14:18:57Z</time>
      </trkpt>
      <trkpt lat="46.383501" lon="11.815561">
        <ele>1942.117</ele>
        <time>2026-08-13T14:19:10Z</time>
      </trkpt>
      <trkpt lat="46.383469" lon="11.815520">
        <ele>1941.422</ele>
        <time>2026-08-13T14:19:15Z</time>
      </trkpt>
      <trkpt lat="46.383512" lon="11.814959">
        <ele>1938.113</ele>
        <time>2026-08-13T14:20:11Z</time>
      </trkpt>
      <trkpt lat="46.383481" lon="11.814912">
        <ele>1937.762</ele>
        <time>2026-08-13T14:20:16Z</time>
      </trkpt>
      <trkpt lat="46.383527" lon="11.814777">
        <ele>1936.954</ele>
        <time>2026-08-13T14:20:27Z</time>
      </trkpt>
      <trkpt lat="46.383566" lon="11.814798">
        <ele>1936.626</ele>
        <time>2026-08-13T14:20:32Z</time>
      </trkpt>
      <trkpt lat="46.383605" lon="11.814517">
        <ele>1932.347</ele>
        <time>2026-08-13T14:21:07Z</time>
      </trkpt>
      <trkpt lat="46.383667" lon="11.814470">
        <ele>1929.011</ele>
        <time>2026-08-13T14:21:17Z</time>
      </trkpt>
      <trkpt lat="46.383650" lon="11.814408">
        <ele>1928.609</ele>
        <time>2026-08-13T14:21:22Z</time>
      </trkpt>
      <trkpt lat="46.383739" lon="11.814337">
        <ele>1927.974</ele>
        <time>2026-08-13T14:21:36Z</time>
      </trkpt>
      <trkpt lat="46.383781" lon="11.814084">
        <ele>1924.989</ele>
        <time>2026-08-13T14:21:56Z</time>
      </trkpt>
      <trkpt lat="46.383604" lon="11.813973">
        <ele>1923.461</ele>
        <time>2026-08-13T14:22:13Z</time>
      </trkpt>
      <trkpt lat="46.383418" lon="11.813973">
        <ele>1917.687</ele>
        <time>2026-08-13T14:22:32Z</time>
      </trkpt>
      <trkpt lat="46.383051" lon="11.813645">
        <ele>1915.416</ele>
        <time>2026-08-13T14:23:18Z</time>
      </trkpt>
      <trkpt lat="46.383026" lon="11.813763">
        <ele>1915.891</ele>
        <time>2026-08-13T14:23:28Z</time>
      </trkpt>
      <trkpt lat="46.382996" lon="11.813452">
        <ele>1915.862</ele>
        <time>2026-08-13T14:23:37Z</time>
      </trkpt>
      <trkpt lat="46.382812" lon="11.813178">
        <ele>1914.811</ele>
        <time>2026-08-13T14:24:05Z</time>
      </trkpt>
      <trkpt lat="46.382743" lon="11.812893">
        <ele>1914.693</ele>
        <time>2026-08-13T14:24:29Z</time>
      </trkpt>
      <trkpt lat="46.382768" lon="11.812127">
        <ele>1913.176</ele>
        <time>2026-08-13T14:25:36Z</time>
      </trkpt>
      <trkpt lat="46.382735" lon="11.812080">
        <ele>1913.190</ele>
        <time>2026-08-13T14:25:43Z</time>
      </trkpt>
      <trkpt lat="46.382759" lon="11.812112">
        <ele>1911.419</ele>
        <time>2026-08-13T14:31:53Z</time>
      </trkpt>
      <trkpt lat="46.382806" lon="11.811987">
        <ele>1913.609</ele>
        <time>2026-08-13T14:32:20Z</time>
      </trkpt>
      <trkpt lat="46.382760" lon="11.811915">
        <ele>1912.239</ele>
        <time>2026-08-13T14:36:00Z</time>
      </trkpt>
      <trkpt lat="46.382848" lon="11.811841">
        <ele>1912.234</ele>
        <time>2026-08-13T14:36:12Z</time>
      </trkpt>
      <trkpt lat="46.382946" lon="11.811545">
        <ele>1909.356</ele>
        <time>2026-08-13T14:36:44Z</time>
      </trkpt>
      <trkpt lat="46.382998" lon="11.811529">
        <ele>1908.772</ele>
        <time>2026-08-13T14:36:51Z</time>
      </trkpt>
      <trkpt lat="46.383125" lon="11.811226">
        <ele>1904.761</ele>
        <time>2026-08-13T14:37:22Z</time>
      </trkpt>
      <trkpt lat="46.383182" lon="11.811020">
        <ele>1901.626</ele>
        <time>2026-08-13T14:37:39Z</time>
      </trkpt>
      <trkpt lat="46.383167" lon="11.810703">
        <ele>1900.757</ele>
        <time>2026-08-13T14:38:01Z</time>
      </trkpt>
      <trkpt lat="46.382870" lon="11.810308">
        <ele>1908.266</ele>
        <time>2026-08-13T14:38:55Z</time>
      </trkpt>
      <trkpt lat="46.382789" lon="11.809935">
        <ele>1905.588</ele>
        <time>2026-08-13T14:39:26Z</time>
      </trkpt>
      <trkpt lat="46.382678" lon="11.809814">
        <ele>1903.826</ele>
        <time>2026-08-13T14:39:39Z</time>
      </trkpt>
      <trkpt lat="46.382459" lon="11.809892">
        <ele>1904.147</ele>
        <time>2026-08-13T14:40:01Z</time>
      </trkpt>
      <trkpt lat="46.382168" lon="11.810234">
        <ele>1909.111</ele>
        <time>2026-08-13T14:40:37Z</time>
      </trkpt>
      <trkpt lat="46.382106" lon="11.810228">
        <ele>1911.709</ele>
        <time>2026-08-13T14:40:42Z</time>
      </trkpt>
      <trkpt lat="46.381932" lon="11.810362">
        <ele>1915.554</ele>
        <time>2026-08-13T14:41:05Z</time>
      </trkpt>
      <trkpt lat="46.381752" lon="11.810342">
        <ele>1917.759</ele>
        <time>2026-08-13T14:41:32Z</time>
      </trkpt>
      <trkpt lat="46.381602" lon="11.810250">
        <ele>1916.741</ele>
        <time>2026-08-13T14:41:52Z</time>
      </trkpt>
      <trkpt lat="46.381422" lon="11.809987">
        <ele>1910.597</ele>
        <time>2026-08-13T14:42:21Z</time>
      </trkpt>
      <trkpt lat="46.381313" lon="11.809312">
        <ele>1904.226</ele>
        <time>2026-08-13T14:43:09Z</time>
      </trkpt>
      <trkpt lat="46.381342" lon="11.809142">
        <ele>1898.091</ele>
        <time>2026-08-13T14:43:22Z</time>
      </trkpt>
      <trkpt lat="46.381444" lon="11.809018">
        <ele>1898.082</ele>
        <time>2026-08-13T14:43:31Z</time>
      </trkpt>
      <trkpt lat="46.381490" lon="11.808839">
        <ele>1903.751</ele>
        <time>2026-08-13T14:43:43Z</time>
      </trkpt>
      <trkpt lat="46.381449" lon="11.808289">
        <ele>1909.483</ele>
        <time>2026-08-13T14:44:22Z</time>
      </trkpt>
      <trkpt lat="46.381541" lon="11.808012">
        <ele>1901.833</ele>
        <time>2026-08-13T14:44:44Z</time>
      </trkpt>
      <trkpt lat="46.381759" lon="11.807839">
        <ele>1899.823</ele>
        <time>2026-08-13T14:45:07Z</time>
      </trkpt>
      <trkpt lat="46.381879" lon="11.807644">
        <ele>1899.215</ele>
        <time>2026-08-13T14:45:25Z</time>
      </trkpt>
      <trkpt lat="46.381888" lon="11.806991">
        <ele>1893.409</ele>
        <time>2026-08-13T14:46:14Z</time>
      </trkpt>
      <trkpt lat="46.381697" lon="11.806669">
        <ele>1893.685</ele>
        <time>2026-08-13T14:46:41Z</time>
      </trkpt>
      <trkpt lat="46.381412" lon="11.806577">
        <ele>1896.970</ele>
        <time>2026-08-13T14:47:59Z</time>
      </trkpt>
      <trkpt lat="46.381243" lon="11.806650">
        <ele>1897.572</ele>
        <time>2026-08-13T14:48:22Z</time>
      </trkpt>
      <trkpt lat="46.381070" lon="11.806617">
        <ele>1897.498</ele>
        <time>2026-08-13T14:48:49Z</time>
      </trkpt>
      <trkpt lat="46.380812" lon="11.806763">
        <ele>1900.297</ele>
        <time>2026-08-13T14:49:16Z</time>
      </trkpt>
      <trkpt lat="46.380734" lon="11.806694">
        <ele>1900.512</ele>
        <time>2026-08-13T14:49:28Z</time>
      </trkpt>
      <trkpt lat="46.380725" lon="11.805917">
        <ele>1896.723</ele>
        <time>2026-08-13T14:50:26Z</time>
      </trkpt>
      <trkpt lat="46.380773" lon="11.805691">
        <ele>1898.662</ele>
        <time>2026-08-13T14:50:43Z</time>
      </trkpt>
      <trkpt lat="46.380681" lon="11.805415">
        <ele>1902.534</ele>
        <time>2026-08-13T14:50:59Z</time>
      </trkpt>
      <trkpt lat="46.380674" lon="11.805151">
        <ele>1903.191</ele>
        <time>2026-08-13T14:51:24Z</time>
      </trkpt>
      <trkpt lat="46.380617" lon="11.804978">
        <ele>1903.281</ele>
        <time>2026-08-13T14:51:44Z</time>
      </trkpt>
      <trkpt lat="46.380598" lon="11.805002">
        <ele>1903.219</ele>
        <time>2026-08-13T14:51:48Z</time>
      </trkpt>
      <trkpt lat="46.380652" lon="11.804798">
        <ele>1902.709</ele>
        <time>2026-08-13T14:52:32Z</time>
      </trkpt>
      <trkpt lat="46.380593" lon="11.804724">
        <ele>1901.921</ele>
        <time>2026-08-13T14:52:38Z</time>
      </trkpt>
      <trkpt lat="46.380546" lon="11.804192">
        <ele>1899.786</ele>
        <time>2026-08-13T14:53:22Z</time>
      </trkpt>
      <trkpt lat="46.380415" lon="11.803886">
        <ele>1904.718</ele>
        <time>2026-08-13T14:53:47Z</time>
      </trkpt>
      <trkpt lat="46.380343" lon="11.803898">
        <ele>1905.544</ele>
        <time>2026-08-13T14:53:57Z</time>
      </trkpt>
      <trkpt lat="46.380325" lon="11.803470">
        <ele>1904.113</ele>
        <time>2026-08-13T14:54:32Z</time>
      </trkpt>
      <trkpt lat="46.380130" lon="11.802770">
        <ele>1897.398</ele>
        <time>2026-08-13T14:55:29Z</time>
      </trkpt>
      <trkpt lat="46.380047" lon="11.802087">
        <ele>1900.029</ele>
        <time>2026-08-13T14:56:22Z</time>
      </trkpt>
      <trkpt lat="46.379787" lon="11.801826">
        <ele>1902.568</ele>
        <time>2026-08-13T14:56:57Z</time>
      </trkpt>
      <trkpt lat="46.379662" lon="11.800618">
        <ele>1902.580</ele>
        <time>2026-08-13T14:58:31Z</time>
      </trkpt>
      <trkpt lat="46.379552" lon="11.800404">
        <ele>1900.196</ele>
        <time>2026-08-13T14:58:52Z</time>
      </trkpt>
      <trkpt lat="46.379308" lon="11.800136">
        <ele>1898.431</ele>
        <time>2026-08-13T14:59:32Z</time>
      </trkpt>
      <trkpt lat="46.379274" lon="11.800150">
        <ele>1898.524</ele>
        <time>2026-08-13T14:59:35Z</time>
      </trkpt>
      <trkpt lat="46.378945" lon="11.798741">
        <ele>1896.809</ele>
        <time>2026-08-13T15:01:24Z</time>
      </trkpt>
      <trkpt lat="46.378839" lon="11.798585">
        <ele>1896.821</ele>
        <time>2026-08-13T15:01:40Z</time>
      </trkpt>
      <trkpt lat="46.378810" lon="11.798617">
        <ele>1896.896</ele>
        <time>2026-08-13T15:01:42Z</time>
      </trkpt>
      <trkpt lat="46.378731" lon="11.798569">
        <ele>1897.188</ele>
        <time>2026-08-13T15:01:50Z</time>
      </trkpt>
      <trkpt lat="46.378546" lon="11.797999">
        <ele>1899.554</ele>
        <time>2026-08-13T15:02:48Z</time>
      </trkpt>
      <trkpt lat="46.378519" lon="11.797796">
        <ele>1899.553</ele>
        <time>2026-08-13T15:03:23Z</time>
      </trkpt>
      <trkpt lat="46.378559" lon="11.797707">
        <ele>1899.938</ele>
        <time>2026-08-13T15:03:27Z</time>
      </trkpt>
      <trkpt lat="46.378558" lon="11.797169">
        <ele>1908.449</ele>
        <time>2026-08-13T15:04:18Z</time>
      </trkpt>
      <trkpt lat="46.378601" lon="11.797021">
        <ele>1908.278</ele>
        <time>2026-08-13T15:04:40Z</time>
      </trkpt>
      <trkpt lat="46.378565" lon="11.797081">
        <ele>1908.230</ele>
        <time>2026-08-13T15:04:45Z</time>
      </trkpt>
      <trkpt lat="46.378654" lon="11.797004">
        <ele>1909.187</ele>
        <time>2026-08-13T15:04:59Z</time>
      </trkpt>
      <trkpt lat="46.378711" lon="11.796861">
        <ele>1910.242</ele>
        <time>2026-08-13T15:05:18Z</time>
      </trkpt>
      <trkpt lat="46.378692" lon="11.796674">
        <ele>1910.426</ele>
        <time>2026-08-13T15:05:55Z</time>
      </trkpt>
      <trkpt lat="46.378641" lon="11.796613">
        <ele>1911.609</ele>
        <time>2026-08-13T15:06:01Z</time>
      </trkpt>
      <trkpt lat="46.378589" lon="11.796690">
        <ele>1912.170</ele>
        <time>2026-08-13T15:06:06Z</time>
      </trkpt>
      <trkpt lat="46.378338" lon="11.796690">
        <ele>1912.585</ele>
        <time>2026-08-13T15:06:27Z</time>
      </trkpt>
      <trkpt lat="46.378234" lon="11.796826">
        <ele>1912.617</ele>
        <time>2026-08-13T15:06:41Z</time>
      </trkpt>
      <trkpt lat="46.378249" lon="11.798483">
        <ele>1902.943</ele>
        <time>2026-08-13T15:08:57Z</time>
      </trkpt>
      <trkpt lat="46.378187" lon="11.799234">
        <ele>1892.732</ele>
        <time>2026-08-13T15:09:59Z</time>
      </trkpt>
      <trkpt lat="46.378371" lon="11.799702">
        <ele>1888.837</ele>
        <time>2026-08-13T15:10:43Z</time>
      </trkpt>
      <trkpt lat="46.378486" lon="11.800630">
        <ele>1878.488</ele>
        <time>2026-08-13T15:11:53Z</time>
      </trkpt>
      <trkpt lat="46.378486" lon="11.800665">
        <ele>1878.257</ele>
        <time>2026-08-13T15:11:55Z</time>
      </trkpt>
      <trkpt lat="46.378430" lon="11.800656">
        <ele>1878.279</ele>
        <time>2026-08-13T15:12:45Z</time>
      </trkpt>
      <trkpt lat="46.378580" lon="11.801153">
        <ele>1879.646</ele>
        <time>2026-08-13T15:13:23Z</time>
      </trkpt>
      <trkpt lat="46.378632" lon="11.801240">
        <ele>1879.488</ele>
        <time>2026-08-13T15:13:39Z</time>
      </trkpt>
      <trkpt lat="46.378647" lon="11.801213">
        <ele>1879.416</ele>
        <time>2026-08-13T15:13:42Z</time>
      </trkpt>
      <trkpt lat="46.378607" lon="11.801207">
        <ele>1879.309</ele>
        <time>2026-08-13T15:13:45Z</time>
      </trkpt>
      <trkpt lat="46.378743" lon="11.802022">
        <ele>1876.136</ele>
        <time>2026-08-13T15:15:12Z</time>
      </trkpt>
      <trkpt lat="46.378654" lon="11.802094">
        <ele>1874.841</ele>
        <time>2026-08-13T15:15:25Z</time>
      </trkpt>
      <trkpt lat="46.378424" lon="11.802101">
        <ele>1871.433</ele>
        <time>2026-08-13T15:15:59Z</time>
      </trkpt>
      <trkpt lat="46.378231" lon="11.802291">
        <ele>1870.149</ele>
        <time>2026-08-13T15:16:24Z</time>
      </trkpt>
      <trkpt lat="46.378245" lon="11.802355">
        <ele>1870.048</ele>
        <time>2026-08-13T15:16:54Z</time>
      </trkpt>
    </trkseg>
  </trk></gpx>