<?xml version="1.0" encoding="UTF-8"?>
<gpx creator="Wikiloc - https://www.wikiloc.com" version="1.1" xmlns="http://www.topografix.com/GPX/1/1" xmlns:xsi="http://www.w3.org/2001/XMLSchema-instance" xsi:schemaLocation="http://www.topografix.com/GPX/1/1 http://www.topografix.com/GPX/1/1/gpx.xsd">
  <metadata>
    <name>Wikiloc - Mont Sainte Victoire</name>
    <link href="https://www.wikiloc.com/hiking-trails/saint-marc-jaumegarde-73842424">
      <text>Mont Sainte Victoire - Wikiloc on Wikiloc</text>
    </link>
    <time>2021-05-23T14:31:39Z</time>
  </metadata>
  <wpt lat="43.540946" lon="5.531359">
    <ele>407.5</ele>
    <time>2021-05-23T07:23:08Z</time>
    <name>Parcheggio</name>
    <cmt></cmt>
    <desc></desc>
  </wpt>
  <wpt lat="43.541130" lon="5.534620">
    <ele>349.3</ele>
    <time>2021-05-23T07:28:52Z</time>
    <name>Waypoint</name>
    <cmt></cmt>
    <desc></desc>
  </wpt>
  <wpt lat="43.540371" lon="5.536581">
    <ele>342.1</ele>
    <time>2021-05-23T07:33:03Z</time>
    <name>Lago</name>
    <cmt></cmt>
    <desc></desc>
  </wpt>
  <wpt lat="43.538862" lon="5.550241">
    <ele>439.8</ele>
    <time>2021-05-23T08:01:08Z</time>
    <name>Lago</name>
    <cmt></cmt>
    <desc></desc>
  </wpt>
  <wpt lat="43.538348" lon="5.554715">
    <ele>507.8</ele>
    <time>2021-05-23T08:13:42Z</time>
    <name>Waypoint</name>
    <cmt></cmt>
    <desc></desc>
  </wpt>
  <wpt lat="43.538682" lon="5.557364">
    <ele>563.1</ele>
    <time>2021-05-23T08:20:52Z</time>
    <name>Waypoint</name>
    <cmt></cmt>
    <desc></desc>
  </wpt>
  <wpt lat="43.538673" lon="5.559767">
    <ele>591.3</ele>
    <time>2021-05-23T08:26:56Z</time>
    <name>Waypoint</name>
    <cmt></cmt>
    <desc></desc>
  </wpt>
  <wpt lat="43.538628" lon="5.561351">
    <ele>594.8</ele>
    <time>2021-05-23T08:36:34Z</time>
    <name>Waypoint</name>
    <cmt></cmt>
    <desc></desc>
  </wpt>
  <wpt lat="43.536453" lon="5.571557">
    <ele>685.2</ele>
    <time>2021-05-23T09:01:21Z</time>
    <name>Waypoint</name>
    <cmt></cmt>
    <desc></desc>
  </wpt>
  <wpt lat="43.533771" lon="5.574127">
    <ele>766.0</ele>
    <time>2021-05-23T09:18:18Z</time>
    <name>Waypoint</name>
    <cmt></cmt>
    <desc></desc>
  </wpt>
  <wpt lat="43.533471" lon="5.574412">
    <ele>792.6</ele>
    <time>2021-05-23T09:21:41Z</time>
    <name>Waypoint</name>
    <cmt></cmt>
    <desc></desc>
  </wpt>
  <wpt lat="43.533266" lon="5.574392">
    <ele>794.7</ele>
    <time>2021-05-23T09:22:29Z</time>
    <name>Waypoint</name>
    <cmt></cmt>
    <desc></desc>
  </wpt>
  <wpt lat="43.531481" lon="5.578771">
    <ele>892.8</ele>
    <time>2021-05-23T09:42:28Z</time>
    <name>Sito religioso</name>
    <cmt></cmt>
    <desc></desc>
  </wpt>
  <wpt lat="43.530871" lon="5.580178">
    <ele>931.4</ele>
    <time>2021-05-23T09:48:23Z</time>
    <name>Vetta</name>
    <cmt></cmt>
    <desc></desc>
  </wpt>
  <wpt lat="43.530894" lon="5.580123">
    <ele>934.6</ele>
    <time>2021-05-23T09:49:16Z</time>
    <name>Vetta</name>
    <cmt></cmt>
    <desc></desc>
  </wpt>
  <trk>
    <name>Mont Sainte Victoire - Wikiloc</name>
    <cmt>Saint-Marc-Jaumegarde</cmt>
    <desc>Saint-Marc-Jaumegarde</desc>
    <trkseg>
      <trkpt lat="43.540946" lon="5.531359">
        <ele>349.865</ele>
        <time>2021-05-23T09:22:49Z</time>
      </trkpt>
      <trkpt lat="43.540916" lon="5.531604">
        <ele>345.968</ele>
        <time>2021-05-23T09:24:34Z</time>
      </trkpt>
      <trkpt lat="43.541368" lon="5.532436">
        <ele>346.014</ele>
        <time>2021-05-23T09:25:40Z</time>
      </trkpt>
      <trkpt lat="43.541572" lon="5.532630">
        <ele>347.608</ele>
        <time>2021-05-23T09:26:02Z</time>
      </trkpt>
      <trkpt lat="43.541694" lon="5.533029">
        <ele>346.413</ele>
        <time>2021-05-23T09:26:27Z</time>
      </trkpt>
      <trkpt lat="43.541529" lon="5.534087">
        <ele>347.429</ele>
        <time>2021-05-23T09:27:55Z</time>
      </trkpt>
      <trkpt lat="43.541127" lon="5.534621">
        <ele>349.384</ele>
        <time>2021-05-23T09:28:48Z</time>
      </trkpt>
      <trkpt lat="43.541302" lon="5.534613">
        <ele>351.230</ele>
        <time>2021-05-23T09:29:45Z</time>
      </trkpt>
      <trkpt lat="43.541480" lon="5.534956">
        <ele>348.518</ele>
        <time>2021-05-23T09:30:07Z</time>
      </trkpt>
      <trkpt lat="43.541413" lon="5.535774">
        <ele>344.170</ele>
        <time>2021-05-23T09:30:52Z</time>
      </trkpt>
      <trkpt lat="43.541023" lon="5.536301">
        <ele>342.918</ele>
        <time>2021-05-23T09:31:42Z</time>
      </trkpt>
      <trkpt lat="43.540365" lon="5.536581">
        <ele>342.250</ele>
        <time>2021-05-23T09:32:55Z</time>
      </trkpt>
      <trkpt lat="43.539869" lon="5.536441">
        <ele>341.357</ele>
        <time>2021-05-23T09:33:45Z</time>
      </trkpt>
      <trkpt lat="43.539348" lon="5.536035">
        <ele>340.100</ele>
        <time>2021-05-23T09:34:34Z</time>
      </trkpt>
      <trkpt lat="43.539482" lon="5.536276">
        <ele>343.420</ele>
        <time>2021-05-23T09:36:08Z</time>
      </trkpt>
      <trkpt lat="43.539349" lon="5.536438">
        <ele>344.308</ele>
        <time>2021-05-23T09:36:29Z</time>
      </trkpt>
      <trkpt lat="43.539341" lon="5.536732">
        <ele>346.872</ele>
        <time>2021-05-23T09:36:59Z</time>
      </trkpt>
      <trkpt lat="43.538746" lon="5.537710">
        <ele>356.878</ele>
        <time>2021-05-23T09:39:01Z</time>
      </trkpt>
      <trkpt lat="43.538659" lon="5.538035">
        <ele>357.833</ele>
        <time>2021-05-23T09:39:26Z</time>
      </trkpt>
      <trkpt lat="43.538319" lon="5.538499">
        <ele>355.379</ele>
        <time>2021-05-23T09:40:10Z</time>
      </trkpt>
      <trkpt lat="43.538191" lon="5.538518">
        <ele>355.067</ele>
        <time>2021-05-23T09:40:21Z</time>
      </trkpt>
      <trkpt lat="43.538104" lon="5.538843">
        <ele>354.079</ele>
        <time>2021-05-23T09:40:41Z</time>
      </trkpt>
      <trkpt lat="43.537562" lon="5.539674">
        <ele>360.627</ele>
        <time>2021-05-23T09:41:58Z</time>
      </trkpt>
      <trkpt lat="43.537089" lon="5.540197">
        <ele>366.379</ele>
        <time>2021-05-23T09:42:50Z</time>
      </trkpt>
      <trkpt lat="43.537099" lon="5.540768">
        <ele>364.028</ele>
        <time>2021-05-23T09:43:28Z</time>
      </trkpt>
      <trkpt lat="43.536889" lon="5.541104">
        <ele>361.889</ele>
        <time>2021-05-23T09:44:01Z</time>
      </trkpt>
      <trkpt lat="43.536871" lon="5.541324">
        <ele>363.817</ele>
        <time>2021-05-23T09:44:25Z</time>
      </trkpt>
      <trkpt lat="43.536696" lon="5.541460">
        <ele>358.508</ele>
        <time>2021-05-23T09:44:46Z</time>
      </trkpt>
      <trkpt lat="43.536571" lon="5.541885">
        <ele>349.619</ele>
        <time>2021-05-23T09:45:34Z</time>
      </trkpt>
      <trkpt lat="43.536823" lon="5.542980">
        <ele>335.465</ele>
        <time>2021-05-23T09:46:51Z</time>
      </trkpt>
      <trkpt lat="43.536618" lon="5.543645">
        <ele>332.690</ele>
        <time>2021-05-23T09:47:38Z</time>
      </trkpt>
      <trkpt lat="43.536983" lon="5.543949">
        <ele>350.266</ele>
        <time>2021-05-23T09:48:16Z</time>
      </trkpt>
      <trkpt lat="43.537015" lon="5.544455">
        <ele>348.484</ele>
        <time>2021-05-23T09:48:47Z</time>
      </trkpt>
      <trkpt lat="43.537346" lon="5.544938">
        <ele>364.526</ele>
        <time>2021-05-23T09:49:42Z</time>
      </trkpt>
      <trkpt lat="43.537335" lon="5.545663">
        <ele>374.284</ele>
        <time>2021-05-23T09:50:33Z</time>
      </trkpt>
      <trkpt lat="43.537819" lon="5.546340">
        <ele>363.316</ele>
        <time>2021-05-23T09:52:02Z</time>
      </trkpt>
      <trkpt lat="43.537659" lon="5.547005">
        <ele>374.863</ele>
        <time>2021-05-23T09:52:55Z</time>
      </trkpt>
      <trkpt lat="43.537906" lon="5.547481">
        <ele>382.144</ele>
        <time>2021-05-23T09:54:03Z</time>
      </trkpt>
      <trkpt lat="43.537879" lon="5.548028">
        <ele>405.518</ele>
        <time>2021-05-23T09:55:08Z</time>
      </trkpt>
      <trkpt lat="43.538034" lon="5.548509">
        <ele>414.508</ele>
        <time>2021-05-23T09:57:39Z</time>
      </trkpt>
      <trkpt lat="43.538196" lon="5.548529">
        <ele>409.973</ele>
        <time>2021-05-23T09:57:56Z</time>
      </trkpt>
      <trkpt lat="43.538648" lon="5.549014">
        <ele>415.659</ele>
        <time>2021-05-23T09:58:46Z</time>
      </trkpt>
      <trkpt lat="43.538713" lon="5.549487">
        <ele>415.354</ele>
        <time>2021-05-23T09:59:25Z</time>
      </trkpt>
      <trkpt lat="43.538880" lon="5.549652">
        <ele>421.770</ele>
        <time>2021-05-23T09:59:50Z</time>
      </trkpt>
      <trkpt lat="43.538854" lon="5.550240">
        <ele>439.878</ele>
        <time>2021-05-23T10:01:01Z</time>
      </trkpt>
      <trkpt lat="43.539136" lon="5.550718">
        <ele>448.460</ele>
        <time>2021-05-23T10:01:56Z</time>
      </trkpt>
      <trkpt lat="43.539225" lon="5.551188">
        <ele>454.728</ele>
        <time>2021-05-23T10:02:46Z</time>
      </trkpt>
      <trkpt lat="43.539084" lon="5.551455">
        <ele>458.760</ele>
        <time>2021-05-23T10:03:19Z</time>
      </trkpt>
      <trkpt lat="43.539113" lon="5.551962">
        <ele>462.319</ele>
        <time>2021-05-23T10:04:03Z</time>
      </trkpt>
      <trkpt lat="43.539300" lon="5.552368">
        <ele>460.009</ele>
        <time>2021-05-23T10:04:32Z</time>
      </trkpt>
      <trkpt lat="43.539287" lon="5.552805">
        <ele>463.319</ele>
        <time>2021-05-23T10:06:13Z</time>
      </trkpt>
      <trkpt lat="43.539127" lon="5.553002">
        <ele>469.208</ele>
        <time>2021-05-23T10:06:57Z</time>
      </trkpt>
      <trkpt lat="43.539189" lon="5.553253">
        <ele>471.458</ele>
        <time>2021-05-23T10:07:21Z</time>
      </trkpt>
      <trkpt lat="43.538550" lon="5.554201">
        <ele>494.684</ele>
        <time>2021-05-23T10:10:22Z</time>
      </trkpt>
      <trkpt lat="43.538328" lon="5.554774">
        <ele>507.199</ele>
        <time>2021-05-23T10:13:52Z</time>
      </trkpt>
      <trkpt lat="43.538441" lon="5.555075">
        <ele>514.065</ele>
        <time>2021-05-23T10:14:43Z</time>
      </trkpt>
      <trkpt lat="43.538200" lon="5.555458">
        <ele>528.123</ele>
        <time>2021-05-23T10:15:47Z</time>
      </trkpt>
      <trkpt lat="43.538464" lon="5.555801">
        <ele>530.665</ele>
        <time>2021-05-23T10:16:53Z</time>
      </trkpt>
      <trkpt lat="43.538339" lon="5.556036">
        <ele>538.463</ele>
        <time>2021-05-23T10:17:24Z</time>
      </trkpt>
      <trkpt lat="43.538410" lon="5.556746">
        <ele>555.355</ele>
        <time>2021-05-23T10:19:05Z</time>
      </trkpt>
      <trkpt lat="43.538484" lon="5.557072">
        <ele>561.335</ele>
        <time>2021-05-23T10:19:45Z</time>
      </trkpt>
      <trkpt lat="43.538682" lon="5.557296">
        <ele>562.986</ele>
        <time>2021-05-23T10:20:16Z</time>
      </trkpt>
      <trkpt lat="43.538652" lon="5.557559">
        <ele>563.014</ele>
        <time>2021-05-23T10:21:26Z</time>
      </trkpt>
      <trkpt lat="43.538754" lon="5.557772">
        <ele>565.008</ele>
        <time>2021-05-23T10:22:01Z</time>
      </trkpt>
      <trkpt lat="43.538659" lon="5.558493">
        <ele>575.140</ele>
        <time>2021-05-23T10:24:10Z</time>
      </trkpt>
      <trkpt lat="43.538707" lon="5.559222">
        <ele>581.726</ele>
        <time>2021-05-23T10:25:26Z</time>
      </trkpt>
      <trkpt lat="43.538589" lon="5.559354">
        <ele>586.531</ele>
        <time>2021-05-23T10:25:42Z</time>
      </trkpt>
      <trkpt lat="43.538672" lon="5.559418">
        <ele>586.667</ele>
        <time>2021-05-23T10:26:02Z</time>
      </trkpt>
      <trkpt lat="43.538650" lon="5.559824">
        <ele>592.225</ele>
        <time>2021-05-23T10:27:08Z</time>
      </trkpt>
      <trkpt lat="43.538958" lon="5.560963">
        <ele>597.087</ele>
        <time>2021-05-23T10:28:53Z</time>
      </trkpt>
      <trkpt lat="43.538984" lon="5.560894">
        <ele>594.595</ele>
        <time>2021-05-23T10:29:07Z</time>
      </trkpt>
      <trkpt lat="43.538309" lon="5.561870">
        <ele>586.687</ele>
        <time>2021-05-23T10:37:57Z</time>
      </trkpt>
      <trkpt lat="43.538233" lon="5.562174">
        <ele>593.867</ele>
        <time>2021-05-23T10:38:23Z</time>
      </trkpt>
      <trkpt lat="43.538350" lon="5.563234">
        <ele>600.381</ele>
        <time>2021-05-23T10:40:00Z</time>
      </trkpt>
      <trkpt lat="43.538173" lon="5.563555">
        <ele>596.719</ele>
        <time>2021-05-23T10:40:37Z</time>
      </trkpt>
      <trkpt lat="43.538378" lon="5.563963">
        <ele>593.208</ele>
        <time>2021-05-23T10:41:30Z</time>
      </trkpt>
      <trkpt lat="43.538363" lon="5.564569">
        <ele>596.943</ele>
        <time>2021-05-23T10:42:26Z</time>
      </trkpt>
      <trkpt lat="43.538550" lon="5.564867">
        <ele>602.289</ele>
        <time>2021-05-23T10:43:02Z</time>
      </trkpt>
      <trkpt lat="43.538678" lon="5.565572">
        <ele>611.524</ele>
        <time>2021-05-23T10:44:08Z</time>
      </trkpt>
      <trkpt lat="43.538782" lon="5.565606">
        <ele>613.720</ele>
        <time>2021-05-23T10:44:19Z</time>
      </trkpt>
      <trkpt lat="43.538640" lon="5.565758">
        <ele>621.348</ele>
        <time>2021-05-23T10:44:50Z</time>
      </trkpt>
      <trkpt lat="43.538629" lon="5.566181">
        <ele>625.590</ele>
        <time>2021-05-23T10:45:42Z</time>
      </trkpt>
      <trkpt lat="43.538449" lon="5.566588">
        <ele>633.498</ele>
        <time>2021-05-23T10:46:31Z</time>
      </trkpt>
      <trkpt lat="43.538482" lon="5.566839">
        <ele>638.550</ele>
        <time>2021-05-23T10:47:00Z</time>
      </trkpt>
      <trkpt lat="43.538248" lon="5.567976">
        <ele>642.587</ele>
        <time>2021-05-23T10:49:33Z</time>
      </trkpt>
      <trkpt lat="43.537934" lon="5.568336">
        <ele>640.242</ele>
        <time>2021-05-23T10:50:41Z</time>
      </trkpt>
      <trkpt lat="43.537986" lon="5.568550">
        <ele>635.826</ele>
        <time>2021-05-23T10:52:08Z</time>
      </trkpt>
      <trkpt lat="43.537497" lon="5.569255">
        <ele>642.208</ele>
        <time>2021-05-23T10:53:57Z</time>
      </trkpt>
      <trkpt lat="43.537399" lon="5.569802">
        <ele>640.255</ele>
        <time>2021-05-23T10:55:00Z</time>
      </trkpt>
      <trkpt lat="43.536981" lon="5.570255">
        <ele>650.311</ele>
        <time>2021-05-23T10:56:25Z</time>
      </trkpt>
      <trkpt lat="43.536845" lon="5.570660">
        <ele>662.056</ele>
        <time>2021-05-23T10:58:13Z</time>
      </trkpt>
      <trkpt lat="43.536538" lon="5.570968">
        <ele>672.922</ele>
        <time>2021-05-23T10:59:10Z</time>
      </trkpt>
      <trkpt lat="43.536511" lon="5.571533">
        <ele>685.150</ele>
        <time>2021-05-23T11:00:47Z</time>
      </trkpt>
      <trkpt lat="43.536296" lon="5.571614">
        <ele>690.142</ele>
        <time>2021-05-23T11:05:49Z</time>
      </trkpt>
      <trkpt lat="43.536016" lon="5.572054">
        <ele>707.550</ele>
        <time>2021-05-23T11:07:33Z</time>
      </trkpt>
      <trkpt lat="43.535836" lon="5.572017">
        <ele>713.922</ele>
        <time>2021-05-23T11:08:22Z</time>
      </trkpt>
      <trkpt lat="43.535709" lon="5.572105">
        <ele>717.857</ele>
        <time>2021-05-23T11:08:49Z</time>
      </trkpt>
      <trkpt lat="43.534960" lon="5.573130">
        <ele>734.300</ele>
        <time>2021-05-23T11:11:42Z</time>
      </trkpt>
      <trkpt lat="43.534709" lon="5.573218">
        <ele>737.320</ele>
        <time>2021-05-23T11:12:30Z</time>
      </trkpt>
      <trkpt lat="43.534462" lon="5.573547">
        <ele>745.608</ele>
        <time>2021-05-23T11:13:33Z</time>
      </trkpt>
      <trkpt lat="43.533855" lon="5.573950">
        <ele>763.192</ele>
        <time>2021-05-23T11:15:49Z</time>
      </trkpt>
      <trkpt lat="43.533675" lon="5.574210">
        <ele>773.818</ele>
        <time>2021-05-23T11:19:54Z</time>
      </trkpt>
      <trkpt lat="43.533723" lon="5.574329">
        <ele>774.893</ele>
        <time>2021-05-23T11:20:10Z</time>
      </trkpt>
      <trkpt lat="43.533606" lon="5.574422">
        <ele>781.729</ele>
        <time>2021-05-23T11:20:41Z</time>
      </trkpt>
      <trkpt lat="43.533574" lon="5.574708">
        <ele>787.087</ele>
        <time>2021-05-23T11:21:09Z</time>
      </trkpt>
      <trkpt lat="43.533456" lon="5.574404">
        <ele>793.019</ele>
        <time>2021-05-23T11:21:38Z</time>
      </trkpt>
      <trkpt lat="43.533194" lon="5.574362">
        <ele>793.587</ele>
        <time>2021-05-23T11:22:41Z</time>
      </trkpt>
      <trkpt lat="43.533331" lon="5.574666">
        <ele>797.019</ele>
        <time>2021-05-23T11:23:50Z</time>
      </trkpt>
      <trkpt lat="43.533021" lon="5.574759">
        <ele>810.683</ele>
        <time>2021-05-23T11:25:10Z</time>
      </trkpt>
      <trkpt lat="43.532839" lon="5.575200">
        <ele>823.325</ele>
        <time>2021-05-23T11:26:55Z</time>
      </trkpt>
      <trkpt lat="43.532128" lon="5.575971">
        <ele>856.317</ele>
        <time>2021-05-23T11:33:55Z</time>
      </trkpt>
      <trkpt lat="43.532086" lon="5.576445">
        <ele>862.408</ele>
        <time>2021-05-23T11:34:57Z</time>
      </trkpt>
      <trkpt lat="43.531799" lon="5.577312">
        <ele>872.295</ele>
        <time>2021-05-23T11:36:34Z</time>
      </trkpt>
      <trkpt lat="43.531867" lon="5.577510">
        <ele>875.591</ele>
        <time>2021-05-23T11:36:58Z</time>
      </trkpt>
      <trkpt lat="43.531767" lon="5.578012">
        <ele>875.986</ele>
        <time>2021-05-23T11:37:45Z</time>
      </trkpt>
      <trkpt lat="43.531864" lon="5.578104">
        <ele>880.242</ele>
        <time>2021-05-23T11:38:42Z</time>
      </trkpt>
      <trkpt lat="43.531713" lon="5.578414">
        <ele>883.270</ele>
        <time>2021-05-23T11:39:14Z</time>
      </trkpt>
      <trkpt lat="43.531743" lon="5.578572">
        <ele>884.292</ele>
        <time>2021-05-23T11:39:26Z</time>
      </trkpt>
      <trkpt lat="43.531678" lon="5.578668">
        <ele>882.050</ele>
        <time>2021-05-23T11:40:09Z</time>
      </trkpt>
      <trkpt lat="43.531570" lon="5.578638">
        <ele>882.412</ele>
        <time>2021-05-23T11:40:33Z</time>
      </trkpt>
      <trkpt lat="43.531585" lon="5.578862">
        <ele>887.918</ele>
        <time>2021-05-23T11:41:06Z</time>
      </trkpt>
      <trkpt lat="43.531465" lon="5.578764">
        <ele>893.398</ele>
        <time>2021-05-23T11:42:02Z</time>
      </trkpt>
      <trkpt lat="43.530995" lon="5.580182">
        <ele>927.217</ele>
        <time>2021-05-23T11:47:30Z</time>
      </trkpt>
      <trkpt lat="43.530853" lon="5.580168">
        <ele>932.008</ele>
        <time>2021-05-23T11:48:04Z</time>
      </trkpt>
      <trkpt lat="43.530863" lon="5.579963">
        <ele>940.618</ele>
        <time>2021-05-23T11:52:30Z</time>
      </trkpt>
      <trkpt lat="43.531041" lon="5.580051">
        <ele>936.274</ele>
        <time>2021-05-23T12:22:26Z</time>
      </trkpt>
      <trkpt lat="43.531223" lon="5.579680">
        <ele>922.929</ele>
        <time>2021-05-23T12:24:04Z</time>
      </trkpt>
      <trkpt lat="43.531464" lon="5.578950">
        <ele>906.875</ele>
        <time>2021-05-23T12:26:44Z</time>
      </trkpt>
      <trkpt lat="43.531418" lon="5.578764">
        <ele>902.133</ele>
        <time>2021-05-23T12:27:06Z</time>
      </trkpt>
      <trkpt lat="43.531461" lon="5.578704">
        <ele>900.965</ele>
        <time>2021-05-23T12:27:32Z</time>
      </trkpt>
      <trkpt lat="43.531519" lon="5.578835">
        <ele>899.083</ele>
        <time>2021-05-23T12:28:28Z</time>
      </trkpt>
      <trkpt lat="43.531657" lon="5.578799">
        <ele>894.295</ele>
        <time>2021-05-23T12:29:35Z</time>
      </trkpt>
      <trkpt lat="43.531770" lon="5.578535">
        <ele>885.064</ele>
        <time>2021-05-23T12:30:08Z</time>
      </trkpt>
      <trkpt lat="43.531829" lon="5.577274">
        <ele>876.106</ele>
        <time>2021-05-23T12:32:38Z</time>
      </trkpt>
      <trkpt lat="43.532253" lon="5.575803">
        <ele>855.516</ele>
        <time>2021-05-23T12:35:38Z</time>
      </trkpt>
      <trkpt lat="43.532566" lon="5.575526">
        <ele>844.008</ele>
        <time>2021-05-23T12:37:40Z</time>
      </trkpt>
      <trkpt lat="43.532495" lon="5.575462">
        <ele>836.893</ele>
        <time>2021-05-23T12:38:03Z</time>
      </trkpt>
      <trkpt lat="43.532840" lon="5.575175">
        <ele>825.519</ele>
        <time>2021-05-23T12:39:47Z</time>
      </trkpt>
      <trkpt lat="43.533005" lon="5.574841">
        <ele>816.584</ele>
        <time>2021-05-23T12:40:49Z</time>
      </trkpt>
      <trkpt lat="43.533248" lon="5.574676">
        <ele>812.690</ele>
        <time>2021-05-23T12:42:16Z</time>
      </trkpt>
      <trkpt lat="43.533257" lon="5.574754">
        <ele>811.638</ele>
        <time>2021-05-23T12:42:29Z</time>
      </trkpt>
      <trkpt lat="43.533355" lon="5.574706">
        <ele>810.690</ele>
        <time>2021-05-23T12:42:44Z</time>
      </trkpt>
      <trkpt lat="43.533413" lon="5.574415">
        <ele>799.468</ele>
        <time>2021-05-23T12:43:38Z</time>
      </trkpt>
      <trkpt lat="43.533538" lon="5.574650">
        <ele>791.610</ele>
        <time>2021-05-23T12:44:29Z</time>
      </trkpt>
      <trkpt lat="43.533544" lon="5.574289">
        <ele>781.896</ele>
        <time>2021-05-23T12:45:27Z</time>
      </trkpt>
      <trkpt lat="43.533670" lon="5.574217">
        <ele>778.731</ele>
        <time>2021-05-23T12:46:01Z</time>
      </trkpt>
      <trkpt lat="43.533704" lon="5.573957">
        <ele>771.924</ele>
        <time>2021-05-23T12:46:29Z</time>
      </trkpt>
      <trkpt lat="43.533801" lon="5.573989">
        <ele>768.808</ele>
        <time>2021-05-23T12:46:58Z</time>
      </trkpt>
      <trkpt lat="43.533928" lon="5.573673">
        <ele>763.456</ele>
        <time>2021-05-23T12:48:03Z</time>
      </trkpt>
      <trkpt lat="43.534105" lon="5.573570">
        <ele>757.772</ele>
        <time>2021-05-23T12:48:41Z</time>
      </trkpt>
      <trkpt lat="43.534363" lon="5.573615">
        <ele>753.147</ele>
        <time>2021-05-23T12:49:21Z</time>
      </trkpt>
      <trkpt lat="43.534569" lon="5.573473">
        <ele>747.333</ele>
        <time>2021-05-23T12:50:12Z</time>
      </trkpt>
      <trkpt lat="43.534834" lon="5.573167">
        <ele>739.231</ele>
        <time>2021-05-23T12:51:29Z</time>
      </trkpt>
      <trkpt lat="43.535031" lon="5.573111">
        <ele>736.573</ele>
        <time>2021-05-23T12:52:21Z</time>
      </trkpt>
      <trkpt lat="43.535716" lon="5.572107">
        <ele>719.731</ele>
        <time>2021-05-23T12:55:28Z</time>
      </trkpt>
      <trkpt lat="43.536076" lon="5.572016">
        <ele>710.423</ele>
        <time>2021-05-23T12:57:03Z</time>
      </trkpt>
      <trkpt lat="43.536321" lon="5.571626">
        <ele>700.291</ele>
        <time>2021-05-23T12:59:13Z</time>
      </trkpt>
      <trkpt lat="43.536537" lon="5.571664">
        <ele>688.581</ele>
        <time>2021-05-23T13:00:16Z</time>
      </trkpt>
      <trkpt lat="43.536638" lon="5.570663">
        <ele>673.919</ele>
        <time>2021-05-23T13:02:31Z</time>
      </trkpt>
      <trkpt lat="43.536894" lon="5.570497">
        <ele>665.708</ele>
        <time>2021-05-23T13:04:26Z</time>
      </trkpt>
      <trkpt lat="43.537062" lon="5.569982">
        <ele>659.646</ele>
        <time>2021-05-23T13:05:43Z</time>
      </trkpt>
      <trkpt lat="43.537479" lon="5.569587">
        <ele>645.422</ele>
        <time>2021-05-23T13:07:54Z</time>
      </trkpt>
      <trkpt lat="43.537494" lon="5.569317">
        <ele>641.477</ele>
        <time>2021-05-23T13:08:16Z</time>
      </trkpt>
      <trkpt lat="43.537704" lon="5.569071">
        <ele>638.033</ele>
        <time>2021-05-23T13:08:58Z</time>
      </trkpt>
      <trkpt lat="43.537752" lon="5.568794">
        <ele>637.631</ele>
        <time>2021-05-23T13:09:21Z</time>
      </trkpt>
      <trkpt lat="43.538243" lon="5.567877">
        <ele>633.483</ele>
        <time>2021-05-23T13:11:42Z</time>
      </trkpt>
      <trkpt lat="43.538223" lon="5.567666">
        <ele>634.051</ele>
        <time>2021-05-23T13:11:57Z</time>
      </trkpt>
      <trkpt lat="43.538509" lon="5.566954">
        <ele>630.183</ele>
        <time>2021-05-23T13:13:53Z</time>
      </trkpt>
      <trkpt lat="43.538638" lon="5.565457">
        <ele>615.925</ele>
        <time>2021-05-23T13:16:55Z</time>
      </trkpt>
      <trkpt lat="43.538397" lon="5.564504">
        <ele>605.826</ele>
        <time>2021-05-23T13:18:47Z</time>
      </trkpt>
      <trkpt lat="43.538376" lon="5.563974">
        <ele>597.908</ele>
        <time>2021-05-23T13:19:41Z</time>
      </trkpt>
      <trkpt lat="43.538497" lon="5.563953">
        <ele>596.608</ele>
        <time>2021-05-23T13:19:52Z</time>
      </trkpt>
      <trkpt lat="43.538481" lon="5.563876">
        <ele>593.899</ele>
        <time>2021-05-23T13:20:04Z</time>
      </trkpt>
      <trkpt lat="43.538437" lon="5.563730">
        <ele>592.515</ele>
        <time>2021-05-23T13:20:18Z</time>
      </trkpt>
      <trkpt lat="43.538222" lon="5.563604">
        <ele>593.690</ele>
        <time>2021-05-23T13:20:42Z</time>
      </trkpt>
      <trkpt lat="43.538320" lon="5.562959">
        <ele>591.476</ele>
        <time>2021-05-23T13:21:28Z</time>
      </trkpt>
      <trkpt lat="43.538239" lon="5.562300">
        <ele>593.634</ele>
        <time>2021-05-23T13:22:26Z</time>
      </trkpt>
      <trkpt lat="43.538443" lon="5.561460">
        <ele>593.566</ele>
        <time>2021-05-23T13:23:35Z</time>
      </trkpt>
      <trkpt lat="43.538877" lon="5.561077">
        <ele>594.584</ele>
        <time>2021-05-23T13:24:40Z</time>
      </trkpt>
      <trkpt lat="43.538979" lon="5.560775">
        <ele>593.896</ele>
        <time>2021-05-23T13:25:08Z</time>
      </trkpt>
      <trkpt lat="43.538718" lon="5.559944">
        <ele>596.155</ele>
        <time>2021-05-23T13:26:18Z</time>
      </trkpt>
      <trkpt lat="43.538667" lon="5.558420">
        <ele>577.607</ele>
        <time>2021-05-23T13:28:53Z</time>
      </trkpt>
      <trkpt lat="43.538765" lon="5.557760">
        <ele>571.117</ele>
        <time>2021-05-23T13:31:34Z</time>
      </trkpt>
      <trkpt lat="43.538651" lon="5.557258">
        <ele>564.608</ele>
        <time>2021-05-23T13:32:47Z</time>
      </trkpt>
      <trkpt lat="43.538434" lon="5.556942">
        <ele>564.162</ele>
        <time>2021-05-23T13:33:30Z</time>
      </trkpt>
      <trkpt lat="43.538377" lon="5.555697">
        <ele>545.868</ele>
        <time>2021-05-23T13:36:22Z</time>
      </trkpt>
      <trkpt lat="43.538586" lon="5.555113">
        <ele>528.073</ele>
        <time>2021-05-23T13:38:21Z</time>
      </trkpt>
      <trkpt lat="43.538515" lon="5.554974">
        <ele>522.159</ele>
        <time>2021-05-23T13:38:44Z</time>
      </trkpt>
      <trkpt lat="43.538603" lon="5.554674">
        <ele>513.417</ele>
        <time>2021-05-23T13:39:23Z</time>
      </trkpt>
      <trkpt lat="43.538583" lon="5.554605">
        <ele>514.279</ele>
        <time>2021-05-23T13:39:26Z</time>
      </trkpt>
      <trkpt lat="43.538543" lon="5.554724">
        <ele>514.697</ele>
        <time>2021-05-23T13:39:35Z</time>
      </trkpt>
      <trkpt lat="43.538480" lon="5.554377">
        <ele>501.579</ele>
        <time>2021-05-23T13:41:18Z</time>
      </trkpt>
      <trkpt lat="43.538734" lon="5.553785">
        <ele>488.682</ele>
        <time>2021-05-23T13:42:54Z</time>
      </trkpt>
      <trkpt lat="43.539141" lon="5.553355">
        <ele>479.343</ele>
        <time>2021-05-23T13:45:12Z</time>
      </trkpt>
      <trkpt lat="43.539151" lon="5.552914">
        <ele>474.717</ele>
        <time>2021-05-23T13:46:11Z</time>
      </trkpt>
      <trkpt lat="43.539284" lon="5.552857">
        <ele>473.008</ele>
        <time>2021-05-23T13:46:36Z</time>
      </trkpt>
      <trkpt lat="43.539280" lon="5.552235">
        <ele>464.195</ele>
        <time>2021-05-23T13:48:09Z</time>
      </trkpt>
      <trkpt lat="43.539127" lon="5.551892">
        <ele>466.121</ele>
        <time>2021-05-23T13:52:33Z</time>
      </trkpt>
      <trkpt lat="43.539180" lon="5.551157">
        <ele>461.496</ele>
        <time>2021-05-23T13:53:33Z</time>
      </trkpt>
      <trkpt lat="43.538882" lon="5.549943">
        <ele>446.542</ele>
        <time>2021-05-23T13:57:03Z</time>
      </trkpt>
      <trkpt lat="43.538759" lon="5.549844">
        <ele>444.090</ele>
        <time>2021-05-23T13:57:18Z</time>
      </trkpt>
      <trkpt lat="43.538479" lon="5.548911">
        <ele>429.012</ele>
        <time>2021-05-23T13:58:53Z</time>
      </trkpt>
      <trkpt lat="43.538203" lon="5.548705">
        <ele>421.510</ele>
        <time>2021-05-23T13:59:26Z</time>
      </trkpt>
      <trkpt lat="43.537939" lon="5.548283">
        <ele>418.212</ele>
        <time>2021-05-23T14:00:03Z</time>
      </trkpt>
      <trkpt lat="43.537941" lon="5.547492">
        <ele>410.546</ele>
        <time>2021-05-23T14:01:51Z</time>
      </trkpt>
      <trkpt lat="43.537652" lon="5.546629">
        <ele>392.288</ele>
        <time>2021-05-23T14:04:11Z</time>
      </trkpt>
      <trkpt lat="43.537753" lon="5.546245">
        <ele>390.816</ele>
        <time>2021-05-23T14:04:42Z</time>
      </trkpt>
      <trkpt lat="43.537564" lon="5.546231">
        <ele>388.008</ele>
        <time>2021-05-23T14:04:59Z</time>
      </trkpt>
      <trkpt lat="43.537282" lon="5.545674">
        <ele>377.081</ele>
        <time>2021-05-23T14:06:01Z</time>
      </trkpt>
      <trkpt lat="43.537244" lon="5.545164">
        <ele>369.187</ele>
        <time>2021-05-23T14:06:51Z</time>
      </trkpt>
      <trkpt lat="43.536925" lon="5.544088">
        <ele>356.032</ele>
        <time>2021-05-23T14:08:30Z</time>
      </trkpt>
      <trkpt lat="43.536568" lon="5.543562">
        <ele>349.598</ele>
        <time>2021-05-23T14:09:25Z</time>
      </trkpt>
      <trkpt lat="43.536718" lon="5.542999">
        <ele>341.326</ele>
        <time>2021-05-23T14:10:07Z</time>
      </trkpt>
      <trkpt lat="43.536702" lon="5.542498">
        <ele>332.298</ele>
        <time>2021-05-23T14:10:48Z</time>
      </trkpt>
      <trkpt lat="43.536555" lon="5.542079">
        <ele>336.196</ele>
        <time>2021-05-23T14:11:21Z</time>
      </trkpt>
      <trkpt lat="43.537075" lon="5.540764">
        <ele>363.378</ele>
        <time>2021-05-23T14:13:18Z</time>
      </trkpt>
      <trkpt lat="43.537093" lon="5.540161">
        <ele>367.913</ele>
        <time>2021-05-23T14:14:05Z</time>
      </trkpt>
      <trkpt lat="43.537750" lon="5.539392">
        <ele>369.543</ele>
        <time>2021-05-23T14:15:24Z</time>
      </trkpt>
      <trkpt lat="43.538070" lon="5.538603">
        <ele>367.407</ele>
        <time>2021-05-23T14:16:23Z</time>
      </trkpt>
      <trkpt lat="43.538778" lon="5.537637">
        <ele>365.408</ele>
        <time>2021-05-23T14:17:47Z</time>
      </trkpt>
      <trkpt lat="43.538822" lon="5.536733">
        <ele>360.388</ele>
        <time>2021-05-23T14:18:42Z</time>
      </trkpt>
      <trkpt lat="43.539023" lon="5.536437">
        <ele>360.214</ele>
        <time>2021-05-23T14:19:08Z</time>
      </trkpt>
      <trkpt lat="43.539039" lon="5.535593">
        <ele>351.519</ele>
        <time>2021-05-23T14:20:09Z</time>
      </trkpt>
      <trkpt lat="43.539217" lon="5.535621">
        <ele>352.945</ele>
        <time>2021-05-23T14:20:32Z</time>
      </trkpt>
      <trkpt lat="43.539374" lon="5.536078">
        <ele>351.513</ele>
        <time>2021-05-23T14:21:09Z</time>
      </trkpt>
      <trkpt lat="43.540331" lon="5.536555">
        <ele>346.085</ele>
        <time>2021-05-23T14:23:34Z</time>
      </trkpt>
      <trkpt lat="43.541019" lon="5.536250">
        <ele>345.993</ele>
        <time>2021-05-23T14:24:38Z</time>
      </trkpt>
      <trkpt lat="43.541492" lon="5.535627">
        <ele>344.635</ele>
        <time>2021-05-23T14:25:35Z</time>
      </trkpt>
      <trkpt lat="43.541526" lon="5.535202">
        <ele>348.764</ele>
        <time>2021-05-23T14:26:00Z</time>
      </trkpt>
      <trkpt lat="43.541335" lon="5.534505">
        <ele>352.106</ele>
        <time>2021-05-23T14:26:51Z</time>
      </trkpt>
      <trkpt lat="43.541155" lon="5.534564">
        <ele>352.416</ele>
        <time>2021-05-23T14:27:29Z</time>
      </trkpt>
      <trkpt lat="43.541624" lon="5.533887">
        <ele>353.608</ele>
        <time>2021-05-23T14:28:26Z</time>
      </trkpt>
      <trkpt lat="43.541701" lon="5.532972">
        <ele>350.663</ele>
        <time>2021-05-23T14:29:26Z</time>
      </trkpt>
      <trkpt lat="43.541551" lon="5.532569">
        <ele>349.659</ele>
        <time>2021-05-23T14:29:55Z</time>
      </trkpt>
      <trkpt lat="43.541316" lon="5.532405">
        <ele>348.484</ele>
        <time>2021-05-23T14:30:19Z</time>
      </trkpt>
      <trkpt lat="43.541050" lon="5.531856">
        <ele>344.440</ele>
        <time>2021-05-23T14:31:02Z</time>
      </trkpt>
      <trkpt lat="43.540972" lon="5.531340">
        <ele>347.338</ele>
        <time>2021-05-23T14:31:39Z</time>
      </trkpt>
    </trkseg>
  </trk></gpx>