<?xml version="1.0" encoding="UTF-8"?>
<gpx creator="Wikiloc - https://www.wikiloc.com" version="1.1" xmlns="http://www.topografix.com/GPX/1/1" xmlns:xsi="http://www.w3.org/2001/XMLSchema-instance" xsi:schemaLocation="http://www.topografix.com/GPX/1/1 http://www.topografix.com/GPX/1/1/gpx.xsd">
  <metadata>
    <name>Wikiloc - Viel del Pan con ascesa al Sasso Cappello</name>
    <link href="https://www.wikiloc.com/hiking-trails/sasso-cappello-226081198">
      <text>Viel del Pan con ascesa al Sasso Cappello - Wikiloc on Wikiloc</text>
    </link>
    <time>2025-08-10T13:41:13.662Z</time>
  </metadata>
  <trk>
    <name>Viel del Pan con ascesa al Sasso Cappello - Wikiloc</name>
    <cmt>Sasso Cappello</cmt>
    <desc>Sasso Cappello</desc>
    <trkseg>
      <trkpt lat="46.474453" lon="11.802235">
        <ele>2381.835</ele>
        <time>2025-08-10T09:02:35.789Z</time>
      </trkpt>
      <trkpt lat="46.474584" lon="11.802431">
        <ele>2383.886</ele>
        <time>2025-08-10T09:03:06.788Z</time>
      </trkpt>
      <trkpt lat="46.474678" lon="11.803081">
        <ele>2380.814</ele>
        <time>2025-08-10T09:07:34.786Z</time>
      </trkpt>
      <trkpt lat="46.475115" lon="11.804648">
        <ele>2365.209</ele>
        <time>2025-08-10T09:10:05.785Z</time>
      </trkpt>
      <trkpt lat="46.475200" lon="11.804831">
        <ele>2363.315</ele>
        <time>2025-08-10T09:10:24.785Z</time>
      </trkpt>
      <trkpt lat="46.475378" lon="11.804921">
        <ele>2359.145</ele>
        <time>2025-08-10T09:10:50.785Z</time>
      </trkpt>
      <trkpt lat="46.475315" lon="11.805102">
        <ele>2357.939</ele>
        <time>2025-08-10T09:12:20.784Z</time>
      </trkpt>
      <trkpt lat="46.475909" lon="11.806776">
        <ele>2347.313</ele>
        <time>2025-08-10T09:15:01.783Z</time>
      </trkpt>
      <trkpt lat="46.475995" lon="11.807348">
        <ele>2344.541</ele>
        <time>2025-08-10T09:15:42.783Z</time>
      </trkpt>
      <trkpt lat="46.476272" lon="11.807758">
        <ele>2344.734</ele>
        <time>2025-08-10T09:16:26.782Z</time>
      </trkpt>
      <trkpt lat="46.476407" lon="11.808286">
        <ele>2349.184</ele>
        <time>2025-08-10T09:17:12.782Z</time>
      </trkpt>
      <trkpt lat="46.477121" lon="11.810066">
        <ele>2361.672</ele>
        <time>2025-08-10T09:20:10.780Z</time>
      </trkpt>
      <trkpt lat="46.477387" lon="11.810471">
        <ele>2367.441</ele>
        <time>2025-08-10T09:21:19.779Z</time>
      </trkpt>
      <trkpt lat="46.477387" lon="11.811761">
        <ele>2374.219</ele>
        <time>2025-08-10T09:23:06.779Z</time>
      </trkpt>
      <trkpt lat="46.477507" lon="11.812617">
        <ele>2381.909</ele>
        <time>2025-08-10T09:24:13.779Z</time>
      </trkpt>
      <trkpt lat="46.477452" lon="11.814361">
        <ele>2387.719</ele>
        <time>2025-08-10T09:26:48.776Z</time>
      </trkpt>
      <trkpt lat="46.477546" lon="11.814914">
        <ele>2389.909</ele>
        <time>2025-08-10T09:27:39.777Z</time>
      </trkpt>
      <trkpt lat="46.477451" lon="11.815144">
        <ele>2392.063</ele>
        <time>2025-08-10T09:29:50.776Z</time>
      </trkpt>
      <trkpt lat="46.477236" lon="11.815310">
        <ele>2395.983</ele>
        <time>2025-08-10T09:30:24.775Z</time>
      </trkpt>
      <trkpt lat="46.477105" lon="11.815692">
        <ele>2397.377</ele>
        <time>2025-08-10T09:30:58.774Z</time>
      </trkpt>
      <trkpt lat="46.476892" lon="11.815900">
        <ele>2395.621</ele>
        <time>2025-08-10T09:31:22.775Z</time>
      </trkpt>
      <trkpt lat="46.476787" lon="11.816361">
        <ele>2392.659</ele>
        <time>2025-08-10T09:33:09.774Z</time>
      </trkpt>
      <trkpt lat="46.476441" lon="11.816764">
        <ele>2395.232</ele>
        <time>2025-08-10T09:34:25.772Z</time>
      </trkpt>
      <trkpt lat="46.475861" lon="11.818173">
        <ele>2406.292</ele>
        <time>2025-08-10T09:37:13.772Z</time>
      </trkpt>
      <trkpt lat="46.475772" lon="11.818216">
        <ele>2404.820</ele>
        <time>2025-08-10T09:37:34.772Z</time>
      </trkpt>
      <trkpt lat="46.476031" lon="11.818371">
        <ele>2401.899</ele>
        <time>2025-08-10T09:39:35.771Z</time>
      </trkpt>
      <trkpt lat="46.476007" lon="11.818839">
        <ele>2394.978</ele>
        <time>2025-08-10T09:40:28.771Z</time>
      </trkpt>
      <trkpt lat="46.476151" lon="11.819006">
        <ele>2393.733</ele>
        <time>2025-08-10T09:40:53.770Z</time>
      </trkpt>
      <trkpt lat="46.476074" lon="11.819259">
        <ele>2392.526</ele>
        <time>2025-08-10T09:41:20.770Z</time>
      </trkpt>
      <trkpt lat="46.476154" lon="11.819662">
        <ele>2388.209</ele>
        <time>2025-08-10T09:41:55.769Z</time>
      </trkpt>
      <trkpt lat="46.475930" lon="11.820193">
        <ele>2383.369</ele>
        <time>2025-08-10T09:42:52.768Z</time>
      </trkpt>
      <trkpt lat="46.475817" lon="11.820312">
        <ele>2382.199</ele>
        <time>2025-08-10T09:43:13.768Z</time>
      </trkpt>
      <trkpt lat="46.475421" lon="11.820438">
        <ele>2375.293</ele>
        <time>2025-08-10T09:43:57Z</time>
      </trkpt>
      <trkpt lat="46.475209" lon="11.820838">
        <ele>2369.767</ele>
        <time>2025-08-10T09:44:30.769Z</time>
      </trkpt>
      <trkpt lat="46.474978" lon="11.820941">
        <ele>2371.175</ele>
        <time>2025-08-10T09:44:53.767Z</time>
      </trkpt>
      <trkpt lat="46.474254" lon="11.821554">
        <ele>2376.558</ele>
        <time>2025-08-10T09:46:41.768Z</time>
      </trkpt>
      <trkpt lat="46.473523" lon="11.822581">
        <ele>2386.338</ele>
        <time>2025-08-10T09:48:53.767Z</time>
      </trkpt>
      <trkpt lat="46.473459" lon="11.823203">
        <ele>2386.766</ele>
        <time>2025-08-10T09:49:45.766Z</time>
      </trkpt>
      <trkpt lat="46.473518" lon="11.823631">
        <ele>2382.565</ele>
        <time>2025-08-10T09:50:19.766Z</time>
      </trkpt>
      <trkpt lat="46.473408" lon="11.823955">
        <ele>2384.296</ele>
        <time>2025-08-10T09:50:45.766Z</time>
      </trkpt>
      <trkpt lat="46.473412" lon="11.824310">
        <ele>2387.631</ele>
        <time>2025-08-10T09:51:15.765Z</time>
      </trkpt>
      <trkpt lat="46.473184" lon="11.824745">
        <ele>2397.424</ele>
        <time>2025-08-10T09:52:12.765Z</time>
      </trkpt>
      <trkpt lat="46.473210" lon="11.825382">
        <ele>2402.109</ele>
        <time>2025-08-10T09:55:10.764Z</time>
      </trkpt>
      <trkpt lat="46.473102" lon="11.826070">
        <ele>2411.131</ele>
        <time>2025-08-10T09:56:13.763Z</time>
      </trkpt>
      <trkpt lat="46.473280" lon="11.826626">
        <ele>2413.621</ele>
        <time>2025-08-10T09:57:23.762Z</time>
      </trkpt>
      <trkpt lat="46.473644" lon="11.826851">
        <ele>2414.355</ele>
        <time>2025-08-10T09:58:09.761Z</time>
      </trkpt>
      <trkpt lat="46.473839" lon="11.827627">
        <ele>2416.339</ele>
        <time>2025-08-10T10:00:24.761Z</time>
      </trkpt>
      <trkpt lat="46.474152" lon="11.827768">
        <ele>2418.097</ele>
        <time>2025-08-10T10:01:08.761Z</time>
      </trkpt>
      <trkpt lat="46.474445" lon="11.828788">
        <ele>2409.790</ele>
        <time>2025-08-10T10:02:38.760Z</time>
      </trkpt>
      <trkpt lat="46.474330" lon="11.829333">
        <ele>2409.180</ele>
        <time>2025-08-10T10:03:23.760Z</time>
      </trkpt>
      <trkpt lat="46.474601" lon="11.830636">
        <ele>2405.778</ele>
        <time>2025-08-10T10:06:03.758Z</time>
      </trkpt>
      <trkpt lat="46.474332" lon="11.831289">
        <ele>2413.297</ele>
        <time>2025-08-10T10:08:51.757Z</time>
      </trkpt>
      <trkpt lat="46.474612" lon="11.831949">
        <ele>2416.862</ele>
        <time>2025-08-10T10:10:04.757Z</time>
      </trkpt>
      <trkpt lat="46.474632" lon="11.833161">
        <ele>2421.283</ele>
        <time>2025-08-10T10:12:04.756Z</time>
      </trkpt>
      <trkpt lat="46.474288" lon="11.834106">
        <ele>2431.411</ele>
        <time>2025-08-10T10:13:54.755Z</time>
      </trkpt>
      <trkpt lat="46.474166" lon="11.834254">
        <ele>2433.109</ele>
        <time>2025-08-10T10:14:22.755Z</time>
      </trkpt>
      <trkpt lat="46.474122" lon="11.834206">
        <ele>2433.438</ele>
        <time>2025-08-10T10:14:30.755Z</time>
      </trkpt>
      <trkpt lat="46.474172" lon="11.834179">
        <ele>2433.518</ele>
        <time>2025-08-10T10:14:55.754Z</time>
      </trkpt>
      <trkpt lat="46.474113" lon="11.834323">
        <ele>2430.192</ele>
        <time>2025-08-10T10:15:16.754Z</time>
      </trkpt>
      <trkpt lat="46.474074" lon="11.834190">
        <ele>2432.936</ele>
        <time>2025-08-10T10:21:06.751Z</time>
      </trkpt>
      <trkpt lat="46.474194" lon="11.834237">
        <ele>2431.874</ele>
        <time>2025-08-10T10:21:24.751Z</time>
      </trkpt>
      <trkpt lat="46.474113" lon="11.834317">
        <ele>2430.967</ele>
        <time>2025-08-10T10:21:36.751Z</time>
      </trkpt>
      <trkpt lat="46.474424" lon="11.834419">
        <ele>2435.867</ele>
        <time>2025-08-10T10:29:49.747Z</time>
      </trkpt>
      <trkpt lat="46.474825" lon="11.834416">
        <ele>2437.065</ele>
        <time>2025-08-10T10:32:59.745Z</time>
      </trkpt>
      <trkpt lat="46.475055" lon="11.834526">
        <ele>2438.924</ele>
        <time>2025-08-10T10:33:33.745Z</time>
      </trkpt>
      <trkpt lat="46.475770" lon="11.835151">
        <ele>2437.736</ele>
        <time>2025-08-10T10:34:59.744Z</time>
      </trkpt>
      <trkpt lat="46.476058" lon="11.835738">
        <ele>2440.717</ele>
        <time>2025-08-10T10:35:50.744Z</time>
      </trkpt>
      <trkpt lat="46.476287" lon="11.836511">
        <ele>2441.418</ele>
        <time>2025-08-10T10:37:03.743Z</time>
      </trkpt>
      <trkpt lat="46.476335" lon="11.837817">
        <ele>2451.909</ele>
        <time>2025-08-10T10:40:15.742Z</time>
      </trkpt>
      <trkpt lat="46.476495" lon="11.838024">
        <ele>2464.315</ele>
        <time>2025-08-10T10:41:31.740Z</time>
      </trkpt>
      <trkpt lat="46.476831" lon="11.838080">
        <ele>2482.035</ele>
        <time>2025-08-10T10:43:46.740Z</time>
      </trkpt>
      <trkpt lat="46.476731" lon="11.838736">
        <ele>2497.029</ele>
        <time>2025-08-10T10:49:11.737Z</time>
      </trkpt>
      <trkpt lat="46.476798" lon="11.839047">
        <ele>2508.623</ele>
        <time>2025-08-10T10:55:12.735Z</time>
      </trkpt>
      <trkpt lat="46.475650" lon="11.834999">
        <ele>2510.511</ele>
        <time>2025-08-10T11:44:52.713Z</time>
      </trkpt>
      <trkpt lat="46.475033" lon="11.834476">
        <ele>2508.974</ele>
        <time>2025-08-10T11:47:26.712Z</time>
      </trkpt>
      <trkpt lat="46.474111" lon="11.834257">
        <ele>2505.954</ele>
        <time>2025-08-10T11:49:39.712Z</time>
      </trkpt>
      <trkpt lat="46.474414" lon="11.833864">
        <ele>2503.552</ele>
        <time>2025-08-10T11:56:48.709Z</time>
      </trkpt>
      <trkpt lat="46.474636" lon="11.833104">
        <ele>2496.571</ele>
        <time>2025-08-10T11:57:34.708Z</time>
      </trkpt>
      <trkpt lat="46.474604" lon="11.831869">
        <ele>2491.193</ele>
        <time>2025-08-10T11:58:41.708Z</time>
      </trkpt>
      <trkpt lat="46.474326" lon="11.831246">
        <ele>2492.965</ele>
        <time>2025-08-10T11:59:28.707Z</time>
      </trkpt>
      <trkpt lat="46.474585" lon="11.830571">
        <ele>2482.721</ele>
        <time>2025-08-10T12:00:16Z</time>
      </trkpt>
      <trkpt lat="46.474415" lon="11.829862">
        <ele>2482.909</ele>
        <time>2025-08-10T12:00:56.707Z</time>
      </trkpt>
      <trkpt lat="46.474184" lon="11.829425">
        <ele>2485.041</ele>
        <time>2025-08-10T12:01:23.706Z</time>
      </trkpt>
      <trkpt lat="46.474218" lon="11.829488">
        <ele>2484.781</ele>
        <time>2025-08-10T12:01:45.706Z</time>
      </trkpt>
      <trkpt lat="46.474160" lon="11.829259">
        <ele>2482.185</ele>
        <time>2025-08-10T12:01:58.705Z</time>
      </trkpt>
      <trkpt lat="46.474259" lon="11.828891">
        <ele>2477.419</ele>
        <time>2025-08-10T12:02:11.706Z</time>
      </trkpt>
      <trkpt lat="46.473982" lon="11.827975">
        <ele>2474.167</ele>
        <time>2025-08-10T12:02:52.706Z</time>
      </trkpt>
      <trkpt lat="46.473637" lon="11.827741">
        <ele>2485.940</ele>
        <time>2025-08-10T12:03:47Z</time>
      </trkpt>
      <trkpt lat="46.473504" lon="11.827838">
        <ele>2485.060</ele>
        <time>2025-08-10T12:05:43.704Z</time>
      </trkpt>
      <trkpt lat="46.473782" lon="11.827540">
        <ele>2487.488</ele>
        <time>2025-08-10T12:06:52.704Z</time>
      </trkpt>
      <trkpt lat="46.473665" lon="11.826917">
        <ele>2490.827</ele>
        <time>2025-08-10T12:07:29.704Z</time>
      </trkpt>
      <trkpt lat="46.473231" lon="11.826553">
        <ele>2489.783</ele>
        <time>2025-08-10T12:08:54Z</time>
      </trkpt>
      <trkpt lat="46.473090" lon="11.826028">
        <ele>2489.125</ele>
        <time>2025-08-10T12:09:35.703Z</time>
      </trkpt>
      <trkpt lat="46.473207" lon="11.825548">
        <ele>2482.617</ele>
        <time>2025-08-10T12:10:05.703Z</time>
      </trkpt>
      <trkpt lat="46.473152" lon="11.824724">
        <ele>2478.509</ele>
        <time>2025-08-10T12:10:30.702Z</time>
      </trkpt>
      <trkpt lat="46.473467" lon="11.824155">
        <ele>2462.880</ele>
        <time>2025-08-10T12:11:22.701Z</time>
      </trkpt>
      <trkpt lat="46.473446" lon="11.823172">
        <ele>2462.940</ele>
        <time>2025-08-10T12:12:05.702Z</time>
      </trkpt>
      <trkpt lat="46.473587" lon="11.822408">
        <ele>2460.344</ele>
        <time>2025-08-10T12:13:00.701Z</time>
      </trkpt>
      <trkpt lat="46.474325" lon="11.821478">
        <ele>2452.298</ele>
        <time>2025-08-10T12:14:25.701Z</time>
      </trkpt>
      <trkpt lat="46.474950" lon="11.820918">
        <ele>2449.976</ele>
        <time>2025-08-10T12:15:23.700Z</time>
      </trkpt>
      <trkpt lat="46.475233" lon="11.820766">
        <ele>2447.259</ele>
        <time>2025-08-10T12:15:56.700Z</time>
      </trkpt>
      <trkpt lat="46.475399" lon="11.820438">
        <ele>2448.169</ele>
        <time>2025-08-10T12:16:30.700Z</time>
      </trkpt>
      <trkpt lat="46.475936" lon="11.820151">
        <ele>2454.727</ele>
        <time>2025-08-10T12:17:59.699Z</time>
      </trkpt>
      <trkpt lat="46.476164" lon="11.819604">
        <ele>2464.446</ele>
        <time>2025-08-10T12:19:13.699Z</time>
      </trkpt>
      <trkpt lat="46.476098" lon="11.819345">
        <ele>2465.577</ele>
        <time>2025-08-10T12:19:36.698Z</time>
      </trkpt>
      <trkpt lat="46.476177" lon="11.819027">
        <ele>2467.361</ele>
        <time>2025-08-10T12:20:04.698Z</time>
      </trkpt>
      <trkpt lat="46.476031" lon="11.818733">
        <ele>2471.427</ele>
        <time>2025-08-10T12:20:44.698Z</time>
      </trkpt>
      <trkpt lat="46.476088" lon="11.818404">
        <ele>2472.009</ele>
        <time>2025-08-10T12:21:12.698Z</time>
      </trkpt>
      <trkpt lat="46.475921" lon="11.818173">
        <ele>2474.399</ele>
        <time>2025-08-10T12:21:49.697Z</time>
      </trkpt>
      <trkpt lat="46.475932" lon="11.818031">
        <ele>2476.419</ele>
        <time>2025-08-10T12:22:06.697Z</time>
      </trkpt>
      <trkpt lat="46.476373" lon="11.816959">
        <ele>2467.533</ele>
        <time>2025-08-10T12:24:10.695Z</time>
      </trkpt>
      <trkpt lat="46.476843" lon="11.816301">
        <ele>2463.277</ele>
        <time>2025-08-10T12:25:15.696Z</time>
      </trkpt>
      <trkpt lat="46.476977" lon="11.815825">
        <ele>2464.595</ele>
        <time>2025-08-10T12:25:55.696Z</time>
      </trkpt>
      <trkpt lat="46.477265" lon="11.815257">
        <ele>2466.068</ele>
        <time>2025-08-10T12:26:54.695Z</time>
      </trkpt>
      <trkpt lat="46.477481" lon="11.815114">
        <ele>2462.098</ele>
        <time>2025-08-10T12:27:29.695Z</time>
      </trkpt>
      <trkpt lat="46.477570" lon="11.814789">
        <ele>2462.196</ele>
        <time>2025-08-10T12:28:21.695Z</time>
      </trkpt>
      <trkpt lat="46.477466" lon="11.814315">
        <ele>2459.425</ele>
        <time>2025-08-10T12:28:57.694Z</time>
      </trkpt>
      <trkpt lat="46.477517" lon="11.812467">
        <ele>2450.578</ele>
        <time>2025-08-10T12:30:54.693Z</time>
      </trkpt>
      <trkpt lat="46.477412" lon="11.811915">
        <ele>2448.833</ele>
        <time>2025-08-10T12:31:37.693Z</time>
      </trkpt>
      <trkpt lat="46.477411" lon="11.810417">
        <ele>2440.026</ele>
        <time>2025-08-10T12:33:24.693Z</time>
      </trkpt>
      <trkpt lat="46.477134" lon="11.810005">
        <ele>2430.009</ele>
        <time>2025-08-10T12:34:03.692Z</time>
      </trkpt>
      <trkpt lat="46.476555" lon="11.808633">
        <ele>2418.849</ele>
        <time>2025-08-10T12:35:04.692Z</time>
      </trkpt>
      <trkpt lat="46.476132" lon="11.807227">
        <ele>2419.219</ele>
        <time>2025-08-10T12:36:31.691Z</time>
      </trkpt>
      <trkpt lat="46.476148" lon="11.807381">
        <ele>2414.553</ele>
        <time>2025-08-10T13:40:36.663Z</time>
      </trkpt>
      <trkpt lat="46.476234" lon="11.807310">
        <ele>2414.577</ele>
        <time>2025-08-10T13:40:49.663Z</time>
      </trkpt>
      <trkpt lat="46.476273" lon="11.807359">
        <ele>2414.685</ele>
        <time>2025-08-10T13:40:55.663Z</time>
      </trkpt>
      <trkpt lat="46.476199" lon="11.807267">
        <ele>2417.898</ele>
        <time>2025-08-10T13:41:06.663Z</time>
      </trkpt>
      <trkpt lat="46.476173" lon="11.807342">
        <ele>2418.878</ele>
        <time>2025-08-10T13:41:13.662Z</time>
      </trkpt>
    </trkseg>
  </trk></gpx>